{"type": "FeatureCollection", "name": "bf_principal_rivers", "features": [{"type": "Feature", "geometry": {"type": "LineString", "coordinates": [[-5.263173, 11.13878], [-5.228993, 11.13642], [-5.193593, 11.124457], [-5.158681, 11.119696], [-5.125966, 11.13878], [-5.112294, 11.172919], [-5.107859, 11.176581], [-5.094553, 11.184394], [-5.091868, 11.189724], [-5.088368, 11.198432], [-5.064524, 11.233751], [-5.026438, 11.258409], [-5.018381, 11.26085], [-5.006174, 11.261664], [-4.988596, 11.265896], [-4.973785, 11.272895], [-4.960398, 11.274359], [-4.947255, 11.261664], [-4.932851, 11.272895], [-4.916575, 11.275824], [-4.898671, 11.276801], [-4.878977, 11.282172], [-4.858225, 11.292507], [-4.840159, 11.304389], [-4.824452, 11.320583], [-4.810618, 11.343614], [-4.792144, 11.340277], [-4.772043, 11.348904], [-4.755849, 11.362616], [-4.743642, 11.386094], [-4.730133, 11.398546], [-4.65982, 11.447292], [-4.649241, 11.440863], [-4.638254, 11.41767], [-4.629465, 11.412543], [-4.618235, 11.411322], [-4.607004, 11.408026], [-4.596425, 11.402655], [-4.574656, 11.386257], [-4.564768, 11.389268], [-4.555409, 11.398057], [-4.543772, 11.406317], [-4.505605, 11.417182], [-4.488759, 11.424872], [-4.481679, 11.436713], [-4.476145, 11.454372], [-4.462961, 11.471137], [-4.447255, 11.485175], [-4.433909, 11.494452], [-4.361887, 11.522406], [-4.352284, 11.523505], [-4.33137, 11.528144], [-4.320872, 11.529242], [-4.30842, 11.527411], [-4.291249, 11.518581], [-4.28303, 11.51557], [-4.268625, 11.512763], [-4.261545, 11.515082], [-4.248931, 11.522406], [-4.247141, 11.524848], [-4.243886, 11.533067], [-4.242136, 11.535997], [-4.238271, 11.538886], [-4.229726, 11.542589], [-4.22468, 11.546251], [-4.211985, 11.560736], [-4.20287, 11.57685], [-4.197011, 11.594062], [-4.187734, 11.644843], [-4.180491, 11.664496], [-4.161204, 11.68126], [-4.132232, 11.734687], [-4.125559, 11.740424], [-4.11384, 11.74376], [-4.10497, 11.748358], [-4.095937, 11.754747], [-4.091786, 11.759223], [-4.088043, 11.76435], [-4.080759, 11.772528], [-4.073557, 11.783026], [-4.065419, 11.805691], [-4.060251, 11.813503], [-4.05663, 11.817694], [-4.050282, 11.82864], [-4.046213, 11.834011], [-4.039377, 11.837104], [-4.033274, 11.833767], [-4.027903, 11.829617], [-4.02302, 11.830268], [-4.018707, 11.837266], [-4.017568, 11.845079], [-4.017405, 11.854193], [-4.016184, 11.865017], [-4.001943, 11.896064], [-3.998687, 11.906521], [-3.98469, 11.919379], [-3.981435, 11.930203], [-3.978668, 11.945868], [-3.97175, 11.945136], [-3.963043, 11.939399], [-3.947336, 11.940131], [-3.953359, 11.956366], [-3.951731, 11.974636], [-3.942698, 11.989447], [-3.926829, 11.995307], [-3.932281, 12.007676], [-3.934885, 12.011827], [-3.9405, 12.015815], [-3.919342, 12.049343], [-3.915476, 12.051825], [-3.911122, 12.050849], [-3.907704, 12.051866], [-3.904286, 12.073106], [-3.899485, 12.084744], [-3.892079, 12.084744], [-3.88093, 12.076972], [-3.87564, 12.089911], [-3.872792, 12.108669], [-3.868479, 12.118232], [-3.850168, 12.122626], [-3.833567, 12.133612], [-3.821604, 12.148139], [-3.816965, 12.162909], [-3.823313, 12.23725], [-3.813466, 12.260443], [-3.778798, 12.26907], [-3.764394, 12.277899], [-3.754628, 12.298448], [-3.741892, 12.337958], [-3.707102, 12.392605], [-3.696034, 12.401313], [-3.657623, 12.423041], [-3.645579, 12.427354], [-3.639475, 12.427029], [-3.635406, 12.425157], [-3.62206, 12.40998], [-3.614084, 12.404486], [-3.606353, 12.403428], [-3.598704, 12.401394], [-3.591054, 12.392605], [-3.57787, 12.401638], [-3.574696, 12.410915], [-3.577382, 12.433539], [-3.574778, 12.447211], [-3.565663, 12.470771], [-3.560374, 12.500515], [-3.545888, 12.514716], [-3.542551, 12.526313], [-3.549224, 12.553656], [-3.548166, 12.564724], [-3.535715, 12.570746], [-3.535715, 12.577582], [-3.540191, 12.578437], [-3.53539, 12.585761], [-3.532786, 12.591742], [-3.535308, 12.600694], [-3.535715, 12.61168], [-3.531239, 12.617499], [-3.524729, 12.622748], [-3.521799, 12.62934], [-3.52831, 12.638983], [-3.52302, 12.647081], [-3.516591, 12.6612], [-3.513499, 12.674628], [-3.518707, 12.680609], [-3.532297, 12.684882], [-3.540354, 12.6942], [-3.541086, 12.70364], [-3.524892, 12.711208], [-3.522776, 12.718451], [-3.522043, 12.725694], [-3.518707, 12.729031], [-3.491038, 12.729031], [-3.47289, 12.722032], [-3.464345, 12.723904], [-3.460683, 12.738634], [-3.455393, 12.744737], [-3.442942, 12.748481], [-3.42927, 12.749783], [-3.419749, 12.748847], [-3.406809, 12.744086], [-3.400461, 12.740017], [-3.396799, 12.733466], [-3.386952, 12.70836], [-3.360666, 12.663886], [-3.361155, 12.65351], [-3.371897, 12.638983], [-3.364817, 12.634711], [-3.363352, 12.636013], [-3.358225, 12.638983], [-3.349762, 12.632025], [-3.340647, 12.631212], [-3.333323, 12.63699], [-3.326405, 12.66413], [-3.316355, 12.67239], [-3.289377, 12.680609], [-3.25829, 12.686306], [-3.248687, 12.676866], [-3.254628, 12.580634], [-3.246571, 12.534613], [-3.248362, 12.529731], [-3.239491, 12.524848], [-3.227854, 12.525417], [-3.204091, 12.529731], [-3.189198, 12.527045], [-3.181711, 12.520128], [-3.176096, 12.511094], [-3.166493, 12.501817], [-3.159006, 12.509304], [-3.117991, 12.440375], [-3.103749, 12.433539], [-3.102122, 12.430609], [-3.099273, 12.422431], [-3.097564, 12.419949], [-3.085032, 12.410264], [-3.077626, 12.407335], [-3.066477, 12.406277], [-3.052317, 12.400906], [-3.011464, 12.377468], [-2.991119, 12.372138], [-2.980133, 12.367621], [-2.962392, 12.349636], [-2.956614, 12.347927], [-2.948476, 12.353624], [-2.934153, 12.360378], [-2.92634, 12.365302], [-2.903228, 12.385525], [-2.886301, 12.393337], [-2.864817, 12.392605], [-2.847157, 12.37991], [-2.836619, 12.358832], [-2.837473, 12.339219], [-2.868967, 12.321723], [-2.8815, 12.301215], [-2.887278, 12.277615], [-2.881907, 12.259467], [-2.844065, 12.229926], [-2.830759, 12.213568], [-2.823801, 12.18712], [-2.823801, 12.193956], [-2.823435, 12.171942], [-2.81664, 12.150092], [-2.805653, 12.130439], [-2.792551, 12.11518], [-2.792795, 12.109076], [-2.80073, 12.084662], [-2.802724, 12.074164], [-2.807932, 12.064317], [-2.819407, 12.06627], [-2.874989, 12.099473], [-2.896311, 12.103868], [-2.905751, 12.087836], [-2.907867, 12.082343], [-2.917307, 12.064276], [-2.919423, 12.053046], [-2.916331, 12.041327], [-2.908844, 12.032782], [-2.892161, 12.02204], [-2.887196, 12.011298], [-2.885325, 12.008368], [-2.881174, 12.007758], [-2.868398, 12.009345], [-2.864817, 12.008368], [-2.85969, 11.995795], [-2.8603, 11.985948], [-2.863108, 11.976264], [-2.864817, 11.964301], [-2.866933, 11.957546], [-2.876291, 11.939643], [-2.878489, 11.930203], [-2.857981, 11.905951], [-2.84081, 11.893256], [-2.830881, 11.881537], [-2.832021, 11.867499], [-2.871002, 11.820339], [-2.875722, 11.811469], [-2.886301, 11.811835], [-2.89802, 11.815538], [-2.905751, 11.816596], [-2.923777, 11.797675], [-2.914784, 11.780056], [-2.890207, 11.767035], [-2.861399, 11.76199], [-2.80134, 11.763007], [-2.77302, 11.752712], [-2.76122, 11.724718], [-2.763132, 11.712226], [-2.772288, 11.687201], [-2.775461, 11.673204], [-2.773427, 11.670437], [-2.769114, 11.667914], [-2.766184, 11.66295], [-2.768625, 11.652696], [-2.773508, 11.647162], [-2.789133, 11.63821], [-2.795888, 11.63227], [-2.808502, 11.609931], [-2.826243, 11.555976], [-2.830068, 11.535997], [-2.828521, 11.503974], [-2.830068, 11.494452], [-2.833933, 11.489285], [-2.850575, 11.473944], [-2.847727, 11.465522], [-2.835032, 11.449774], [-2.830068, 11.440456], [-2.82844, 11.430121], [-2.830068, 11.395453], [-2.832183, 11.384548], [-2.841542, 11.365668], [-2.843739, 11.354519], [-2.841624, 11.321967], [-2.843739, 11.310126], [-2.869211, 11.27204], [-2.878407, 11.250596], [-2.867909, 11.241238], [-2.823964, 11.240261], [-2.804189, 11.233507], [-2.795888, 11.217637], [-2.788157, 11.159044], [-2.789133, 11.13878], [-2.798085, 11.119086], [-2.824534, 11.09988], [-2.830068, 11.08043], [-2.826243, 11.021023], [-2.830068, 11.008409], [-2.839263, 10.985297], [-2.833323, 10.966173], [-2.822336, 10.948432], [-2.816396, 10.929307], [-2.822011, 10.90644], [-2.835439, 10.891791], [-2.851389, 10.879706], [-2.864817, 10.864447], [-2.872304, 10.843573], [-2.88329, 10.797227], [-2.900095, 10.770209], [-2.903635, 10.747341], [-2.909169, 10.73786], [-2.919911, 10.727362], [-2.922922, 10.721381], [-2.919423, 10.706814], [-2.917551, 10.706732], [-2.913319, 10.706], [-2.908681, 10.703884], [-2.905751, 10.699327], [-2.90567, 10.692939], [-2.907867, 10.688422], [-2.910715, 10.684638], [-2.916819, 10.66824], [-2.930247, 10.644395], [-2.933095, 10.634467], [-2.928782, 10.615424], [-2.898997, 10.562812], [-2.896474, 10.552924], [-2.894846, 10.531562], [-2.892161, 10.521837], [-2.887522, 10.515937], [-2.87385, 10.502712], [-2.871002, 10.497911], [-2.867991, 10.478461], [-2.860178, 10.465766], [-2.825022, 10.435167], [-2.812734, 10.429023], [-2.796376, 10.426215], [-2.772043, 10.425605], [-2.768137, 10.421332], [-2.77245, 10.411973], [-2.781565, 10.402615], [-2.792551, 10.398301], [-2.805653, 10.397284], [-2.815256, 10.393866], [-2.822906, 10.387763], [-2.830068, 10.378485], [-2.836822, 10.363837], [-2.841868, 10.343451], [-2.841868, 10.322455], [-2.833811, 10.306179], [-2.825022, 10.302354], [-2.814768, 10.301296], [-2.806304, 10.29918], [-2.802724, 10.292507], [-2.800282, 10.281073], [-2.793772, 10.278754], [-2.784983, 10.278917], [-2.775461, 10.275417], [-2.765452, 10.269314], [-2.75886, 10.266303], [-2.755523, 10.260932], [-2.754954, 10.248114], [-2.75829, 10.234809], [-2.765696, 10.22602], [-2.785959, 10.210273], [-2.79898, 10.189724], [-2.799387, 10.169786], [-2.789133, 10.124579], [-2.789133, 10.038926], [-2.784169, 10.018663], [-2.761464, 9.984931], [-2.754954, 9.966905], [-2.756174, 9.94127], [-2.765452, 9.895941], [-2.76122, 9.870714], [-2.737294, 9.83279], [-2.734446, 9.822943], [-2.740793, 9.812812], [-2.775461, 9.774522], [-2.792226, 9.741075], [-2.795888, 9.72016], [-2.789133, 9.699408], [-2.780832, 9.690456], [-2.775461, 9.689521], [-2.769765, 9.690131], [-2.76122, 9.685736], [-2.756052, 9.67768], [-2.754709, 9.668524], [-2.751536, 9.659369], [-2.740712, 9.650987], [-2.753489, 9.640082], [-2.762156, 9.625434], [-2.767079, 9.609076], [-2.768625, 9.592963], [-2.766835, 9.576687], [-2.761627, 9.566474], [-2.725901, 9.534044], [-2.676259, 9.471869], [-2.67512, 9.457587], [-2.67927, 9.425727], [-2.677968, 9.417914], [-2.673004, 9.40119], [-2.673004, 9.374213], [-2.678049, 9.357204], [-2.690012, 9.349718], [-2.703603, 9.343451], [-2.713938, 9.330105], [-2.715566, 9.311225], [-2.707672, 9.295844], [-2.693512, 9.285509], [-2.676096, 9.281684], [-2.660471, 9.273057], [-2.661692, 9.254096], [-2.673655, 9.235053], [-2.705393, 9.218614], [-2.717112, 9.200466], [-2.734446, 9.165066], [-2.755767, 9.143337], [-2.759958, 9.134955], [-2.76179, 9.084988], [-2.76594, 9.069363], [-2.775461, 9.055203], [-2.765696, 9.049628], [-2.759267, 9.043036], [-2.751454, 9.037624], [-2.73762, 9.035264], [-2.711903, 9.034044], [-2.686757, 9.028428], [-2.661366, 9.015082], [-2.654856, 8.99905], [-2.653879, 8.978583], [-2.638254, 8.931667], [-2.632314, 8.92711], [-2.62564, 8.926215], [-2.620025, 8.923774], [-2.617747, 8.915147], [-2.6166673451838878, 8.9]]}, "properties": {"name": "Mouhoun", "name_alt": "Black Volta", "water_type": "Perennial river", "flow_regime": "perennial", "category": "Principal river", "source": "Natural Earth 1:10m physical", "label": "Mouhoun (Black Volta)"}}, {"type": "Feature", "geometry": {"type": "LineString", "coordinates": [[-1.1454764833235813, 8.9], [-1.156728, 8.920478], [-1.161122, 8.948432], [-1.152577, 8.970282], [-1.138254, 8.990994], [-1.131907, 9.003933], [-1.121816, 9.049506], [-1.12621, 9.077582], [-1.141672, 9.105536], [-1.151682, 9.116523]]}, "properties": {"name": "Nakanb\u00e9", "name_alt": "White Volta", "water_type": "Perennial river", "flow_regime": "perennial", "category": "Principal river", "source": "Natural Earth 1:10m physical", "label": "Nakanb\u00e9 (White Volta)"}}, {"type": "Feature", "geometry": {"type": "LineString", "coordinates": [[-2.082753, 14.010077], [-2.084055, 13.998806], [-2.089508, 13.97956], [-2.090159, 13.969102], [-2.087717, 13.958808], [-2.079091, 13.936876], [-2.077138, 13.924425], [-2.077138, 13.88349], [-2.075999, 13.877224], [-2.073435, 13.874294], [-2.070872, 13.872382], [-2.069651, 13.869208], [-2.070383, 13.851182], [-2.06314, 13.787462], [-2.063954, 13.753282], [-2.068674, 13.730984], [-2.069651, 13.71837], [-2.067454, 13.707343], [-2.057688, 13.693183], [-2.055409, 13.680487], [-2.057444, 13.680243], [-2.079335, 13.636908], [-2.081858, 13.628974], [-2.082753, 13.615668], [-2.086741, 13.59455], [-2.096425, 13.579657], [-2.107981, 13.566514], [-2.117502, 13.550808], [-2.12328, 13.53738], [-2.125234, 13.527777], [-2.124338, 13.516669], [-2.120107, 13.509711], [-2.106679, 13.498155], [-2.103831, 13.492743], [-2.098459, 13.472439], [-2.072458, 13.443468], [-2.062815, 13.427273], [-2.061838, 13.420111], [-2.062815, 13.396267], [-2.061838, 13.387885], [-2.059641, 13.381781], [-2.0572, 13.376817], [-2.043121, 13.325385], [-2.042388, 13.310614], [-2.053212, 13.281317], [-2.093088, 13.225857], [-2.103831, 13.194525], [-2.103261, 13.185574], [-2.097727, 13.171942], [-2.096425, 13.16352], [-2.098704, 13.155097], [-2.1044, 13.152167], [-2.111399, 13.150662], [-2.117502, 13.146064], [-2.123362, 13.123725], [-2.124338, 13.122178], [-2.127268, 13.119696], [-2.140859, 13.113878], [-2.144846, 13.111355], [-2.149322, 13.080919], [-2.128977, 13.064399], [-2.102976, 13.050849], [-2.090159, 13.029405], [-2.077707, 13.032253], [-2.018137, 13.029405], [-2.005198, 13.038438], [-1.992991, 13.056749], [-1.979563, 13.070909], [-1.963531, 13.067572], [-1.945546, 13.061306], [-1.90453, 13.067654], [-1.887847, 13.060736], [-1.875559, 13.060492], [-1.819569, 13.077826], [-1.802235, 13.076239], [-1.753855, 13.064154], [-1.702952, 13.06627], [-1.686106, 13.064154], [-1.676503, 13.057929], [-1.657297, 13.037218], [-1.64387, 13.029405], [-1.629099, 13.034491], [-1.620839, 13.034695], [-1.617258, 13.026313], [-1.614735, 13.017361], [-1.608835, 13.015733], [-1.601999, 13.018744], [-1.59675, 13.02322], [-1.589345, 13.02322], [-1.572987, 13.00495], [-1.556956, 12.997138], [-1.511383, 12.995917], [-1.483225, 12.990302], [-1.471832, 12.975775], [-1.465647, 12.955837], [-1.452707, 12.933865], [-1.439036, 12.944688], [-1.424631, 12.945502], [-1.408925, 12.944037], [-1.391265, 12.948065], [-1.383372, 12.955349], [-1.367747, 12.978135], [-1.356516, 12.988471], [-1.343821, 12.979519], [-1.325754, 12.978298], [-1.285146, 12.982245], [-1.267405, 12.973578], [-1.219309, 12.913357], [-1.212229, 12.908881], [-1.199534, 12.906358], [-1.192698, 12.900255], [-1.190419, 12.892849], [-1.185251, 12.861843], [-1.185251, 12.827989], [-1.181956, 12.818793], [-1.174306, 12.81627], [-1.165191, 12.815375], [-1.157867, 12.810899], [-1.152903, 12.796658], [-1.144276, 12.732123], [-1.150543, 12.707953], [-1.151682, 12.697333], [-1.148346, 12.6942], [-1.14094, 12.691962], [-1.133616, 12.686469], [-1.130686, 12.673774], [-1.136708, 12.664333], [-1.147776, 12.654242], [-1.153635, 12.6435], [-1.144276, 12.632148], [-1.132151, 12.630439], [-1.126129, 12.639106], [-1.124094, 12.652045], [-1.123769, 12.663194], [-1.120432, 12.668809], [-1.112375, 12.673204], [-1.102366, 12.674343], [-1.093332, 12.67003], [-1.09024, 12.662543], [-1.075917, 12.607733], [-1.075347, 12.598009], [-1.077545, 12.593695], [-1.087229, 12.583686], [-1.08967, 12.577582], [-1.087392, 12.576687], [-1.082428, 12.571967], [-1.077545, 12.565863], [-1.075347, 12.560818], [-1.070383, 12.519314], [-1.075876, 12.50373], [-1.097157, 12.501817], [-1.097157, 12.495632], [-1.067128, 12.475694], [-1.060048, 12.447821], [-1.069651, 12.414618], [-1.08967, 12.378933], [-1.093251, 12.377509], [-1.099192, 12.377305], [-1.105702, 12.376247], [-1.110748, 12.372138], [-1.111806, 12.367499], [-1.110504, 12.355984], [-1.110748, 12.35102], [-1.116119, 12.33043], [-1.11498, 12.321316], [-1.107004, 12.317491], [-1.09675, 12.307725], [-1.095693, 12.285224], [-1.097727, 12.259874], [-1.097157, 12.241767], [-1.090484, 12.231065], [-1.082834, 12.227362], [-1.075429, 12.225694], [-1.069163, 12.221259], [-1.063954, 12.212348], [-1.062082, 12.204942], [-1.062327, 12.183702], [-1.057932, 12.171942], [-1.048411, 12.162543], [-1.038808, 12.155097], [-1.034413, 12.149604], [-1.028147, 12.10456], [-1.024892, 12.093329], [-1.02245, 12.087755], [-1.013905, 12.077257], [-0.996002, 12.05976], [-0.988108, 12.040473], [-0.959788, 12.007676], [-0.946278, 11.995307], [-0.933827, 11.986355], [-0.926096, 11.982001], [-0.919749, 11.977362], [-0.898508, 11.950385], [-0.893137, 11.938747], [-0.891021, 11.923367], [-0.893381, 11.894721], [-0.887929, 11.886013], [-0.870513, 11.878689], [-0.856353, 11.879218], [-0.842926, 11.883165], [-0.832957, 11.882188], [-0.82608, 11.857123], [-0.818918, 11.847357], [-0.809153, 11.840359], [-0.798573, 11.837714], [-0.794993, 11.834418], [-0.795725, 11.819892], [-0.791737, 11.816596], [-0.777333, 11.815538], [-0.771718, 11.813747], [-0.767486, 11.81037], [-0.758616, 11.785997], [-0.759592, 11.731716], [-0.74706, 11.707953], [-0.759836, 11.702419], [-0.785553, 11.698594], [-0.795481, 11.693671], [-0.786448, 11.680976], [-0.764882, 11.659044], [-0.760732, 11.649278], [-0.759674, 11.63996], [-0.755442, 11.623887], [-0.754465, 11.61518], [-0.775461, 11.591905], [-0.781199, 11.583808], [-0.766672, 11.567816], [-0.744049, 11.549018], [-0.720204, 11.536566], [-0.702301, 11.539415], [-0.625885, 11.521186], [-0.60676, 11.512152], [-0.596506, 11.50373], [-0.562082, 11.488227], [-0.551015, 11.478339], [-0.527903, 11.440456], [-0.525706, 11.434027], [-0.52359, 11.418728], [-0.520497, 11.412543], [-0.514963, 11.410102], [-0.498606, 11.408067], [-0.493723, 11.406317], [-0.487375, 11.395453], [-0.482249, 11.380154], [-0.484446, 11.369208], [-0.499989, 11.371527], [-0.513661, 11.357937], [-0.520497, 11.365343], [-0.521881, 11.339626], [-0.501047, 11.301785], [-0.452789, 11.241238], [-0.435374, 11.194403], [-0.427968, 11.186591], [-0.414377, 11.182318], [-0.396555, 11.172187], [-0.381663, 11.16059], [-0.377105, 11.151801], [-0.367014, 11.144884], [-0.365712, 11.132676], [-0.370188, 11.101264], [-0.359853, 11.072292], [-0.357493, 11.056423], [-0.366526, 11.049425], [-0.37678, 11.043565], [-0.379465, 11.029731], [-0.377105, 11.001003], [-0.378733, 10.993272], [-0.382151, 10.987576], [-0.384023, 10.982693], [-0.380849, 10.977403], [-0.372222, 10.968207], [-0.369456, 10.96129], [-0.3697, 10.95657], [-0.370188, 10.953803], [-0.369862, 10.941514], [-0.375559, 10.916124], [-0.377105, 10.901964], [-0.378163, 10.899197], [-0.380849, 10.898139], [-0.384348, 10.897244], [-0.387603, 10.894843], [-0.389312, 10.89057], [-0.384958, 10.883572], [-0.384511, 10.878119], [-0.385325, 10.870795], [-0.384429, 10.838162], [-0.383127, 10.831814], [-0.378977, 10.825629], [-0.355865, 10.800808], [-0.346018, 10.796413], [-0.329335, 10.79621], [-0.341135, 10.777371], [-0.34553, 10.764472], [-0.351552, 10.76321], [-0.358225, 10.763739], [-0.362782, 10.76203], [-0.368642, 10.747382], [-0.367909, 10.735419], [-0.357737, 10.688178], [-0.337473, 10.6612], [-0.33613, 10.637885], [-0.385325, 10.615098], [-0.41039, 10.60696], [-0.441965, 10.603787], [-0.452952, 10.607611], [-0.480702, 10.621772], [-0.486318, 10.621161], [-0.489003, 10.607733], [-0.502187, 10.572455], [-0.507395, 10.562812], [-0.519358, 10.552843], [-0.526682, 10.55447], [-0.534657, 10.560167], [-0.548411, 10.562812], [-0.589426, 10.542589], [-0.596181, 10.546007], [-0.604726, 10.548692], [-0.623525, 10.55036], [-0.642242, 10.548163], [-0.650787, 10.539171], [-0.656646, 10.523749], [-0.670481, 10.522895], [-0.686513, 10.524237], [-0.699208, 10.515001], [-0.70344, 10.53205], [-0.694325, 10.550482], [-0.686757, 10.570868], [-0.702707, 10.609646], [-0.701853, 10.624864], [-0.703847, 10.639228], [-0.719716, 10.652167], [-0.73648, 10.647773], [-0.785227, 10.642849], [-0.795481, 10.634467], [-0.802805, 10.613593], [-0.830149, 10.585761], [-0.828928, 10.576483], [-0.873118, 10.519232], [-0.891021, 10.501329], [-0.911448, 10.487616], [-0.925608, 10.481065], [-0.931956, 10.484239], [-0.929189, 10.494249], [-0.92219, 10.503363], [-0.913319, 10.510565], [-0.904734, 10.515001], [-0.915354, 10.520535], [-0.922922, 10.519884], [-0.929026, 10.516872], [-0.935374, 10.515001], [-0.944163, 10.516669], [-0.973541, 10.529324], [-0.993479, 10.533637], [-1.013499, 10.533962], [-1.032297, 10.528388], [-1.048655, 10.515001], [-1.051747, 10.506863], [-1.060536, 10.495388], [-1.06314, 10.488634], [-1.067332, 10.484727], [-1.069163, 10.480821], [-1.068105, 10.474433], [-1.063385, 10.469509], [-1.058095, 10.46662], [-1.055491, 10.46662], [-1.05956, 10.457343], [-1.065989, 10.448432], [-1.069732, 10.439317], [-1.062571, 10.422309], [-1.052968, 10.383002], [-1.050852, 10.377021], [-1.049224, 10.370469], [-1.048655, 10.360785], [-1.051829, 10.356065], [-1.065745, 10.346951], [-1.069163, 10.343695], [-1.066599, 10.32746], [-1.055653, 10.318956], [-1.039296, 10.312567], [-1.020741, 10.302761], [-1.020741, 10.295925], [-1.041819, 10.295925], [-1.006663, 10.248806], [-1.002105, 10.228135], [-1.028147, 10.213324], [-1.023264, 10.204779], [-1.020904, 10.202175], [-1.013905, 10.207139], [-1.007069, 10.207139], [-1.010406, 10.188056], [-1.022654, 10.180976], [-1.035715, 10.177436], [-1.047678, 10.159613], [-1.077382, 10.146308], [-1.08967, 10.138251], [-1.079579, 10.122504], [-1.033437, 10.083319], [-1.026601, 10.079535], [-1.020334, 10.074042], [-1.013905, 10.062567], [-1.010813, 10.052558], [-1.007069, 10.018419], [-0.995798, 9.969428], [-0.997141, 9.960069], [-0.992421, 9.952419], [-1.002919, 9.911078], [-1.000885, 9.891181], [-1.007639, 9.891669], [-1.021474, 9.890692], [-1.028147, 9.891181], [-1.009592, 9.867051], [-1.003977, 9.853339], [-0.98762, 9.843533], [-0.979807, 9.836615], [-0.968007, 9.80268], [-0.966135, 9.798692], [-0.964182, 9.795925], [-0.959543, 9.795111], [-0.94929, 9.7956], [-0.946116, 9.793077], [-0.945953, 9.787055], [-0.946685, 9.780056], [-0.94343, 9.754747], [-0.950429, 9.73786], [-0.973541, 9.706244], [-0.971506, 9.703925], [-0.9676, 9.698188], [-0.96467, 9.691352], [-0.966135, 9.685736], [-0.971913, 9.683783], [-0.976999, 9.686469], [-0.980946, 9.690497], [-0.983469, 9.692572], [-1.006988, 9.691718], [-1.017649, 9.689724], [-1.028147, 9.685736], [-1.031077, 9.703681], [-1.04011, 9.700141], [-1.062327, 9.672716], [-1.071441, 9.68122], [-1.09024, 9.704779], [-1.103342, 9.71369], [-1.120676, 9.716986], [-1.133616, 9.71308], [-1.145009, 9.707587], [-1.157867, 9.706244], [-1.159332, 9.709988], [-1.158193, 9.717149], [-1.159657, 9.724189], [-1.168446, 9.727362], [-1.177235, 9.726874], [-1.184804, 9.725409], [-1.199534, 9.719916], [-1.212717, 9.71129], [-1.223785, 9.701606], [-1.232981, 9.695909], [-1.240468, 9.699408], [-1.247304, 9.699408], [-1.257558, 9.679714], [-1.273508, 9.669623], [-1.292551, 9.665839], [-1.312164, 9.66531], [-1.319407, 9.660997], [-1.333567, 9.642279], [-1.339752, 9.637966], [-1.347401, 9.636013], [-1.358469, 9.630968], [-1.369618, 9.624335], [-1.377675, 9.617499], [-1.372141, 9.609931], [-1.369781, 9.603135], [-1.372304, 9.598253], [-1.381052, 9.596381], [-1.389394, 9.592108], [-1.391103, 9.582709], [-1.391184, 9.57331], [-1.394683, 9.569119], [-1.39509, 9.561632], [-1.3603, 9.51789], [-1.353993, 9.503201], [-1.356923, 9.485378], [-1.362375, 9.467556], [-1.364003, 9.452989], [-1.358632, 9.439032], [-1.352976, 9.432074], [-1.349192, 9.423448], [-1.34968, 9.404608], [-1.356516, 9.404608], [-1.365468, 9.412136], [-1.36677, 9.407742], [-1.362864, 9.396796], [-1.356516, 9.384711], [-1.347157, 9.372992], [-1.312164, 9.346259], [-1.260081, 9.288398], [-1.240468, 9.281684], [-1.243398, 9.258409], [-1.23469, 9.196397], [-1.247304, 9.17182], [-1.226389, 9.154079], [-1.172109, 9.135281], [-1.151682, 9.116563]]}, "properties": {"name": "Nakanb\u00e9", "name_alt": "White Volta", "water_type": "Perennial river", "flow_regime": "perennial", "category": "Principal river", "source": "Natural Earth 1:10m physical", "label": "Nakanb\u00e9 (White Volta)"}}, {"type": "Feature", "geometry": {"type": "MultiLineString", "coordinates": [[[2.566335, 10.110297], [2.542654, 10.110622], [2.528819, 10.108995], [2.519216, 10.101345], [2.489675, 10.047553], [2.483084, 10.027696], [2.480642, 10.004462], [2.476003, 9.984565], [2.446544, 9.925971], [2.443777, 9.90644], [2.444265, 9.886827], [2.44158, 9.86697], [2.429373, 9.846503], [2.425059, 9.836615], [2.426768, 9.826199], [2.430593, 9.815701], [2.432791, 9.805528], [2.429373, 9.795274], [2.412364, 9.778144], [2.405528, 9.768337], [2.392589, 9.707465], [2.381277, 9.699408], [2.373953, 9.690863], [2.290538, 9.397895], [2.281993, 9.31212], [2.279796, 9.304633], [2.270518, 9.284776], [2.266368, 9.257636], [2.261404, 9.248155], [2.254812, 9.23904], [2.247813, 9.226426], [2.260997, 9.222113], [2.285899, 9.233507], [2.302419, 9.226426], [2.295584, 9.219184], [2.287527, 9.214626], [2.278494, 9.212714], [2.268321, 9.213446], [2.276622, 9.193956], [2.269216, 9.156806], [2.281993, 9.138292], [2.271251, 9.125312], [2.267263, 9.108507], [2.268565, 9.09101], [2.274587, 9.075629], [2.297374, 9.084784], [2.300548, 9.068305], [2.29005, 9.049628], [2.271414, 9.052069], [2.256847, 9.055732], [2.239187, 9.047675], [2.224783, 9.032416], [2.220876, 9.017727]], [[2.219981, 9.021023], [2.220876, 9.017727]], [[2.220876, 9.017727], [2.224376, 9.005642], [2.228445, 8.999538], [2.228201, 8.993964], [2.219981, 8.980048], [2.215343, 8.977729], [2.208669, 8.976996], [2.202647, 8.975206], [2.199962, 8.969794], [2.199962, 8.960273], [2.199229, 8.95421], [2.197195, 8.949897], [2.192556, 8.945339], [2.192556, 8.939073], [2.199962, 8.936347], [2.219981, 8.925401], [2.21282, 8.92239], [2.208018, 8.916815], [2.205984, 8.908718], [2.206185076850364, 8.9]], [[2.2101615702297708, 8.9], [2.216807, 8.903144], [2.221609, 8.906317], [2.226817, 8.911729], [2.234304, 8.904324], [2.240245, 8.90998], [2.242931, 8.911241], [2.247813, 8.911729], [2.246404344442919, 8.9]], [[2.220876, 9.017727], [2.219981, 9.014187]]]}, "properties": {"name": "Ou\u00e9m\u00e9", "name_alt": "", "water_type": "Perennial river", "flow_regime": "perennial", "category": "Principal river", "source": "Natural Earth 1:10m physical", "label": "Ou\u00e9m\u00e9"}}, {"type": "Feature", "geometry": {"type": "LineString", "coordinates": [[-5.407216, 10.693142], [-5.420725, 10.671983], [-5.427642, 10.665839], [-5.43871, 10.660712], [-5.448435, 10.65823], [-5.456044, 10.654242], [-5.461171, 10.644721], [-5.47114, 10.635769], [-5.478017, 10.619696], [-5.479197, 10.604356], [-5.471669, 10.59752], [-5.468699, 10.587999], [-5.482249, 10.535468], [-5.505767, 10.499335], [-5.509592, 10.491075], [-5.517649, 10.440131], [-5.523264, 10.425605], [-5.505686, 10.415717], [-5.488108, 10.393093], [-5.475901, 10.367865], [-5.474843, 10.350531], [-5.46052, 10.345323], [-5.453684, 10.344102], [-5.444407, 10.343695], [-5.438385, 10.340155], [-5.434071, 10.332058], [-5.430735, 10.323065], [-5.427642, 10.316962], [-5.416819, 10.307685], [-5.403147, 10.300808], [-5.386301, 10.296698], [-5.3662, 10.295925], [-5.361399, 10.298936], [-5.357737, 10.304551], [-5.353912, 10.308417], [-5.348785, 10.306179], [-5.34439, 10.30329], [-5.339182, 10.302354], [-5.327707, 10.302761], [-5.316151, 10.305447], [-5.309804, 10.311713], [-5.304758, 10.318549], [-5.297271, 10.323188], [-5.280344, 10.322577], [-5.234202, 10.315863], [-5.218088, 10.320136], [-5.169016, 10.291531], [-5.160146, 10.292507], [-5.152659, 10.305772], [-5.13622, 10.30447], [-5.119781, 10.293769], [-5.112294, 10.278835], [-5.112294, 10.223904], [-5.11498, 10.218451], [-5.118804, 10.212673], [-5.117665, 10.208279], [-5.10554, 10.207139], [-5.098459, 10.209418], [-5.092519, 10.214464], [-5.087961, 10.221015], [-5.085032, 10.227607], [-5.082183, 10.207099], [-5.090647, 10.18891], [-5.091298, 10.178087], [-5.064524, 10.179226], [-5.071278, 10.1612], [-5.065256, 10.150987], [-5.040028, 10.134548], [-5.038319, 10.126654], [-5.061594, 10.118598], [-5.070709, 10.110297], [-5.062327, 10.110216], [-5.055735, 10.108222], [-5.049875, 10.105536], [-5.043446, 10.103461], [-5.057118, 10.097276], [-5.048899, 10.085517], [-5.037831, 10.08393], [-5.026194, 10.088935], [-5.016184, 10.097276], [-5.01122, 10.07921], [-5.000437, 10.069648], [-4.987294, 10.063503], [-4.975168, 10.055691], [-4.963938, 10.040473], [-4.957021, 10.022162], [-4.960764, 10.008653], [-4.982004, 10.007921], [-4.977528, 9.997829], [-4.966298, 9.983344], [-4.955393, 9.959906], [-4.953521, 9.953559], [-4.967844, 9.912543], [-4.966624, 9.90119], [-4.937327, 9.874132], [-4.928619, 9.871161], [-4.922922, 9.877631], [-4.917551, 9.886664], [-4.909983, 9.891181], [-4.89859, 9.889106], [-4.894114, 9.884385], [-4.890614, 9.879706], [-4.882395, 9.87755], [-4.858957, 9.875841], [-4.839101, 9.869656], [-4.824778, 9.857123], [-4.818105, 9.836615], [-4.799143, 9.842719], [-4.790842, 9.827663], [-4.785959, 9.804999], [-4.77656, 9.788194], [-4.792551, 9.782538], [-4.800933, 9.781277], [-4.810618, 9.782009], [-4.810618, 9.774522], [-4.801829, 9.766669], [-4.799875, 9.762763], [-4.796946, 9.754665], [-4.783762, 9.758572], [-4.770497, 9.737576], [-4.755442, 9.740343], [-4.761057, 9.745469], [-4.762766, 9.750108], [-4.759185, 9.753485], [-4.749257, 9.754665], [-4.73884, 9.753282], [-4.733876, 9.749823], [-4.73054, 9.744412], [-4.725006, 9.737331], [-4.71345, 9.726996], [-4.709706, 9.720526], [-4.708241, 9.709988], [-4.706125, 9.702257], [-4.700673, 9.698065], [-4.687164, 9.692572], [-4.681956, 9.686876], [-4.682362, 9.682969], [-4.681711, 9.682196], [-4.673533, 9.685736], [-4.665476, 9.690985], [-4.658844, 9.697821], [-4.655344, 9.703721], [-4.656402, 9.706244], [-4.641672, 9.706163], [-4.629384, 9.707872], [-4.617502, 9.714057], [-4.604563, 9.727362], [-4.593251, 9.718044], [-4.578928, 9.696723], [-4.567372, 9.692572], [-4.552805, 9.696641], [-4.549062, 9.706977], [-4.548573, 9.720404], [-4.543772, 9.734198], [-4.540517, 9.740912], [-4.539703, 9.7449], [-4.536529, 9.746772], [-4.518381, 9.746772], [-4.510487, 9.745225], [-4.504547, 9.742214], [-4.502187, 9.737331], [-4.504384, 9.720038], [-4.514231, 9.694159], [-4.516428, 9.675849], [-4.502268, 9.655219], [-4.469797, 9.651923], [-4.433909, 9.653591], [-4.409739, 9.647895], [-4.400868, 9.633328], [-4.392161, 9.60045], [-4.385487, 9.589545], [-4.371816, 9.583116], [-4.368398, 9.592149], [-4.368479, 9.608507], [-4.365631, 9.624335], [-4.350168, 9.620185], [-4.310374, 9.603827], [-4.26594, 9.544867], [-4.25829, 9.539008], [-4.250478, 9.534776], [-4.244618, 9.528876], [-4.242136, 9.51789], [-4.242014, 9.507188], [-4.241038, 9.499132], [-4.238026, 9.49197], [-4.231516, 9.48371], [-4.204416, 9.458319], [-4.196604, 9.444525], [-4.191599, 9.411811], [-4.1822, 9.395575], [-4.180002, 9.388129], [-4.181223, 9.380235], [-4.18635, 9.36994], [-4.187489, 9.360175], [-4.18871, 9.356513], [-4.191151, 9.351264], [-4.193349, 9.34455], [-4.193674, 9.33629], [-4.191151, 9.32746], [-4.187082, 9.322821], [-4.182932, 9.319851], [-4.180002, 9.315863], [-4.177317, 9.298855], [-4.180491, 9.287909], [-4.185374, 9.277289], [-4.187489, 9.261257], [-4.18574, 9.25377], [-4.181793, 9.24494], [-4.177317, 9.23725], [-4.173818, 9.233262], [-4.162099, 9.228868], [-4.159495, 9.232001], [-4.158925, 9.239203], [-4.15274, 9.246934], [-4.134104, 9.256456], [-4.118642, 9.261257], [-4.109202, 9.262152], [-4.10204, 9.261827], [-4.096181, 9.262763], [-4.090647, 9.267401], [-4.063303, 9.244005], [-4.036692, 9.226426], [-3.995676, 9.217963], [-3.975168, 9.208197], [-3.964345, 9.206], [-3.956614, 9.201443], [-3.95344, 9.190985], [-3.951487, 9.179511], [-3.947336, 9.17182], [-3.939768, 9.170111], [-3.909739, 9.17182], [-3.893788, 9.165391], [-3.906077, 9.131944], [-3.892079, 9.116563], [-3.895823, 9.114691], [-3.896962, 9.11461], [-3.897532, 9.11404], [-3.899485, 9.110419], [-3.878977, 9.113105], [-3.86262, 9.119167], [-3.850901, 9.119086], [-3.844228, 9.103583], [-3.843739, 9.077948], [-3.851552, 9.076443], [-3.86262, 9.088446], [-3.872141, 9.103583], [-3.881907, 9.08039], [-3.885487, 9.058295], [-3.878, 9.041775], [-3.842519, 9.033149], [-3.825917, 9.027126], [-3.810862, 9.018175], [-3.803293, 9.007392], [-3.805491, 8.99372], [-3.816355, 8.989447], [-3.830881, 8.98904], [-3.844228, 8.986884], [-3.868886, 8.976508], [-3.890045, 8.96369], [-3.897898, 8.946234], [-3.882151, 8.921983], [-3.866038, 8.907904], [-3.8592629494776505, 8.9]]}, "properties": {"name": "Komo\u00e9", "name_alt": "Como\u00e9", "water_type": "Perennial river", "flow_regime": "perennial", "category": "Principal river", "source": "Natural Earth 1:10m physical", "label": "Komo\u00e9 (Como\u00e9)"}}, {"type": "Feature", "geometry": {"type": "LineString", "coordinates": [[-6.105458, 9.435899], [-6.102203, 9.449083], [-6.088206, 9.47309], [-6.08495, 9.48371], [-6.088612, 9.508368], [-6.089101, 9.520087], [-6.08495, 9.53498], [-6.056711, 9.57449], [-6.038401, 9.594997], [-6.026926, 9.603827], [-6.024159, 9.6081], [-6.020497, 9.617499], [-6.013173, 9.626899], [-5.999257, 9.631171], [-5.97175, 9.632595], [-5.959869, 9.636542], [-5.949045, 9.644843], [-5.935862, 9.633734], [-5.918528, 9.640245], [-5.886301, 9.66531], [-5.84553, 9.683865], [-5.782704, 9.731269], [-5.770253, 9.747178], [-5.757395, 9.765977], [-5.74234, 9.782009], [-5.737294, 9.781846], [-5.730458, 9.779853], [-5.724436, 9.782294], [-5.721832, 9.7956], [-5.716379, 9.789822], [-5.706614, 9.772081], [-5.705393, 9.768337], [-5.695139, 9.767646], [-5.687408, 9.765082], [-5.682607, 9.759833], [-5.680898, 9.750922], [-5.676747, 9.744412], [-5.668202, 9.751573], [-5.660878, 9.762803], [-5.66039, 9.768337], [-5.649892, 9.767157], [-5.643381, 9.762803], [-5.636708, 9.759345], [-5.625559, 9.76085], [-5.615549, 9.746283], [-5.61262, 9.740343], [-5.605784, 9.747178], [-5.593332, 9.739529], [-5.572825, 9.737128], [-5.564768, 9.727362], [-5.54483, 9.735053], [-5.491038, 9.744249], [-5.474843, 9.754665], [-5.468577, 9.754665], [-5.466624, 9.748603], [-5.46345, 9.732693], [-5.461171, 9.727362], [-5.46052, 9.724473], [-5.461741, 9.716579], [-5.461171, 9.71369], [-5.458567, 9.71308], [-5.450673, 9.714301], [-5.448069, 9.71369], [-5.413889, 9.685736], [-5.403635, 9.68126], [-5.382069, 9.67768], [-5.372385, 9.672716], [-5.370513, 9.668728], [-5.367991, 9.655382], [-5.3662, 9.650987], [-5.360341, 9.646511], [-5.356028, 9.644314], [-5.353261, 9.640408], [-5.351877, 9.631171], [-5.345693, 9.631171], [-5.336659, 9.637397], [-5.331776, 9.630316], [-5.323964, 9.603827], [-5.314687, 9.594591], [-5.304189, 9.587348], [-5.298777, 9.577989], [-5.304758, 9.562852], [-5.301015, 9.549506], [-5.302073, 9.531521], [-5.307688, 9.513495], [-5.317779, 9.50019], [-5.322825, 9.505235], [-5.338206, 9.514472], [-5.338368, 9.494737], [-5.328765, 9.491156], [-5.3155, 9.494167], [-5.304758, 9.493964], [-5.299062, 9.486843], [-5.302724, 9.480496], [-5.310618, 9.474066], [-5.317779, 9.466661], [-5.317616, 9.464301], [-5.321278, 9.446845], [-5.323964, 9.439317], [-5.350575, 9.402655], [-5.350657, 9.395372], [-5.338206, 9.391547], [-5.338206, 9.384711], [-5.371897, 9.344428], [-5.386708, 9.317939], [-5.392893, 9.291612], [-5.39566, 9.259467], [-5.405426, 9.229804], [-5.424469, 9.211534], [-5.454905, 9.213446], [-5.441233, 9.198554], [-5.435129, 9.183458], [-5.435374, 9.166368], [-5.447743, 9.122504], [-5.458079, 9.099962], [-5.473459, 9.086249], [-5.49592, 9.089911], [-5.497385, 9.0633], [-5.437408, 9.024482], [-5.420725, 8.99433], [-5.429921, 8.99787], [-5.43989, 9.000271], [-5.450347, 9.001166], [-5.461171, 9.000556], [-5.461171, 8.99433], [-5.455312, 8.991563], [-5.440663, 8.980048], [-5.465403, 8.964952], [-5.459788, 8.926337], [-5.485666, 8.918565], [-5.492177, 8.913398], [-5.48176, 8.902452], [-5.478112503706713, 8.9]]}, "properties": {"name": "Bandama Blanc", "name_alt": "", "water_type": "Perennial river", "flow_regime": "perennial", "category": "Principal river", "source": "Natural Earth 1:10m physical", "label": "Bandama Blanc"}}, {"type": "Feature", "geometry": {"type": "LineString", "coordinates": [[-3.979563, 15.281277], [-3.988718, 15.287665], [-4.016347, 15.302354], [-4.054636, 15.316677], [-4.09203, 15.327216], [-4.124501, 15.33869], [-4.157786, 15.35578], [-4.198801, 15.373887], [-4.228586, 15.393012], [-4.246571, 15.424628], [-4.260813, 15.456326], [-4.272654, 15.478054], [-4.28067, 15.488593], [-4.303863, 15.506944]]}, "properties": {"name": "Niger", "name_alt": "", "water_type": "Perennial river", "flow_regime": "perennial", "category": "Principal river", "source": "Natural Earth 1:10m physical", "label": "Niger"}}, {"type": "Feature", "geometry": {"type": "MultiLineString", "coordinates": [[[0.4772366282901633, 15.7], [0.499685, 15.664618], [0.507335, 15.641221], [0.506521, 15.618598], [0.493826, 15.558621], [0.485769, 15.537624], [0.563894, 15.513454], [0.575694, 15.500352], [0.680431, 15.464626], [0.702891, 15.453396], [0.72283, 15.44005], [0.733897, 15.429023], [0.748546, 15.399034], [0.754161, 15.382676], [0.756765, 15.367011], [0.753591, 15.351833], [0.74464, 15.341376], [0.733572, 15.332221], [0.723888, 15.320746], [0.720388, 15.312445], [0.718761, 15.304267], [0.717052, 15.277289], [0.714285, 15.270819], [0.706554, 15.25727], [0.702566, 15.241034], [0.700125, 15.207302], [0.694835, 15.191107], [0.681895, 15.165839], [0.672537, 15.153103], [0.662364, 15.147244], [0.661794, 15.127956], [0.660574, 15.122748], [0.654307, 15.108913], [0.651785, 15.081122], [0.648692, 15.074978], [0.658376, 15.058458], [0.656912, 15.016466], [0.658376, 15.003241], [0.662364, 14.994981], [0.675792, 14.976915], [0.678722, 14.965644], [0.683849, 14.958441], [0.696056, 14.951199], [0.710867, 14.947618], [0.737315, 14.957953], [0.753429, 14.954942], [0.836843, 14.915473], [0.855886, 14.894314], [0.86321, 14.862901], [0.866222, 14.830919], [0.874278, 14.799831], [0.900645, 14.743923], [0.902273, 14.73725], [0.903494, 14.717597], [0.905447, 14.706326], [0.909597, 14.696357], [0.94337, 14.648017], [0.950694, 14.641628], [0.976085, 14.626247], [0.990733, 14.615017], [1.028494, 14.574246], [1.056895, 14.551134], [1.069998, 14.537543], [1.078868, 14.522162], [1.089773, 14.496772], [1.131358, 14.43183], [1.301931, 14.276964], [1.315847, 14.268826], [1.336436, 14.259467], [1.355968, 14.253038], [1.367686, 14.253445], [1.387218, 14.26321], [1.407237, 14.258857], [1.425304, 14.245795], [1.439138, 14.229193], [1.485037, 14.146999], [1.502208, 14.103135], [1.514171, 14.057237], [1.516287, 14.03738], [1.514171, 13.972235], [1.517345, 13.962836], [1.531505, 13.942206], [1.534679, 13.93126], [1.534353, 13.907742], [1.536306, 13.89704], [1.541515, 13.887234], [1.549571, 13.881293], [1.573253, 13.871894], [1.583181, 13.865505], [1.586681, 13.858507], [1.589285, 13.849677], [1.593028, 13.842068], [1.600108, 13.838813], [1.705007, 13.713568], [1.715587, 13.696601], [1.729503, 13.682807], [1.754405, 13.673692], [1.764415, 13.673041], [1.785411, 13.674669], [1.795421, 13.673692], [1.806326, 13.668036], [1.829845, 13.650702], [1.853038, 13.640733], [1.912771, 13.598578], [1.934255, 13.592963], [1.976492, 13.58747], [1.99407, 13.578152], [2.001475, 13.568061], [2.008556, 13.546942], [2.014415, 13.537136], [2.024587, 13.529975], [2.062266, 13.516669], [2.079519, 13.52322], [2.100027, 13.512274], [2.117198, 13.492377], [2.130382, 13.44835], [2.145274, 13.434353], [2.163259, 13.424384], [2.178966, 13.413031], [2.185476, 13.399726], [2.191091, 13.381659], [2.198497, 13.365831], [2.209972, 13.358995], [2.232351, 13.354682], [2.254893, 13.34394], [2.324229, 13.298041], [2.346853, 13.27619], [2.361013, 13.245917], [2.370291, 13.009955], [2.364513, 12.958075], [2.36671, 12.936103], [2.375987, 12.897488], [2.378184, 12.875515], [2.386729, 12.860419], [2.424327, 12.834093], [2.438243, 12.802924], [2.462169, 12.795274], [2.46754, 12.786689], [2.469493, 12.776923], [2.478526, 12.755072], [2.481863, 12.740994], [2.487234, 12.734158], [2.488048, 12.729031], [2.485606, 12.722357], [2.476573, 12.713487], [2.473806, 12.707872], [2.469737, 12.689399], [2.470225, 12.682563], [2.473806, 12.673774], [2.508556, 12.652655], [2.517345, 12.648505], [2.523448, 12.648993], [2.526866, 12.646186], [2.527761, 12.632148], [2.520925, 12.613796], [2.507823, 12.603339], [2.498302, 12.591905], [2.50172, 12.570746], [2.508718, 12.560736], [2.527599, 12.545437], [2.535167, 12.537218], [2.548025, 12.506293], [2.555675, 12.495632], [2.564464, 12.516913], [2.577322, 12.540147], [2.593191, 12.561632], [2.611013, 12.577582], [2.61614, 12.574652], [2.619558, 12.571723], [2.622, 12.568427], [2.623953, 12.564521], [2.628103, 12.552598], [2.628103, 12.52558], [2.631358, 12.515489], [2.671804, 12.515489], [2.672537, 12.513129], [2.677745, 12.510321], [2.683849, 12.511013], [2.686697, 12.519232], [2.687999, 12.52497], [2.691173, 12.532253], [2.695486, 12.539008], [2.699718, 12.543402], [2.709402, 12.54621], [2.718272, 12.542914], [2.725027, 12.5338], [2.72755, 12.519232], [2.727957, 12.493964], [2.731619, 12.465847], [2.742442, 12.442979], [2.764822, 12.433539], [2.786306, 12.429145], [2.822032, 12.40766], [2.843679, 12.399441], [2.891612, 12.357286], [2.91212, 12.346503], [2.922048, 12.335801], [2.929942, 12.323432], [2.93629, 12.301052], [2.944509, 12.292589], [2.955496, 12.286973], [2.967214, 12.282742], [3.000499, 12.279079], [3.0088, 12.276475], [3.012462, 12.271267], [3.022227, 12.252631], [3.062755, 12.193956], [3.1, 12.160569335890909]], [[-3.7184815565535594, 15.7], [-3.716624, 15.68891], [-3.757883, 15.680284], [-3.803863, 15.678778], [-3.843699, 15.668484], [-3.866689, 15.633368], [-3.833323, 15.628933], [-3.799387, 15.633368], [-3.782297, 15.628119], [-3.799998, 15.594428], [-3.800852, 15.599718], [-3.815745, 15.594184], [-3.833933, 15.58454], [-3.844472, 15.577745], [-3.858062, 15.560411], [-3.866689, 15.544704], [-3.878, 15.528835], [-3.899973, 15.511094], [-3.942779, 15.486925], [-3.963938, 15.473212], [-3.948964, 15.464545], [-3.88329, 15.455593], [-3.867584, 15.456244], [-3.849273, 15.458441], [-3.831288, 15.457831], [-3.81664, 15.450019], [-3.8037, 15.412787], [-3.821523, 15.37698], [-3.850819, 15.344306], [-3.872222, 15.316677], [-3.885691, 15.321153], [-3.899729, 15.322781], [-3.914052, 15.324042], [-3.927724, 15.327745], [-3.930979, 15.316433], [-3.93635, 15.304511], [-3.941599, 15.293158], [-3.944407, 15.283311], [-3.951487, 15.298407], [-3.960683, 15.303778], [-3.971506, 15.305854], [-3.983306, 15.311103]], [[-4.303944, 15.507025], [-4.308176, 15.51378], [-4.318674, 15.534735], [-4.340159, 15.606879], [-4.350657, 15.632188], [-4.353424, 15.646999], [-4.34968, 15.658393], [-4.340647, 15.667344], [-4.327463, 15.674831], [-4.323313, 15.683173], [-4.308654775212991, 15.7]], [[-4.233388, 15.233344], [-4.270334, 15.228705], [-4.302317, 15.217963], [-4.324778, 15.196804], [-4.333323, 15.161078], [-4.335764, 15.129259], [-4.343739, 15.116523], [-4.357493, 15.1081], [-4.377756, 15.088894], [-4.387441, 15.070258], [-4.394765, 15.046942], [-4.40331, 15.022406], [-4.416575, 15.000027], [-4.43281, 14.992133], [-4.449045, 14.993476], [-4.461619, 14.989081], [-4.466624, 14.963894], [-4.469146, 14.947781], [-4.475657, 14.942247], [-4.484609, 14.944037], [-4.494456, 14.950019], [-4.511545, 14.940945], [-4.54011, 14.931912], [-4.571523, 14.924994], [-4.597239, 14.922187], [-4.613026, 14.911566], [-4.626454, 14.887478], [-4.627268, 14.861192], [-4.60554, 14.844509], [-4.606028, 14.836982], [-4.607411, 14.825873], [-4.609202, 14.814276], [-4.611073, 14.805528], [-4.660634, 14.777167], [-4.683298, 14.73904], [-4.690663, 14.6883], [-4.694407, 14.62226], [-4.689036, 14.624701], [-4.68342, 14.627061], [-4.677805, 14.629828], [-4.67219, 14.633368], [-4.671864, 14.566921], [-4.700754, 14.505398], [-4.740549, 14.448106], [-4.772206, 14.394477], [-4.805735, 14.389594], [-4.824452, 14.365912], [-4.836497, 14.332953], [-4.850006, 14.300076], [-4.85912, 14.289252], [-4.873362, 14.275702], [-4.888376, 14.260443], [-4.899973, 14.244452], [-4.905832, 14.227973], [-4.909657, 14.209418], [-4.914133, 14.190375], [-4.92219, 14.172227]], [[-6.2, 13.501210480996741], [-6.187489, 13.508368], [-6.172109, 13.521918], [-6.149729, 13.551581], [-6.130605, 13.570909], [-6.12328, 13.581895], [-6.119374, 13.59516], [-6.116526, 13.6317], [-6.112864, 13.648953], [-6.079172, 13.70954], [-6.068186, 13.722357], [-6.048166, 13.731879], [-6.027821, 13.72838], [-6.008616, 13.716986], [-5.982493, 13.694607], [-5.972401, 13.688341], [-5.961252, 13.684027], [-5.929026, 13.678046], [-5.921457, 13.679307], [-5.914622, 13.677843], [-5.900706, 13.672919], [-5.893259, 13.671902], [-5.886545, 13.67239], [-5.880198, 13.674343], [-5.860097, 13.685411], [-5.808746, 13.721869], [-5.77949, 13.735622], [-5.766916, 13.746649], [-5.702463, 13.823065], [-5.677805, 13.842556], [-5.649892, 13.856513], [-5.603668, 13.868679], [-5.590159, 13.874132], [-5.577301, 13.881293], [-5.5655, 13.889716], [-5.554351, 13.900743], [-5.525217, 13.941474], [-5.513661, 13.951687], [-5.500437, 13.958035], [-5.485992, 13.961453], [-5.442454, 13.962917], [-5.406239, 13.959052], [-5.397369, 13.959052], [-5.381663, 13.962226], [-5.350657, 13.972602], [-5.277659, 13.985053], [-5.269683, 13.983954], [-5.24706, 13.972764], [-5.239451, 13.972846], [-5.233632, 13.978217], [-5.231028, 13.986762], [-5.228098, 14.003974], [-5.219228, 14.018134], [-5.195017, 14.040961], [-5.184519, 14.053738], [-5.165273, 14.093573], [-5.152577, 14.105577], [-5.138254, 14.113837], [-4.992584, 14.148627], [-4.959462, 14.162869], [-4.941803, 14.168077], [-4.921376, 14.169135], [-4.90274, 14.167548], [-4.884511, 14.16824], [-4.816965, 14.200995], [-4.807118, 14.20364], [-4.780263, 14.203966], [-4.762766, 14.20893], [-4.705393, 14.23786], [-4.687327, 14.243354], [-4.677968, 14.244208], [-4.672841, 14.243598], [-4.663075, 14.240994], [-4.658396, 14.240546], [-4.652821, 14.241767], [-4.593577, 14.271267], [-4.570058, 14.277126], [-4.549794, 14.272569], [-4.543528, 14.266872], [-4.534983, 14.252997], [-4.529612, 14.246283], [-4.519276, 14.238959], [-4.509023, 14.235907], [-4.485829, 14.234198], [-4.481679, 14.250312], [-4.465403, 14.292751], [-4.451731, 14.310614], [-4.404612, 14.326361], [-4.382883, 14.347276], [-4.372141, 14.374335], [-4.379221, 14.40115], [-4.366038, 14.416693], [-4.347727, 14.424628], [-4.325429, 14.427436], [-4.300445, 14.427802], [-4.277415, 14.436387], [-4.254872, 14.474433], [-4.222157, 14.490017], [-4.212717, 14.507188], [-4.20051, 14.550727], [-4.182118, 14.596462], [-4.176096, 14.619167], [-4.173818, 14.647528], [-4.164703, 14.6612], [-4.164133, 14.67711], [-4.161448, 14.689399], [-4.155181, 14.699897], [-4.144236, 14.710273], [-4.131825, 14.718329], [-4.106435, 14.731228], [-4.094797, 14.739366], [-4.087229, 14.75019], [-4.083974, 14.764024], [-4.083648, 14.778917], [-4.085113, 14.792914], [-4.094716, 14.81977], [-4.096262, 14.833279], [-4.08906, 14.845404], [-4.082997, 14.848578], [-4.062489, 14.851101], [-4.052561, 14.854682], [-4.047678, 14.857245], [-4.043202, 14.860378], [-4.035227, 14.868028], [-4.003733, 14.907538], [-3.994781, 14.913764], [-3.984283, 14.9171], [-3.957428, 14.921495], [-3.944732, 14.925808], [-3.933746, 14.93244], [-3.92634, 14.941962], [-3.924469, 14.948065], [-3.92219, 14.961005], [-3.920155, 14.967068], [-3.909006, 14.98432], [-3.901194, 15.002997], [-3.89859, 15.021918], [-3.899485, 15.061591], [-3.904775, 15.071804], [-3.927805, 15.08336], [-3.932932, 15.089179], [-3.939524, 15.107001], [-3.953847, 15.118028], [-3.968088, 15.126573], [-3.974599, 15.13699], [-3.972401, 15.14765], [-3.962961, 15.159206], [-3.961008, 15.16828], [-3.962473, 15.180691], [-3.974599, 15.209296], [-3.977854, 15.230902], [-3.977122, 15.27086], [-3.979482, 15.281195]]]}, "properties": {"name": "Niger", "name_alt": "", "water_type": "Perennial river", "flow_regime": "perennial", "category": "Principal river", "source": "Natural Earth 1:10m physical", "label": "Niger"}}, {"type": "Feature", "geometry": {"type": "MultiLineString", "coordinates": [[[-5.543691, 13.208197], [-5.514231, 13.22545], [-5.502756, 13.228624], [-5.489695, 13.227607], [-5.469065, 13.217475], [-5.458079, 13.215033], [-5.4322, 13.221259], [-5.417307, 13.236274], [-5.406565, 13.254259], [-5.392893, 13.269599], [-5.357411, 13.280585], [-5.272694, 13.273871], [-5.235829, 13.276435], [-5.214833, 13.285834], [-5.193796, 13.300238], [-5.156728, 13.334784], [-5.141428, 13.340603], [-5.078196, 13.345323], [-5.073883, 13.348985], [-5.062245, 13.361925], [-5.057118, 13.365831], [-5.044423, 13.369086], [-5.01301, 13.365831], [-4.94636, 13.366767], [-4.926747, 13.372016], [-4.916982, 13.378485], [-4.902292, 13.39407], [-4.892649, 13.399359], [-4.881663, 13.40001], [-4.857411, 13.398708], [-4.848215, 13.403103], [-4.812164, 13.441474], [-4.803782, 13.454617], [-4.794586, 13.488064], [-4.78718, 13.502997], [-4.757883, 13.515326], [-4.739247, 13.529975], [-4.708241, 13.563829], [-4.689687, 13.602362], [-4.6787, 13.619452], [-4.663564, 13.626532], [-4.640452, 13.627509], [-4.620595, 13.630805], [-4.604075, 13.637071], [-4.590891, 13.646999], [-4.573557, 13.67475], [-4.561757, 13.688788], [-4.54719, 13.69477], [-4.542226, 13.706407], [-4.51887, 13.79914], [-4.522694, 13.858669], [-4.517323, 13.88463], [-4.503733, 13.884548], [-4.486073, 13.878485], [-4.468007, 13.887234], [-4.461252, 13.907904], [-4.461497, 13.927802], [-4.455393, 13.942735], [-4.430165, 13.948676], [-4.343902, 13.955512], [-4.300771, 13.966132], [-4.271474, 13.982245], [-4.256337, 14.007025], [-4.255767, 14.043647], [-4.259999, 14.057929], [-4.260081, 14.066596], [-4.255767, 14.078396], [-4.247467, 14.088568], [-4.225413, 14.108466], [-4.216705, 14.122423], [-4.197987, 14.127794], [-4.193674, 14.136746], [-4.192454, 14.150092], [-4.189036, 14.157009], [-4.18456, 14.161444], [-4.158762, 14.207099], [-4.152659, 14.232367], [-4.159495, 14.256537], [-4.164133, 14.253201], [-4.167917, 14.25141], [-4.171091, 14.248806], [-4.173818, 14.242865], [-4.180002, 14.242865], [-4.187734, 14.258328], [-4.210032, 14.290391], [-4.214833, 14.308051], [-4.225331, 14.315741], [-4.246246, 14.319932], [-4.261708, 14.331163], [-4.255767, 14.359565], [-4.252024, 14.36046], [-4.238718, 14.358751], [-4.23469, 14.359565], [-4.233713, 14.363796], [-4.235422, 14.375027], [-4.23469, 14.379421], [-4.226755, 14.401475], [-4.221344, 14.410509], [-4.211415, 14.41413], [-4.203114, 14.422227], [-4.205556, 14.464179], [-4.20051, 14.4831], [-4.205881, 14.489569], [-4.207428, 14.495469], [-4.211252, 14.511583]], [[-6.2, 13.04234819401229], [-6.198476, 13.04324], [-6.193186, 13.048041], [-6.187978, 13.051134], [-6.174631, 13.053005], [-6.140207, 13.051134], [-6.14037, 13.050849], [-6.122792, 13.051134], [-6.118804, 13.053168], [-6.112864, 13.06212], [-6.10912, 13.064154], [-6.106109, 13.068386], [-6.078114, 13.092108], [-6.05012, 13.106635], [-6.036204, 13.11697], [-6.020579, 13.152045], [-5.997548, 13.174018], [-5.97053, 13.191596], [-5.949045, 13.201361], [-5.898183, 13.213202], [-5.873036, 13.212185], [-5.852122, 13.201361], [-5.830556, 13.20836], [-5.807607, 13.202663], [-5.783925, 13.192898], [-5.759674, 13.18769], [-5.708241, 13.191026], [-5.684153, 13.198269], [-5.674062, 13.211615], [-5.666697, 13.232693], [-5.649892, 13.232367], [-5.619456, 13.215033], [-5.603993, 13.21129], [-5.562937, 13.206], [-5.543691, 13.201361]]]}, "properties": {"name": "Bani", "name_alt": "", "water_type": "Perennial river", "flow_regime": "perennial", "category": "Principal river", "source": "Natural Earth 1:10m physical", "label": "Bani"}}, {"type": "Feature", "geometry": {"type": "LineString", "coordinates": [[1.466482, 10.658393], [1.488943, 10.672553], [1.511241, 10.693468], [1.568044, 10.769721], [1.573985, 10.785753], [1.576345, 10.806098], [1.572765, 10.825466], [1.567638, 10.835761], [1.56837, 10.845771], [1.583181, 10.864447], [1.594737, 10.87405], [1.612559, 10.885321], [1.631847, 10.894639], [1.647878, 10.898546], [1.653005, 10.902208], [1.656016, 10.910753], [1.65919, 10.939805], [1.662364, 10.944932], [1.666921, 10.948432], [1.672537, 10.953803], [1.676768, 10.957099], [1.688894, 10.963324], [1.693044, 10.967475], [1.695567, 10.976264], [1.698904, 10.997097], [1.702891, 11.004706], [1.713145, 11.016425], [1.740733, 11.05622], [1.736013, 11.067654], [1.741466, 11.07571], [1.750011, 11.084418], [1.754405, 11.097846], [1.747569, 11.105984], [1.742931, 11.113715], [1.740733, 11.12169], [1.741466, 11.130683], [1.752126, 11.170762], [1.757091, 11.182318], [1.76588, 11.190741], [1.781749, 11.200263], [1.810313, 11.211778], [1.821056, 11.219021], [1.829519, 11.233751], [1.829112, 11.241156], [1.825206, 11.246527], [1.824474, 11.253445], [1.833263, 11.265408], [1.840099, 11.271267], [1.857432, 11.282172], [1.86671, 11.293158], [1.869558, 11.30211], [1.871023, 11.323757], [1.901052, 11.400214], [1.905284, 11.432969], [1.879324, 11.445014], [1.866954, 11.446804], [1.857432, 11.440456], [1.840017, 11.445624], [1.820974, 11.441759], [1.781749, 11.426134], [1.762869, 11.424872], [1.718516, 11.427924], [1.702891, 11.423122], [1.683849, 11.414008], [1.637706, 11.404364], [1.620616, 11.395453], [1.601003, 11.388861], [1.580089, 11.427273], [1.562673, 11.426134], [1.564464, 11.432725], [1.566824, 11.446845], [1.568858, 11.453477], [1.474783, 11.461005], [1.455333, 11.464911], [1.439138, 11.473944], [1.433279, 11.459581], [1.423106, 11.454047], [1.410574, 11.450019], [1.397472, 11.440456], [1.389171, 11.428575], [1.38795, 11.420193], [1.397472, 11.398871], [1.381114, 11.388861], [1.358572, 11.379014], [1.33839, 11.366278], [1.329845, 11.347357], [1.335623, 11.330186], [1.345225, 11.316514], [1.347179, 11.303656], [1.329845, 11.289008], [1.322927, 11.297227], [1.315847, 11.300076], [1.308849, 11.297227], [1.301931, 11.289008], [1.295584, 11.29975], [1.283946, 11.312934], [1.272716, 11.318427], [1.267751, 11.306423], [1.27003, 11.298407], [1.279796, 11.288845], [1.281993, 11.279079], [1.280528, 11.271267], [1.267751, 11.248074], [1.23463, 11.263617], [1.218516, 11.268175], [1.199636, 11.26911], [1.190847, 11.267198], [1.185557, 11.263983], [1.180349, 11.261542], [1.17156, 11.261664], [1.173025, 11.266791], [1.165294, 11.278144], [1.155772, 11.285712], [1.145437, 11.270046], [1.134939, 11.260281], [1.130056, 11.247748], [1.148855, 11.217393], [1.152761, 11.183295], [1.157888, 11.166083], [1.147634, 11.169623], [1.127452, 11.179063], [1.116954, 11.179145], [1.112559, 11.174018], [1.105724, 11.155829], [1.099864, 11.151801], [1.066905, 11.144395], [1.061697, 11.142198], [1.062755, 11.127143], [1.066417, 11.128485], [1.072927, 11.134141], [1.082205, 11.131944], [1.083263, 11.127875], [1.081554, 11.115424], [1.082205, 11.110867], [1.084972, 11.108913], [1.094656, 11.1046], [1.096446, 11.104682], [1.098562, 11.0928], [1.098806, 11.081488], [1.100515, 11.070624], [1.1067, 11.060004], [1.118093, 11.048407], [1.116954, 11.032335], [1.113536, 11.027777], [1.106375, 11.034613], [1.099132, 11.044542], [1.096446, 11.049425], [1.086355, 11.052843], [1.055431, 11.05622], [1.051687, 11.055203], [1.040782, 11.04975], [1.034434, 11.049425], [1.032725, 11.051785], [1.027354, 11.06155], [1.024425, 11.063666], [1.019054, 11.065863], [1.014089, 11.070502], [1.007498, 11.075222], [0.985362, 11.078681], [0.980724, 11.080268], [0.976329, 11.078477], [0.969737, 11.069648], [0.963796, 11.057563], [0.955496, 11.044867], [0.951834, 11.042548], [0.950857, 11.032497], [0.951345, 11.021267], [0.954845, 11.012152], [0.962657, 11.008409], [0.968435, 11.003119], [0.969412, 10.9914], [0.967052, 10.979682], [0.962657, 10.974311], [0.944835, 10.974473], [0.932058, 10.980536], [0.917003, 10.966376], [0.921072, 10.952704], [0.932058, 10.940985], [0.938162, 10.932685], [0.931082, 10.913926], [0.915782, 10.9053], [0.899832, 10.906928], [0.890391, 10.919053], [0.884044, 10.925482], [0.879324, 10.941514], [0.873709, 10.950141], [0.863943, 10.954657], [0.857188, 10.949083], [0.849376, 10.932685], [0.836436, 10.919501], [0.831065, 10.910346], [0.832693, 10.901964], [0.84197, 10.894843], [0.848806, 10.891791], [0.853526, 10.886257], [0.856212, 10.871894], [0.853689, 10.853705], [0.844168, 10.839057], [0.788341, 10.795356], [0.773123, 10.787462], [0.760753, 10.789374], [0.745128, 10.768378], [0.745616, 10.736843], [0.755626, 10.702338], [0.76824, 10.672675], [0.745779, 10.659613], [0.726492, 10.644721], [0.723399, 10.648383], [0.716075, 10.654853], [0.712901, 10.658393], [0.702159, 10.645941], [0.695323, 10.640326], [0.688975, 10.637885], [0.685802, 10.634101], [0.67628, 10.616645], [0.671886, 10.611192], [0.676931, 10.600898], [0.678884, 10.590115], [0.678722, 10.566514], [0.675222, 10.558621], [0.666189, 10.554633], [0.644054, 10.54914], [0.628184, 10.558051], [0.612234, 10.558621], [0.598399, 10.561225], [0.589366, 10.576483], [0.565603, 10.558458], [0.562673, 10.529405], [0.557546, 10.506863], [0.528005, 10.508165], [0.528331, 10.48078], [0.509207, 10.453315], [0.499278, 10.42414], [0.528005, 10.391466], [0.558279, 10.381049], [0.560232, 10.375434], [0.541026, 10.364203], [0.51116, 10.366889], [0.491954, 10.366156], [0.479503, 10.357367], [0.479991, 10.344509], [0.506114, 10.329454], [0.513601, 10.316962], [0.508474, 10.301581], [0.49464, 10.297187], [0.478526, 10.299099], [0.466482, 10.302761], [0.443044, 10.313422], [0.43157, 10.314887], [0.418142, 10.309597], [0.414317, 10.305528], [0.407481, 10.293769], [0.403819, 10.289089], [0.371593, 10.265245], [0.36671, 10.249945], [0.36378, 10.233588], [0.356619, 10.22016], [0.358165, 10.18655], [0.352957, 10.115668], [0.362804, 10.089871], [0.375499, 10.081732], [0.386485, 10.079128], [0.394542, 10.072455], [0.397634, 10.052314], [0.393321, 10.03266], [0.382253, 10.029812], [0.36671, 10.032294], [0.349132, 10.028998], [0.355235, 10.019151], [0.354503, 10.012803], [0.351085, 10.006619], [0.349132, 9.997382], [0.350841, 9.990587], [0.362804, 9.966905], [0.369558, 9.947211], [0.36907, 9.939032], [0.36199, 9.932888], [0.349132, 9.919135], [0.341238, 9.903998], [0.339122, 9.88996], [0.343679, 9.849921], [0.343272, 9.838568], [0.321788, 9.76085], [0.323253, 9.742214], [0.328543, 9.731472], [0.335704, 9.7237], [0.342296, 9.71369], [0.347097, 9.699042], [0.349294, 9.680772], [0.346446, 9.663357], [0.336111, 9.650987], [0.318126, 9.64879], [0.301443, 9.658026], [0.274669, 9.685736], [0.260265, 9.657335], [0.26116, 9.628119], [0.27711, 9.607204], [0.308116, 9.603827], [0.348806, 9.614081], [0.368582, 9.610297], [0.377126, 9.589545], [0.370291, 9.575792], [0.354015, 9.571316], [0.335623, 9.574327], [0.321788, 9.583319], [0.303966, 9.571723], [0.279959, 9.570339], [0.229666, 9.575873], [0.227224, 9.569525], [0.222585, 9.541327], [0.22283, 9.53498], [0.225352, 9.532091], [0.232677, 9.525743], [0.242442, 9.518866], [0.25294, 9.514472], [0.278331, 9.519151], [0.292654, 9.518419], [0.301443, 9.507636], [0.297537, 9.497178], [0.284679, 9.488552], [0.269054, 9.482489], [0.227468, 9.474148], [0.227306, 9.459906], [0.234304, 9.443915], [0.226248, 9.432481], [0.212901, 9.418809], [0.203136, 9.395453], [0.202322, 9.373399], [0.21575, 9.363593], [0.236746, 9.354519], [0.252696, 9.333035], [0.257986, 9.308132], [0.246755, 9.28852], [0.199474, 9.287421], [0.175222, 9.283637], [0.17449, 9.271104], [0.183849, 9.255316], [0.191335, 9.233751], [0.1963, 9.21129], [0.198416, 9.192939], [0.196544, 9.182888], [0.187918, 9.161322], [0.185313, 9.151394], [0.185557, 9.139512], [0.190359, 9.118598], [0.19158, 9.10696], [0.201834, 9.091986], [0.225759, 9.087592], [0.253429, 9.086982], [0.274669, 9.083075], [0.290538, 9.069444], [0.279226, 9.063341], [0.213064, 9.059394], [0.196218, 9.052354], [0.191661, 9.041693], [0.205821, 9.028428], [0.226492, 9.02204], [0.252126, 9.021023], [0.276785, 9.025458], [0.294444, 9.035264], [0.305105, 9.020372], [0.302745, 9.007025], [0.29127, 9.000841], [0.274669, 9.007392], [0.263438, 8.992865], [0.260427, 8.980048], [0.229666, 8.966376], [0.216563, 8.962226], [0.213552, 8.952012], [0.21339, 8.939561], [0.197032, 8.902411], [0.197801728510442, 8.9]]}, "properties": {"name": "Oti", "name_alt": "Pendjari / Oti", "water_type": "Perennial river", "flow_regime": "perennial", "category": "Principal river", "source": "Natural Earth 1:10m physical", "label": "Oti (Pendjari / Oti)"}}]}