{"type":"FeatureCollection","name":"bf_water_ouaga_5mi_coverage","features":[{"type":"Feature","geometry":{"type":"Polygon","coordinates":[[[-1.480781,12.355457],[-1.479883,12.35537],[-1.479019,12.355114],[-1.478223,12.354699],[-1.477526,12.35414],[-1.476953,12.353458],[-1.476528,12.352681],[-1.476266,12.351837],[-1.476178,12.35096],[-1.476266,12.350083],[-1.476528,12.349239],[-1.476954,12.348462],[-1.477526,12.34778],[-1.478224,12.347221],[-1.479019,12.346806],[-1.479883,12.34655],[-1.480781,12.346463],[-1.481679,12.34655],[-1.482542,12.346806],[-1.483338,12.347221],[-1.484036,12.34778],[-1.484608,12.348462],[-1.485034,12.349239],[-1.485296,12.350083],[-1.485384,12.35096],[-1.485296,12.351837],[-1.485034,12.352681],[-1.484608,12.353458],[-1.484036,12.35414],[-1.483338,12.354699],[-1.482542,12.355114],[-1.481679,12.35537],[-1.480781,12.355457]]]},"properties":{"name":"Ch\u00e2teau d\u00b4eau de l\u00b4ONEA","type":"Water tower","osm_tag":"water_tower","operator":"","radius_m":500,"label":"Ch\u00e2teau d\u00b4eau de l\u00b4ONEA \u2014 500 m","note":"OpenStreetMap, within 5 miles of central Ouagadougou. Community-mapped; coverage uneven."}},{"type":"Feature","geometry":{"type":"Polygon","coordinates":[[[-1.535136,12.36508],[-1.534238,12.364993],[-1.533374,12.364737],[-1.532578,12.364322],[-1.531881,12.363762],[-1.531308,12.363081],[-1.530883,12.362304],[-1.530621,12.36146],[-1.530533,12.360583],[-1.530621,12.359706],[-1.530883,12.358862],[-1.531309,12.358085],[-1.531881,12.357403],[-1.532579,12.356844],[-1.533374,12.356429],[-1.534238,12.356173],[-1.535136,12.356086],[-1.536034,12.356173],[-1.536898,12.356429],[-1.537693,12.356844],[-1.538391,12.357403],[-1.538963,12.358085],[-1.539389,12.358862],[-1.539651,12.359706],[-1.539739,12.360583],[-1.539651,12.36146],[-1.539389,12.362304],[-1.538964,12.363081],[-1.538391,12.363762],[-1.537694,12.364322],[-1.536898,12.364737],[-1.536034,12.364993],[-1.535136,12.36508]]]},"properties":{"name":"","type":"Water tower","osm_tag":"water_tower","operator":"","radius_m":500,"label":"Water tower \u2014 500 m","note":"OpenStreetMap, within 5 miles of central Ouagadougou. Community-mapped; coverage uneven."}},{"type":"Feature","geometry":{"type":"Polygon","coordinates":[[[-1.524584,12.375869],[-1.523686,12.375782],[-1.522822,12.375526],[-1.522026,12.375111],[-1.521329,12.374552],[-1.520756,12.37387],[-1.520331,12.373093],[-1.520069,12.372249],[-1.519981,12.371372],[-1.520069,12.370495],[-1.520331,12.369651],[-1.520756,12.368874],[-1.521329,12.368192],[-1.522027,12.367633],[-1.522822,12.367218],[-1.523686,12.366962],[-1.524584,12.366875],[-1.525482,12.366962],[-1.526346,12.367218],[-1.527142,12.367633],[-1.527839,12.368192],[-1.528412,12.368874],[-1.528837,12.369651],[-1.529099,12.370495],[-1.529188,12.371372],[-1.529099,12.372249],[-1.528837,12.373093],[-1.528412,12.37387],[-1.527839,12.374552],[-1.527142,12.375111],[-1.526346,12.375526],[-1.525482,12.375782],[-1.524584,12.375869]]]},"properties":{"name":"","type":"Water tower","osm_tag":"water_tower","operator":"","radius_m":500,"label":"Water tower \u2014 500 m","note":"OpenStreetMap, within 5 miles of central Ouagadougou. Community-mapped; coverage uneven."}},{"type":"Feature","geometry":{"type":"Polygon","coordinates":[[[-1.479537,12.344204],[-1.478639,12.344117],[-1.477776,12.343861],[-1.47698,12.343446],[-1.476282,12.342887],[-1.47571,12.342205],[-1.475285,12.341428],[-1.475023,12.340584],[-1.474934,12.339707],[-1.475023,12.33883],[-1.475285,12.337986],[-1.47571,12.337209],[-1.476282,12.336527],[-1.47698,12.335968],[-1.477776,12.335553],[-1.478639,12.335297],[-1.479537,12.33521],[-1.480435,12.335297],[-1.481299,12.335553],[-1.482094,12.335968],[-1.482792,12.336527],[-1.483364,12.337209],[-1.48379,12.337986],[-1.484052,12.33883],[-1.48414,12.339707],[-1.484052,12.340584],[-1.48379,12.341428],[-1.483364,12.342205],[-1.482792,12.342887],[-1.482094,12.343446],[-1.481299,12.343861],[-1.480435,12.344117],[-1.479537,12.344204]]]},"properties":{"name":"","type":"Water tower","osm_tag":"water_tower","operator":"","radius_m":500,"label":"Water tower \u2014 500 m","note":"OpenStreetMap, within 5 miles of central Ouagadougou. Community-mapped; coverage uneven."}},{"type":"Feature","geometry":{"type":"Polygon","coordinates":[[[-1.479666,12.344054],[-1.478768,12.343967],[-1.477904,12.343712],[-1.477108,12.343296],[-1.476411,12.342737],[-1.475838,12.342055],[-1.475413,12.341278],[-1.475151,12.340434],[-1.475063,12.339557],[-1.475151,12.33868],[-1.475413,12.337836],[-1.475839,12.337059],[-1.476411,12.336378],[-1.477108,12.335818],[-1.477904,12.335403],[-1.478768,12.335147],[-1.479666,12.335061],[-1.480564,12.335147],[-1.481427,12.335403],[-1.482223,12.335818],[-1.48292,12.336378],[-1.483493,12.337059],[-1.483918,12.337836],[-1.48418,12.33868],[-1.484269,12.339557],[-1.48418,12.340434],[-1.483918,12.341278],[-1.483493,12.342055],[-1.482921,12.342737],[-1.482223,12.343296],[-1.481427,12.343712],[-1.480564,12.343967],[-1.479666,12.344054]]]},"properties":{"name":"","type":"Water tower","osm_tag":"water_tower","operator":"ONEA","radius_m":500,"label":"Water tower \u2014 500 m","note":"OpenStreetMap, within 5 miles of central Ouagadougou. Community-mapped; coverage uneven."}},{"type":"Feature","geometry":{"type":"Polygon","coordinates":[[[-1.52681,12.360591],[-1.525912,12.360505],[-1.525048,12.360249],[-1.524252,12.359834],[-1.523555,12.359274],[-1.522982,12.358593],[-1.522557,12.357816],[-1.522295,12.356972],[-1.522206,12.356095],[-1.522295,12.355218],[-1.522557,12.354374],[-1.522982,12.353597],[-1.523555,12.352915],[-1.524252,12.352356],[-1.525048,12.35194],[-1.525912,12.351685],[-1.52681,12.351598],[-1.527708,12.351685],[-1.528571,12.35194],[-1.529367,12.352356],[-1.530065,12.352915],[-1.530637,12.353597],[-1.531062,12.354374],[-1.531324,12.355218],[-1.531413,12.356095],[-1.531324,12.356972],[-1.531062,12.357816],[-1.530637,12.358593],[-1.530065,12.359274],[-1.529367,12.359834],[-1.528571,12.360249],[-1.527708,12.360505],[-1.52681,12.360591]]]},"properties":{"name":"","type":"Water tower","osm_tag":"water_tower","operator":"","radius_m":500,"label":"Water tower \u2014 500 m","note":"OpenStreetMap, within 5 miles of central Ouagadougou. Community-mapped; coverage uneven."}},{"type":"Feature","geometry":{"type":"Polygon","coordinates":[[[-1.512743,12.418666],[-1.511845,12.418579],[-1.510981,12.418323],[-1.510185,12.417908],[-1.509487,12.417348],[-1.508915,12.416667],[-1.508489,12.41589],[-1.508227,12.415046],[-1.508139,12.414169],[-1.508227,12.413292],[-1.508489,12.412448],[-1.508915,12.411671],[-1.509487,12.410989],[-1.510185,12.41043],[-1.510981,12.410015],[-1.511845,12.409759],[-1.512743,12.409672],[-1.513641,12.409759],[-1.514505,12.410015],[-1.515301,12.41043],[-1.515999,12.410989],[-1.516571,12.411671],[-1.516997,12.412448],[-1.517259,12.413292],[-1.517347,12.414169],[-1.517259,12.415046],[-1.516997,12.41589],[-1.516571,12.416667],[-1.515999,12.417348],[-1.515301,12.417908],[-1.514505,12.418323],[-1.513641,12.418579],[-1.512743,12.418666]]]},"properties":{"name":"","type":"Water tower","osm_tag":"water_tower","operator":"","radius_m":500,"label":"Water tower \u2014 500 m","note":"OpenStreetMap, within 5 miles of central Ouagadougou. Community-mapped; coverage uneven."}},{"type":"Feature","geometry":{"type":"Polygon","coordinates":[[[-1.512183,12.362476],[-1.511285,12.36239],[-1.510421,12.362134],[-1.509625,12.361718],[-1.508928,12.361159],[-1.508355,12.360478],[-1.50793,12.3597],[-1.507668,12.358857],[-1.507579,12.357979],[-1.507668,12.357102],[-1.50793,12.356259],[-1.508355,12.355481],[-1.508928,12.3548],[-1.509625,12.354241],[-1.510421,12.353825],[-1.511285,12.353569],[-1.512183,12.353483],[-1.513081,12.353569],[-1.513944,12.353825],[-1.51474,12.354241],[-1.515438,12.3548],[-1.51601,12.355481],[-1.516436,12.356259],[-1.516698,12.357102],[-1.516786,12.357979],[-1.516698,12.358857],[-1.516436,12.3597],[-1.51601,12.360478],[-1.515438,12.361159],[-1.51474,12.361718],[-1.513944,12.362134],[-1.513081,12.36239],[-1.512183,12.362476]]]},"properties":{"name":"","type":"Water tower","osm_tag":"water_tower","operator":"","radius_m":500,"label":"Water tower \u2014 500 m","note":"OpenStreetMap, within 5 miles of central Ouagadougou. Community-mapped; coverage uneven."}},{"type":"Feature","geometry":{"type":"Polygon","coordinates":[[[-1.537055,12.427004],[-1.536157,12.426918],[-1.535293,12.426662],[-1.534497,12.426246],[-1.533799,12.425687],[-1.533227,12.425006],[-1.532801,12.424228],[-1.532539,12.423385],[-1.532451,12.422508],[-1.532539,12.42163],[-1.532801,12.420787],[-1.533227,12.420009],[-1.533799,12.419328],[-1.534497,12.418769],[-1.535293,12.418353],[-1.536157,12.418097],[-1.537055,12.418011],[-1.537953,12.418097],[-1.538817,12.418353],[-1.539613,12.418769],[-1.540311,12.419328],[-1.540884,12.420009],[-1.541309,12.420787],[-1.541571,12.42163],[-1.54166,12.422508],[-1.541571,12.423385],[-1.541309,12.424228],[-1.540884,12.425006],[-1.540311,12.425687],[-1.539613,12.426246],[-1.538817,12.426662],[-1.537953,12.426918],[-1.537055,12.427004]]]},"properties":{"name":"","type":"Water tower","osm_tag":"water_tower","operator":"","radius_m":500,"label":"Water tower \u2014 500 m","note":"OpenStreetMap, within 5 miles of central Ouagadougou. Community-mapped; coverage uneven."}},{"type":"Feature","geometry":{"type":"Polygon","coordinates":[[[-1.536564,12.426853],[-1.535666,12.426767],[-1.534802,12.426511],[-1.534006,12.426095],[-1.533309,12.425536],[-1.532736,12.424855],[-1.53231,12.424077],[-1.532048,12.423234],[-1.53196,12.422356],[-1.532048,12.421479],[-1.532311,12.420636],[-1.532736,12.419858],[-1.533309,12.419177],[-1.534006,12.418618],[-1.534802,12.418202],[-1.535666,12.417946],[-1.536564,12.41786],[-1.537463,12.417946],[-1.538326,12.418202],[-1.539122,12.418618],[-1.53982,12.419177],[-1.540393,12.419858],[-1.540818,12.420636],[-1.54108,12.421479],[-1.541169,12.422356],[-1.54108,12.423234],[-1.540818,12.424077],[-1.540393,12.424855],[-1.53982,12.425536],[-1.539123,12.426095],[-1.538326,12.426511],[-1.537463,12.426767],[-1.536564,12.426853]]]},"properties":{"name":"","type":"Water tower","osm_tag":"water_tower","operator":"","radius_m":500,"label":"Water tower \u2014 500 m","note":"OpenStreetMap, within 5 miles of central Ouagadougou. Community-mapped; coverage uneven."}},{"type":"Feature","geometry":{"type":"Polygon","coordinates":[[[-1.534428,12.364278],[-1.53353,12.364191],[-1.532667,12.363935],[-1.531871,12.36352],[-1.531173,12.362961],[-1.530601,12.362279],[-1.530175,12.361502],[-1.529913,12.360658],[-1.529825,12.359781],[-1.529913,12.358904],[-1.530175,12.35806],[-1.530601,12.357283],[-1.531173,12.356601],[-1.531871,12.356042],[-1.532667,12.355627],[-1.53353,12.355371],[-1.534428,12.355284],[-1.535326,12.355371],[-1.53619,12.355627],[-1.536986,12.356042],[-1.537683,12.356601],[-1.538256,12.357283],[-1.538681,12.35806],[-1.538943,12.358904],[-1.539032,12.359781],[-1.538943,12.360658],[-1.538681,12.361502],[-1.538256,12.362279],[-1.537683,12.362961],[-1.536986,12.36352],[-1.53619,12.363935],[-1.535326,12.364191],[-1.534428,12.364278]]]},"properties":{"name":"","type":"Drinking water point","osm_tag":"drinking_water","operator":"ONEA","radius_m":500,"label":"Drinking water point \u2014 500 m","note":"OpenStreetMap, within 5 miles of central Ouagadougou. Community-mapped; coverage uneven."}},{"type":"Feature","geometry":{"type":"Polygon","coordinates":[[[-1.531372,12.363799],[-1.530474,12.363712],[-1.529611,12.363456],[-1.528815,12.363041],[-1.528117,12.362481],[-1.527545,12.3618],[-1.527119,12.361023],[-1.526857,12.360179],[-1.526769,12.359302],[-1.526857,12.358425],[-1.527119,12.357581],[-1.527545,12.356804],[-1.528117,12.356122],[-1.528815,12.355563],[-1.529611,12.355148],[-1.530474,12.354892],[-1.531372,12.354805],[-1.53227,12.354892],[-1.533134,12.355148],[-1.53393,12.355563],[-1.534627,12.356122],[-1.5352,12.356804],[-1.535625,12.357581],[-1.535887,12.358425],[-1.535976,12.359302],[-1.535887,12.360179],[-1.535625,12.361023],[-1.5352,12.3618],[-1.534627,12.362481],[-1.53393,12.363041],[-1.533134,12.363456],[-1.53227,12.363712],[-1.531372,12.363799]]]},"properties":{"name":"","type":"Drinking water point","osm_tag":"drinking_water","operator":"","radius_m":500,"label":"Drinking water point \u2014 500 m","note":"OpenStreetMap, within 5 miles of central Ouagadougou. Community-mapped; coverage uneven."}},{"type":"Feature","geometry":{"type":"Polygon","coordinates":[[[-1.511403,12.369992],[-1.510505,12.369906],[-1.509642,12.36965],[-1.508846,12.369234],[-1.508148,12.368675],[-1.507576,12.367994],[-1.50715,12.367216],[-1.506888,12.366373],[-1.5068,12.365496],[-1.506888,12.364618],[-1.50715,12.363775],[-1.507576,12.362997],[-1.508148,12.362316],[-1.508846,12.361757],[-1.509642,12.361341],[-1.510505,12.361085],[-1.511403,12.360999],[-1.512301,12.361085],[-1.513165,12.361341],[-1.513961,12.361757],[-1.514658,12.362316],[-1.515231,12.362997],[-1.515656,12.363775],[-1.515918,12.364618],[-1.516007,12.365496],[-1.515918,12.366373],[-1.515656,12.367216],[-1.515231,12.367994],[-1.514658,12.368675],[-1.513961,12.369234],[-1.513165,12.36965],[-1.512301,12.369906],[-1.511403,12.369992]]]},"properties":{"name":"Ch\u00e2teau d'eau de Koulouba","type":"Water tower","osm_tag":"water_tower","operator":"","radius_m":500,"label":"Ch\u00e2teau d'eau de Koulouba \u2014 500 m","note":"OpenStreetMap, within 5 miles of central Ouagadougou. Community-mapped; coverage uneven."}},{"type":"Feature","geometry":{"type":"Polygon","coordinates":[[[-1.488809,12.369102],[-1.487911,12.369015],[-1.487048,12.36876],[-1.486252,12.368344],[-1.485554,12.367785],[-1.484982,12.367103],[-1.484556,12.366326],[-1.484294,12.365482],[-1.484206,12.364605],[-1.484294,12.363728],[-1.484556,12.362884],[-1.484982,12.362107],[-1.485554,12.361426],[-1.486252,12.360866],[-1.487048,12.360451],[-1.487911,12.360195],[-1.488809,12.360109],[-1.489707,12.360195],[-1.490571,12.360451],[-1.491367,12.360866],[-1.492064,12.361426],[-1.492637,12.362107],[-1.493062,12.362884],[-1.493324,12.363728],[-1.493413,12.364605],[-1.493324,12.365482],[-1.493062,12.366326],[-1.492637,12.367103],[-1.492064,12.367785],[-1.491367,12.368344],[-1.490571,12.36876],[-1.489707,12.369015],[-1.488809,12.369102]]]},"properties":{"name":"","type":"Drinking water point","osm_tag":"drinking_water","operator":"","radius_m":500,"label":"Drinking water point \u2014 500 m","note":"OpenStreetMap, within 5 miles of central Ouagadougou. Community-mapped; coverage uneven."}},{"type":"Feature","geometry":{"type":"Polygon","coordinates":[[[-1.49014,12.370907],[-1.489242,12.370821],[-1.488378,12.370565],[-1.487582,12.370149],[-1.486884,12.36959],[-1.486312,12.368909],[-1.485887,12.368131],[-1.485625,12.367288],[-1.485536,12.36641],[-1.485625,12.365533],[-1.485887,12.36469],[-1.486312,12.363912],[-1.486885,12.363231],[-1.487582,12.362672],[-1.488378,12.362256],[-1.489242,12.362],[-1.49014,12.361914],[-1.491038,12.362],[-1.491901,12.362256],[-1.492697,12.362672],[-1.493395,12.363231],[-1.493967,12.363912],[-1.494393,12.36469],[-1.494655,12.365533],[-1.494743,12.36641],[-1.494655,12.367288],[-1.494393,12.368131],[-1.493967,12.368909],[-1.493395,12.36959],[-1.492697,12.370149],[-1.491901,12.370565],[-1.491038,12.370821],[-1.49014,12.370907]]]},"properties":{"name":"","type":"Drinking water point","osm_tag":"drinking_water","operator":"","radius_m":500,"label":"Drinking water point \u2014 500 m","note":"OpenStreetMap, within 5 miles of central Ouagadougou. Community-mapped; coverage uneven."}},{"type":"Feature","geometry":{"type":"Polygon","coordinates":[[[-1.493279,12.364119],[-1.492381,12.364032],[-1.491517,12.363777],[-1.490722,12.363361],[-1.490024,12.362802],[-1.489452,12.36212],[-1.489026,12.361343],[-1.488764,12.360499],[-1.488676,12.359622],[-1.488764,12.358745],[-1.489026,12.357901],[-1.489452,12.357124],[-1.490024,12.356443],[-1.490722,12.355883],[-1.491518,12.355468],[-1.492381,12.355212],[-1.493279,12.355126],[-1.494177,12.355212],[-1.495041,12.355468],[-1.495837,12.355883],[-1.496534,12.356443],[-1.497107,12.357124],[-1.497532,12.357901],[-1.497794,12.358745],[-1.497882,12.359622],[-1.497794,12.360499],[-1.497532,12.361343],[-1.497107,12.36212],[-1.496534,12.362802],[-1.495837,12.363361],[-1.495041,12.363777],[-1.494177,12.364032],[-1.493279,12.364119]]]},"properties":{"name":"","type":"Drinking water point","osm_tag":"drinking_water","operator":"","radius_m":500,"label":"Drinking water point \u2014 500 m","note":"OpenStreetMap, within 5 miles of central Ouagadougou. Community-mapped; coverage uneven."}},{"type":"Feature","geometry":{"type":"Polygon","coordinates":[[[-1.525315,12.374416],[-1.524417,12.374329],[-1.523553,12.374073],[-1.522758,12.373658],[-1.52206,12.373099],[-1.521487,12.372417],[-1.521062,12.37164],[-1.5208,12.370796],[-1.520712,12.369919],[-1.5208,12.369042],[-1.521062,12.368198],[-1.521487,12.367421],[-1.52206,12.366739],[-1.522758,12.36618],[-1.523553,12.365765],[-1.524417,12.365509],[-1.525315,12.365422],[-1.526213,12.365509],[-1.527077,12.365765],[-1.527873,12.36618],[-1.52857,12.366739],[-1.529143,12.367421],[-1.529568,12.368198],[-1.52983,12.369042],[-1.529919,12.369919],[-1.52983,12.370796],[-1.529568,12.37164],[-1.529143,12.372417],[-1.52857,12.373099],[-1.527873,12.373658],[-1.527077,12.374073],[-1.526213,12.374329],[-1.525315,12.374416]]]},"properties":{"name":"","type":"Drinking water point","osm_tag":"drinking_water","operator":"","radius_m":500,"label":"Drinking water point \u2014 500 m","note":"OpenStreetMap, within 5 miles of central Ouagadougou. Community-mapped; coverage uneven."}},{"type":"Feature","geometry":{"type":"Polygon","coordinates":[[[-1.525029,12.374492],[-1.524131,12.374406],[-1.523267,12.37415],[-1.522472,12.373734],[-1.521774,12.373175],[-1.521201,12.372494],[-1.520776,12.371716],[-1.520514,12.370873],[-1.520426,12.369996],[-1.520514,12.369118],[-1.520776,12.368275],[-1.521201,12.367497],[-1.521774,12.366816],[-1.522472,12.366257],[-1.523267,12.365841],[-1.524131,12.365585],[-1.525029,12.365499],[-1.525927,12.365585],[-1.526791,12.365841],[-1.527587,12.366257],[-1.528284,12.366816],[-1.528857,12.367497],[-1.529282,12.368275],[-1.529544,12.369118],[-1.529633,12.369996],[-1.529544,12.370873],[-1.529282,12.371716],[-1.528857,12.372494],[-1.528284,12.373175],[-1.527587,12.373734],[-1.526791,12.37415],[-1.525927,12.374406],[-1.525029,12.374492]]]},"properties":{"name":"","type":"Drinking water point","osm_tag":"drinking_water","operator":"","radius_m":500,"label":"Drinking water point \u2014 500 m","note":"OpenStreetMap, within 5 miles of central Ouagadougou. Community-mapped; coverage uneven."}},{"type":"Feature","geometry":{"type":"Polygon","coordinates":[[[-1.503289,12.347955],[-1.502391,12.347869],[-1.501528,12.347613],[-1.500732,12.347198],[-1.500034,12.346638],[-1.499462,12.345957],[-1.499036,12.34518],[-1.498775,12.344336],[-1.498686,12.343459],[-1.498775,12.342582],[-1.499036,12.341738],[-1.499462,12.340961],[-1.500034,12.340279],[-1.500732,12.33972],[-1.501528,12.339304],[-1.502391,12.339049],[-1.503289,12.338962],[-1.504187,12.339049],[-1.505051,12.339304],[-1.505846,12.33972],[-1.506544,12.340279],[-1.507116,12.340961],[-1.507542,12.341738],[-1.507804,12.342582],[-1.507892,12.343459],[-1.507804,12.344336],[-1.507542,12.34518],[-1.507116,12.345957],[-1.506544,12.346638],[-1.505846,12.347198],[-1.505051,12.347613],[-1.504187,12.347869],[-1.503289,12.347955]]]},"properties":{"name":"fontaine","type":"Drinking water point","osm_tag":"drinking_water","operator":"ONEA","radius_m":500,"label":"fontaine \u2014 500 m","note":"OpenStreetMap, within 5 miles of central Ouagadougou. Community-mapped; coverage uneven."}},{"type":"Feature","geometry":{"type":"Polygon","coordinates":[[[-1.525399,12.31301],[-1.524502,12.312924],[-1.523638,12.312668],[-1.522842,12.312252],[-1.522145,12.311693],[-1.521573,12.311012],[-1.521147,12.310234],[-1.520885,12.309391],[-1.520797,12.308513],[-1.520885,12.307636],[-1.521147,12.306793],[-1.521573,12.306015],[-1.522145,12.305334],[-1.522842,12.304775],[-1.523638,12.304359],[-1.524502,12.304103],[-1.525399,12.304017],[-1.526297,12.304103],[-1.527161,12.304359],[-1.527956,12.304775],[-1.528654,12.305334],[-1.529226,12.306015],[-1.529651,12.306793],[-1.529913,12.307636],[-1.530002,12.308513],[-1.529913,12.309391],[-1.529651,12.310234],[-1.529226,12.311012],[-1.528654,12.311693],[-1.527956,12.312252],[-1.527161,12.312668],[-1.526297,12.312924],[-1.525399,12.31301]]]},"properties":{"name":"","type":"Water tower","osm_tag":"water_tower","operator":"","radius_m":500,"label":"Water tower \u2014 500 m","note":"OpenStreetMap, within 5 miles of central Ouagadougou. Community-mapped; coverage uneven."}},{"type":"Feature","geometry":{"type":"Polygon","coordinates":[[[-1.525603,12.313343],[-1.524705,12.313257],[-1.523842,12.313001],[-1.523046,12.312585],[-1.522349,12.312026],[-1.521776,12.311345],[-1.521351,12.310567],[-1.521089,12.309724],[-1.521001,12.308846],[-1.521089,12.307969],[-1.521351,12.307126],[-1.521776,12.306348],[-1.522349,12.305667],[-1.523046,12.305108],[-1.523842,12.304692],[-1.524705,12.304436],[-1.525603,12.30435],[-1.526501,12.304436],[-1.527364,12.304692],[-1.52816,12.305108],[-1.528857,12.305667],[-1.52943,12.306348],[-1.529855,12.307126],[-1.530117,12.307969],[-1.530206,12.308846],[-1.530117,12.309724],[-1.529855,12.310567],[-1.52943,12.311345],[-1.528858,12.312026],[-1.52816,12.312585],[-1.527364,12.313001],[-1.526501,12.313257],[-1.525603,12.313343]]]},"properties":{"name":"","type":"Water tower","osm_tag":"water_tower","operator":"","radius_m":500,"label":"Water tower \u2014 500 m","note":"OpenStreetMap, within 5 miles of central Ouagadougou. Community-mapped; coverage uneven."}},{"type":"Feature","geometry":{"type":"Polygon","coordinates":[[[-1.525549,12.313696],[-1.524651,12.31361],[-1.523788,12.313354],[-1.522992,12.312938],[-1.522295,12.312379],[-1.521722,12.311698],[-1.521297,12.31092],[-1.521035,12.310077],[-1.520947,12.3092],[-1.521035,12.308322],[-1.521297,12.307479],[-1.521723,12.306701],[-1.522295,12.30602],[-1.522992,12.305461],[-1.523788,12.305045],[-1.524651,12.304789],[-1.525549,12.304703],[-1.526447,12.304789],[-1.527311,12.305045],[-1.528106,12.305461],[-1.528804,12.30602],[-1.529376,12.306701],[-1.529801,12.307479],[-1.530063,12.308322],[-1.530152,12.3092],[-1.530063,12.310077],[-1.529801,12.31092],[-1.529376,12.311698],[-1.528804,12.312379],[-1.528106,12.312938],[-1.527311,12.313354],[-1.526447,12.31361],[-1.525549,12.313696]]]},"properties":{"name":"","type":"Water tower","osm_tag":"water_tower","operator":"","radius_m":500,"label":"Water tower \u2014 500 m","note":"OpenStreetMap, within 5 miles of central Ouagadougou. Community-mapped; coverage uneven."}},{"type":"Feature","geometry":{"type":"Polygon","coordinates":[[[-1.529715,12.321079],[-1.528817,12.320993],[-1.527954,12.320737],[-1.527158,12.320321],[-1.52646,12.319762],[-1.525888,12.319081],[-1.525463,12.318303],[-1.525201,12.31746],[-1.525112,12.316582],[-1.525201,12.315705],[-1.525463,12.314862],[-1.525888,12.314084],[-1.526461,12.313403],[-1.527158,12.312844],[-1.527954,12.312428],[-1.528817,12.312172],[-1.529715,12.312086],[-1.530613,12.312172],[-1.531476,12.312428],[-1.532272,12.312844],[-1.532969,12.313403],[-1.533542,12.314084],[-1.533967,12.314862],[-1.534229,12.315705],[-1.534318,12.316582],[-1.534229,12.31746],[-1.533967,12.318303],[-1.533542,12.319081],[-1.53297,12.319762],[-1.532272,12.320321],[-1.531476,12.320737],[-1.530613,12.320993],[-1.529715,12.321079]]]},"properties":{"name":"Song Naaba","type":"Water tower","osm_tag":"water_tower","operator":"","radius_m":500,"label":"Song Naaba \u2014 500 m","note":"OpenStreetMap, within 5 miles of central Ouagadougou. Community-mapped; coverage uneven."}},{"type":"Feature","geometry":{"type":"Polygon","coordinates":[[[-1.548606,12.376005],[-1.547708,12.375919],[-1.546844,12.375663],[-1.546048,12.375247],[-1.545351,12.374688],[-1.544778,12.374007],[-1.544353,12.373229],[-1.544091,12.372386],[-1.544002,12.371509],[-1.544091,12.370631],[-1.544353,12.369788],[-1.544778,12.36901],[-1.545351,12.368329],[-1.546048,12.36777],[-1.546844,12.367354],[-1.547708,12.367098],[-1.548606,12.367012],[-1.549504,12.367098],[-1.550368,12.367354],[-1.551164,12.36777],[-1.551861,12.368329],[-1.552434,12.36901],[-1.552859,12.369788],[-1.553121,12.370631],[-1.55321,12.371509],[-1.553121,12.372386],[-1.552859,12.373229],[-1.552434,12.374007],[-1.551861,12.374688],[-1.551164,12.375247],[-1.550368,12.375663],[-1.549504,12.375919],[-1.548606,12.376005]]]},"properties":{"name":"","type":"Water tower","osm_tag":"water_tower","operator":"","radius_m":500,"label":"Water tower \u2014 500 m","note":"OpenStreetMap, within 5 miles of central Ouagadougou. Community-mapped; coverage uneven."}},{"type":"Feature","geometry":{"type":"Polygon","coordinates":[[[-1.534378,12.340349],[-1.53348,12.340263],[-1.532617,12.340007],[-1.531821,12.339591],[-1.531124,12.339032],[-1.530551,12.338351],[-1.530126,12.337573],[-1.529864,12.33673],[-1.529776,12.335853],[-1.529864,12.334975],[-1.530126,12.334132],[-1.530551,12.333354],[-1.531124,12.332673],[-1.531821,12.332114],[-1.532617,12.331698],[-1.53348,12.331442],[-1.534378,12.331356],[-1.535276,12.331442],[-1.53614,12.331698],[-1.536936,12.332114],[-1.537633,12.332673],[-1.538206,12.333354],[-1.538631,12.334132],[-1.538893,12.334975],[-1.538981,12.335853],[-1.538893,12.33673],[-1.538631,12.337573],[-1.538206,12.338351],[-1.537633,12.339032],[-1.536936,12.339591],[-1.53614,12.340007],[-1.535276,12.340263],[-1.534378,12.340349]]]},"properties":{"name":"","type":"Drinking water point","osm_tag":"drinking_water","operator":"ONEA","radius_m":500,"label":"Drinking water point \u2014 500 m","note":"OpenStreetMap, within 5 miles of central Ouagadougou. Community-mapped; coverage uneven."}},{"type":"Feature","geometry":{"type":"Polygon","coordinates":[[[-1.535287,12.342184],[-1.53439,12.342098],[-1.533526,12.341842],[-1.53273,12.341426],[-1.532033,12.340867],[-1.53146,12.340186],[-1.531035,12.339408],[-1.530773,12.338565],[-1.530685,12.337688],[-1.530773,12.33681],[-1.531035,12.335967],[-1.53146,12.335189],[-1.532033,12.334508],[-1.53273,12.333949],[-1.533526,12.333533],[-1.53439,12.333277],[-1.535287,12.333191],[-1.536185,12.333277],[-1.537049,12.333533],[-1.537845,12.333949],[-1.538542,12.334508],[-1.539115,12.335189],[-1.53954,12.335967],[-1.539802,12.33681],[-1.53989,12.337688],[-1.539802,12.338565],[-1.53954,12.339408],[-1.539115,12.340186],[-1.538542,12.340867],[-1.537845,12.341426],[-1.537049,12.341842],[-1.536185,12.342098],[-1.535287,12.342184]]]},"properties":{"name":"","type":"Drinking water point","osm_tag":"drinking_water","operator":"ONEA","radius_m":500,"label":"Drinking water point \u2014 500 m","note":"OpenStreetMap, within 5 miles of central Ouagadougou. Community-mapped; coverage uneven."}},{"type":"Feature","geometry":{"type":"Polygon","coordinates":[[[-1.540095,12.337943],[-1.539197,12.337856],[-1.538334,12.3376],[-1.537538,12.337185],[-1.536841,12.336626],[-1.536268,12.335944],[-1.535843,12.335167],[-1.535581,12.334323],[-1.535492,12.333446],[-1.535581,12.332569],[-1.535843,12.331725],[-1.536268,12.330948],[-1.536841,12.330266],[-1.537538,12.329707],[-1.538334,12.329292],[-1.539197,12.329036],[-1.540095,12.328949],[-1.540993,12.329036],[-1.541857,12.329292],[-1.542652,12.329707],[-1.54335,12.330266],[-1.543922,12.330948],[-1.544348,12.331725],[-1.54461,12.332569],[-1.544698,12.333446],[-1.54461,12.334323],[-1.544348,12.335167],[-1.543922,12.335944],[-1.54335,12.336626],[-1.542653,12.337185],[-1.541857,12.3376],[-1.540993,12.337856],[-1.540095,12.337943]]]},"properties":{"name":"","type":"Drinking water point","osm_tag":"drinking_water","operator":"ONEA","radius_m":500,"label":"Drinking water point \u2014 500 m","note":"OpenStreetMap, within 5 miles of central Ouagadougou. Community-mapped; coverage uneven."}},{"type":"Feature","geometry":{"type":"Polygon","coordinates":[[[-1.537403,12.336905],[-1.536505,12.336818],[-1.535642,12.336562],[-1.534846,12.336147],[-1.534148,12.335588],[-1.533576,12.334906],[-1.533151,12.334129],[-1.532889,12.333285],[-1.5328,12.332408],[-1.532889,12.331531],[-1.533151,12.330687],[-1.533576,12.32991],[-1.534148,12.329228],[-1.534846,12.328669],[-1.535642,12.328254],[-1.536505,12.327998],[-1.537403,12.327911],[-1.538301,12.327998],[-1.539164,12.328254],[-1.53996,12.328669],[-1.540658,12.329228],[-1.54123,12.32991],[-1.541656,12.330687],[-1.541917,12.331531],[-1.542006,12.332408],[-1.541917,12.333285],[-1.541656,12.334129],[-1.54123,12.334906],[-1.540658,12.335588],[-1.53996,12.336147],[-1.539165,12.336562],[-1.538301,12.336818],[-1.537403,12.336905]]]},"properties":{"name":"","type":"Drinking water point","osm_tag":"drinking_water","operator":"ONEA","radius_m":500,"label":"Drinking water point \u2014 500 m","note":"OpenStreetMap, within 5 miles of central Ouagadougou. Community-mapped; coverage uneven."}},{"type":"Feature","geometry":{"type":"Polygon","coordinates":[[[-1.537456,12.341235],[-1.536558,12.341149],[-1.535695,12.340893],[-1.534899,12.340478],[-1.534201,12.339918],[-1.533629,12.339237],[-1.533203,12.33846],[-1.532942,12.337616],[-1.532853,12.336739],[-1.532942,12.335862],[-1.533204,12.335018],[-1.533629,12.334241],[-1.534201,12.333559],[-1.534899,12.333],[-1.535695,12.332584],[-1.536558,12.332329],[-1.537456,12.332242],[-1.538354,12.332329],[-1.539217,12.332584],[-1.540013,12.333],[-1.540711,12.333559],[-1.541283,12.334241],[-1.541708,12.335018],[-1.54197,12.335862],[-1.542059,12.336739],[-1.54197,12.337616],[-1.541709,12.33846],[-1.541283,12.339237],[-1.540711,12.339918],[-1.540013,12.340478],[-1.539217,12.340893],[-1.538354,12.341149],[-1.537456,12.341235]]]},"properties":{"name":"Fontaine Public","type":"Drinking water point","osm_tag":"drinking_water","operator":"ONEA","radius_m":500,"label":"Fontaine Public \u2014 500 m","note":"OpenStreetMap, within 5 miles of central Ouagadougou. Community-mapped; coverage uneven."}},{"type":"Feature","geometry":{"type":"Polygon","coordinates":[[[-1.531276,12.339691],[-1.530378,12.339604],[-1.529514,12.339349],[-1.528719,12.338933],[-1.528021,12.338374],[-1.527449,12.337692],[-1.527023,12.336915],[-1.526761,12.336071],[-1.526673,12.335194],[-1.526761,12.334317],[-1.527023,12.333473],[-1.527449,12.332696],[-1.528021,12.332015],[-1.528719,12.331455],[-1.529514,12.33104],[-1.530378,12.330784],[-1.531276,12.330698],[-1.532174,12.330784],[-1.533037,12.33104],[-1.533833,12.331455],[-1.534531,12.332015],[-1.535103,12.332696],[-1.535528,12.333473],[-1.53579,12.334317],[-1.535879,12.335194],[-1.53579,12.336071],[-1.535528,12.336915],[-1.535103,12.337692],[-1.534531,12.338374],[-1.533833,12.338933],[-1.533037,12.339349],[-1.532174,12.339604],[-1.531276,12.339691]]]},"properties":{"name":"","type":"Drinking water point","osm_tag":"drinking_water","operator":"ONEA","radius_m":500,"label":"Drinking water point \u2014 500 m","note":"OpenStreetMap, within 5 miles of central Ouagadougou. Community-mapped; coverage uneven."}},{"type":"Feature","geometry":{"type":"Polygon","coordinates":[[[-1.537459,12.345597],[-1.536561,12.345511],[-1.535698,12.345255],[-1.534902,12.344839],[-1.534204,12.34428],[-1.533632,12.343599],[-1.533207,12.342821],[-1.532945,12.341978],[-1.532856,12.341101],[-1.532945,12.340223],[-1.533207,12.33938],[-1.533632,12.338602],[-1.534204,12.337921],[-1.534902,12.337362],[-1.535698,12.336946],[-1.536561,12.33669],[-1.537459,12.336604],[-1.538357,12.33669],[-1.539221,12.336946],[-1.540016,12.337362],[-1.540714,12.337921],[-1.541286,12.338602],[-1.541712,12.33938],[-1.541974,12.340223],[-1.542062,12.341101],[-1.541974,12.341978],[-1.541712,12.342821],[-1.541286,12.343599],[-1.540714,12.34428],[-1.540017,12.344839],[-1.539221,12.345255],[-1.538357,12.345511],[-1.537459,12.345597]]]},"properties":{"name":"","type":"Drinking water point","osm_tag":"drinking_water","operator":"","radius_m":500,"label":"Drinking water point \u2014 500 m","note":"OpenStreetMap, within 5 miles of central Ouagadougou. Community-mapped; coverage uneven."}},{"type":"Feature","geometry":{"type":"Polygon","coordinates":[[[-1.535428,12.343941],[-1.53453,12.343855],[-1.533667,12.343599],[-1.532871,12.343183],[-1.532173,12.342624],[-1.531601,12.341942],[-1.531176,12.341165],[-1.530914,12.340322],[-1.530825,12.339444],[-1.530914,12.338567],[-1.531176,12.337723],[-1.531601,12.336946],[-1.532173,12.336265],[-1.532871,12.335705],[-1.533667,12.33529],[-1.53453,12.335034],[-1.535428,12.334948],[-1.536326,12.335034],[-1.53719,12.33529],[-1.537985,12.335705],[-1.538683,12.336265],[-1.539255,12.336946],[-1.539681,12.337723],[-1.539943,12.338567],[-1.540031,12.339444],[-1.539943,12.340322],[-1.539681,12.341165],[-1.539255,12.341942],[-1.538683,12.342624],[-1.537985,12.343183],[-1.53719,12.343599],[-1.536326,12.343855],[-1.535428,12.343941]]]},"properties":{"name":"","type":"Drinking water point","osm_tag":"drinking_water","operator":"","radius_m":500,"label":"Drinking water point \u2014 500 m","note":"OpenStreetMap, within 5 miles of central Ouagadougou. Community-mapped; coverage uneven."}},{"type":"Feature","geometry":{"type":"Polygon","coordinates":[[[-1.532628,12.343491],[-1.53173,12.343404],[-1.530866,12.343148],[-1.530071,12.342733],[-1.529373,12.342173],[-1.528801,12.341492],[-1.528375,12.340715],[-1.528113,12.339871],[-1.528025,12.338994],[-1.528113,12.338117],[-1.528375,12.337273],[-1.528801,12.336496],[-1.529373,12.335814],[-1.530071,12.335255],[-1.530866,12.33484],[-1.53173,12.334584],[-1.532628,12.334497],[-1.533526,12.334584],[-1.534389,12.33484],[-1.535185,12.335255],[-1.535883,12.335814],[-1.536455,12.336496],[-1.53688,12.337273],[-1.537142,12.338117],[-1.537231,12.338994],[-1.537142,12.339871],[-1.53688,12.340715],[-1.536455,12.341492],[-1.535883,12.342173],[-1.535185,12.342733],[-1.534389,12.343148],[-1.533526,12.343404],[-1.532628,12.343491]]]},"properties":{"name":"","type":"Drinking water point","osm_tag":"drinking_water","operator":"","radius_m":500,"label":"Drinking water point \u2014 500 m","note":"OpenStreetMap, within 5 miles of central Ouagadougou. Community-mapped; coverage uneven."}},{"type":"Feature","geometry":{"type":"Polygon","coordinates":[[[-1.543224,12.338851],[-1.542326,12.338765],[-1.541462,12.338509],[-1.540667,12.338093],[-1.539969,12.337534],[-1.539397,12.336853],[-1.538971,12.336075],[-1.538709,12.335232],[-1.538621,12.334354],[-1.538709,12.333477],[-1.538971,12.332634],[-1.539397,12.331856],[-1.539969,12.331175],[-1.540667,12.330616],[-1.541462,12.3302],[-1.542326,12.329944],[-1.543224,12.329858],[-1.544122,12.329944],[-1.544985,12.3302],[-1.545781,12.330616],[-1.546478,12.331175],[-1.547051,12.331856],[-1.547476,12.332634],[-1.547738,12.333477],[-1.547827,12.334354],[-1.547738,12.335232],[-1.547476,12.336075],[-1.547051,12.336853],[-1.546479,12.337534],[-1.545781,12.338093],[-1.544985,12.338509],[-1.544122,12.338765],[-1.543224,12.338851]]]},"properties":{"name":"","type":"Drinking water point","osm_tag":"drinking_water","operator":"","radius_m":500,"label":"Drinking water point \u2014 500 m","note":"OpenStreetMap, within 5 miles of central Ouagadougou. Community-mapped; coverage uneven."}},{"type":"Feature","geometry":{"type":"Polygon","coordinates":[[[-1.545005,12.344404],[-1.544107,12.344317],[-1.543243,12.344062],[-1.542448,12.343646],[-1.54175,12.343087],[-1.541178,12.342405],[-1.540752,12.341628],[-1.54049,12.340784],[-1.540402,12.339907],[-1.54049,12.33903],[-1.540752,12.338186],[-1.541178,12.337409],[-1.54175,12.336728],[-1.542448,12.336168],[-1.543243,12.335753],[-1.544107,12.335497],[-1.545005,12.335411],[-1.545903,12.335497],[-1.546766,12.335753],[-1.547562,12.336168],[-1.54826,12.336728],[-1.548832,12.337409],[-1.549257,12.338186],[-1.549519,12.33903],[-1.549608,12.339907],[-1.549519,12.340784],[-1.549257,12.341628],[-1.548832,12.342405],[-1.54826,12.343087],[-1.547562,12.343646],[-1.546766,12.344062],[-1.545903,12.344317],[-1.545005,12.344404]]]},"properties":{"name":"","type":"Drinking water point","osm_tag":"drinking_water","operator":"","radius_m":500,"label":"Drinking water point \u2014 500 m","note":"OpenStreetMap, within 5 miles of central Ouagadougou. Community-mapped; coverage uneven."}},{"type":"Feature","geometry":{"type":"Polygon","coordinates":[[[-1.544118,12.333989],[-1.54322,12.333903],[-1.542356,12.333647],[-1.54156,12.333231],[-1.540863,12.332672],[-1.540291,12.331991],[-1.539865,12.331213],[-1.539603,12.33037],[-1.539515,12.329492],[-1.539603,12.328615],[-1.539865,12.327772],[-1.540291,12.326994],[-1.540863,12.326313],[-1.54156,12.325754],[-1.542356,12.325338],[-1.54322,12.325082],[-1.544118,12.324996],[-1.545016,12.325082],[-1.545879,12.325338],[-1.546675,12.325754],[-1.547372,12.326313],[-1.547945,12.326994],[-1.54837,12.327772],[-1.548632,12.328615],[-1.54872,12.329492],[-1.548632,12.33037],[-1.54837,12.331213],[-1.547945,12.331991],[-1.547372,12.332672],[-1.546675,12.333231],[-1.545879,12.333647],[-1.545016,12.333903],[-1.544118,12.333989]]]},"properties":{"name":"","type":"Drinking water point","osm_tag":"drinking_water","operator":"","radius_m":500,"label":"Drinking water point \u2014 500 m","note":"OpenStreetMap, within 5 miles of central Ouagadougou. Community-mapped; coverage uneven."}},{"type":"Feature","geometry":{"type":"Polygon","coordinates":[[[-1.576183,12.398221],[-1.575285,12.398135],[-1.574422,12.397879],[-1.573626,12.397463],[-1.572928,12.396904],[-1.572355,12.396222],[-1.57193,12.395445],[-1.571668,12.394602],[-1.57158,12.393724],[-1.571668,12.392847],[-1.57193,12.392003],[-1.572355,12.391226],[-1.572928,12.390545],[-1.573626,12.389985],[-1.574422,12.38957],[-1.575285,12.389314],[-1.576183,12.389228],[-1.577082,12.389314],[-1.577945,12.38957],[-1.578741,12.389985],[-1.579439,12.390545],[-1.580011,12.391226],[-1.580437,12.392003],[-1.580699,12.392847],[-1.580787,12.393724],[-1.580699,12.394602],[-1.580437,12.395445],[-1.580011,12.396222],[-1.579439,12.396904],[-1.578741,12.397463],[-1.577945,12.397879],[-1.577082,12.398135],[-1.576183,12.398221]]]},"properties":{"name":"","type":"Tap","osm_tag":"water_tap","operator":"","radius_m":500,"label":"Tap \u2014 500 m","note":"OpenStreetMap, within 5 miles of central Ouagadougou. Community-mapped; coverage uneven."}},{"type":"Feature","geometry":{"type":"Polygon","coordinates":[[[-1.581761,12.402534],[-1.580863,12.402448],[-1.579999,12.402192],[-1.579203,12.401776],[-1.578506,12.401217],[-1.577933,12.400536],[-1.577508,12.399758],[-1.577246,12.398915],[-1.577157,12.398038],[-1.577246,12.39716],[-1.577508,12.396317],[-1.577933,12.395539],[-1.578506,12.394858],[-1.579204,12.394299],[-1.579999,12.393883],[-1.580863,12.393627],[-1.581761,12.393541],[-1.582659,12.393627],[-1.583523,12.393883],[-1.584319,12.394299],[-1.585017,12.394858],[-1.585589,12.395539],[-1.586015,12.396317],[-1.586277,12.39716],[-1.586365,12.398038],[-1.586277,12.398915],[-1.586015,12.399758],[-1.585589,12.400536],[-1.585017,12.401217],[-1.584319,12.401776],[-1.583523,12.402192],[-1.58266,12.402448],[-1.581761,12.402534]]]},"properties":{"name":"","type":"Drinking water point","osm_tag":"drinking_water","operator":"","radius_m":500,"label":"Drinking water point \u2014 500 m","note":"OpenStreetMap, within 5 miles of central Ouagadougou. Community-mapped; coverage uneven."}},{"type":"Feature","geometry":{"type":"Polygon","coordinates":[[[-1.580256,12.39033],[-1.579358,12.390244],[-1.578494,12.389988],[-1.577698,12.389572],[-1.577001,12.389013],[-1.576428,12.388331],[-1.576003,12.387554],[-1.575741,12.386711],[-1.575652,12.385833],[-1.575741,12.384956],[-1.576003,12.384112],[-1.576428,12.383335],[-1.577001,12.382654],[-1.577698,12.382094],[-1.578494,12.381679],[-1.579358,12.381423],[-1.580256,12.381337],[-1.581154,12.381423],[-1.582018,12.381679],[-1.582814,12.382094],[-1.583511,12.382654],[-1.584084,12.383335],[-1.584509,12.384112],[-1.584771,12.384956],[-1.58486,12.385833],[-1.584771,12.386711],[-1.584509,12.387554],[-1.584084,12.388331],[-1.583511,12.389013],[-1.582814,12.389572],[-1.582018,12.389988],[-1.581154,12.390244],[-1.580256,12.39033]]]},"properties":{"name":"","type":"Drinking water point","osm_tag":"drinking_water","operator":"","radius_m":500,"label":"Drinking water point \u2014 500 m","note":"OpenStreetMap, within 5 miles of central Ouagadougou. Community-mapped; coverage uneven."}},{"type":"Feature","geometry":{"type":"Polygon","coordinates":[[[-1.582179,12.400021],[-1.581281,12.399935],[-1.580418,12.399679],[-1.579622,12.399263],[-1.578924,12.398704],[-1.578351,12.398023],[-1.577926,12.397245],[-1.577664,12.396402],[-1.577575,12.395524],[-1.577664,12.394647],[-1.577926,12.393804],[-1.578351,12.393026],[-1.578924,12.392345],[-1.579622,12.391786],[-1.580418,12.39137],[-1.581281,12.391114],[-1.582179,12.391028],[-1.583078,12.391114],[-1.583941,12.39137],[-1.584737,12.391786],[-1.585435,12.392345],[-1.586007,12.393026],[-1.586433,12.393804],[-1.586695,12.394647],[-1.586783,12.395524],[-1.586695,12.396402],[-1.586433,12.397245],[-1.586007,12.398023],[-1.585435,12.398704],[-1.584737,12.399263],[-1.583941,12.399679],[-1.583078,12.399935],[-1.582179,12.400021]]]},"properties":{"name":"","type":"Drinking water point","osm_tag":"drinking_water","operator":"","radius_m":500,"label":"Drinking water point \u2014 500 m","note":"OpenStreetMap, within 5 miles of central Ouagadougou. Community-mapped; coverage uneven."}},{"type":"Feature","geometry":{"type":"Polygon","coordinates":[[[-1.563712,12.397578],[-1.562814,12.397491],[-1.56195,12.397235],[-1.561154,12.39682],[-1.560457,12.396261],[-1.559884,12.395579],[-1.559459,12.394802],[-1.559197,12.393958],[-1.559108,12.393081],[-1.559197,12.392204],[-1.559459,12.39136],[-1.559884,12.390583],[-1.560457,12.389901],[-1.561154,12.389342],[-1.56195,12.388927],[-1.562814,12.388671],[-1.563712,12.388584],[-1.56461,12.388671],[-1.565474,12.388927],[-1.56627,12.389342],[-1.566967,12.389901],[-1.56754,12.390583],[-1.567966,12.39136],[-1.568228,12.392204],[-1.568316,12.393081],[-1.568228,12.393958],[-1.567966,12.394802],[-1.56754,12.395579],[-1.566968,12.396261],[-1.56627,12.39682],[-1.565474,12.397235],[-1.56461,12.397491],[-1.563712,12.397578]]]},"properties":{"name":"","type":"Drinking water point","osm_tag":"drinking_water","operator":"ONEA","radius_m":500,"label":"Drinking water point \u2014 500 m","note":"OpenStreetMap, within 5 miles of central Ouagadougou. Community-mapped; coverage uneven."}},{"type":"Feature","geometry":{"type":"Polygon","coordinates":[[[-1.576965,12.389733],[-1.576067,12.389647],[-1.575203,12.389391],[-1.574407,12.388975],[-1.573709,12.388416],[-1.573137,12.387734],[-1.572711,12.386957],[-1.572449,12.386114],[-1.572361,12.385236],[-1.572449,12.384359],[-1.572711,12.383515],[-1.573137,12.382738],[-1.573709,12.382057],[-1.574407,12.381497],[-1.575203,12.381082],[-1.576067,12.380826],[-1.576965,12.38074],[-1.577863,12.380826],[-1.578726,12.381082],[-1.579522,12.381497],[-1.58022,12.382057],[-1.580793,12.382738],[-1.581218,12.383515],[-1.58148,12.384359],[-1.581568,12.385236],[-1.58148,12.386114],[-1.581218,12.386957],[-1.580793,12.387734],[-1.58022,12.388416],[-1.579522,12.388975],[-1.578727,12.389391],[-1.577863,12.389647],[-1.576965,12.389733]]]},"properties":{"name":"","type":"Drinking water point","osm_tag":"drinking_water","operator":"ONEA","radius_m":500,"label":"Drinking water point \u2014 500 m","note":"OpenStreetMap, within 5 miles of central Ouagadougou. Community-mapped; coverage uneven."}},{"type":"Feature","geometry":{"type":"Polygon","coordinates":[[[-1.571853,12.398872],[-1.570955,12.398785],[-1.570091,12.398529],[-1.569295,12.398114],[-1.568598,12.397554],[-1.568025,12.396873],[-1.5676,12.396096],[-1.567338,12.395252],[-1.567249,12.394375],[-1.567338,12.393498],[-1.5676,12.392654],[-1.568025,12.391877],[-1.568598,12.391195],[-1.569296,12.390636],[-1.570091,12.390221],[-1.570955,12.389965],[-1.571853,12.389878],[-1.572751,12.389965],[-1.573615,12.390221],[-1.574411,12.390636],[-1.575109,12.391195],[-1.575681,12.391877],[-1.576107,12.392654],[-1.576369,12.393498],[-1.576457,12.394375],[-1.576369,12.395252],[-1.576107,12.396096],[-1.575681,12.396873],[-1.575109,12.397554],[-1.574411,12.398114],[-1.573615,12.398529],[-1.572751,12.398785],[-1.571853,12.398872]]]},"properties":{"name":"","type":"Tap","osm_tag":"water_tap","operator":"","radius_m":500,"label":"Tap \u2014 500 m","note":"OpenStreetMap, within 5 miles of central Ouagadougou. Community-mapped; coverage uneven."}},{"type":"Feature","geometry":{"type":"Polygon","coordinates":[[[-1.560758,12.399851],[-1.55986,12.399765],[-1.558996,12.399509],[-1.5582,12.399094],[-1.557503,12.398534],[-1.55693,12.397853],[-1.556505,12.397076],[-1.556243,12.396232],[-1.556154,12.395355],[-1.556243,12.394478],[-1.556505,12.393634],[-1.55693,12.392857],[-1.557503,12.392175],[-1.558201,12.391616],[-1.558996,12.3912],[-1.55986,12.390945],[-1.560758,12.390858],[-1.561656,12.390945],[-1.56252,12.3912],[-1.563316,12.391616],[-1.564014,12.392175],[-1.564586,12.392857],[-1.565012,12.393634],[-1.565274,12.394478],[-1.565362,12.395355],[-1.565274,12.396232],[-1.565012,12.397076],[-1.564586,12.397853],[-1.564014,12.398534],[-1.563316,12.399094],[-1.56252,12.399509],[-1.561656,12.399765],[-1.560758,12.399851]]]},"properties":{"name":"","type":"Drinking water point","osm_tag":"drinking_water","operator":"ONEA","radius_m":500,"label":"Drinking water point \u2014 500 m","note":"OpenStreetMap, within 5 miles of central Ouagadougou. Community-mapped; coverage uneven."}},{"type":"Feature","geometry":{"type":"Polygon","coordinates":[[[-1.562198,12.402041],[-1.561299,12.401954],[-1.560436,12.401698],[-1.55964,12.401283],[-1.558942,12.400724],[-1.558369,12.400042],[-1.557944,12.399265],[-1.557682,12.398421],[-1.557594,12.397544],[-1.557682,12.396667],[-1.557944,12.395823],[-1.558369,12.395046],[-1.558942,12.394364],[-1.55964,12.393805],[-1.560436,12.39339],[-1.561299,12.393134],[-1.562198,12.393047],[-1.563096,12.393134],[-1.563959,12.39339],[-1.564755,12.393805],[-1.565453,12.394364],[-1.566026,12.395046],[-1.566451,12.395823],[-1.566713,12.396667],[-1.566801,12.397544],[-1.566713,12.398421],[-1.566451,12.399265],[-1.566026,12.400042],[-1.565453,12.400724],[-1.564755,12.401283],[-1.563959,12.401698],[-1.563096,12.401954],[-1.562198,12.402041]]]},"properties":{"name":"","type":"Drinking water point","osm_tag":"drinking_water","operator":"ONEA","radius_m":500,"label":"Drinking water point \u2014 500 m","note":"OpenStreetMap, within 5 miles of central Ouagadougou. Community-mapped; coverage uneven."}},{"type":"Feature","geometry":{"type":"Polygon","coordinates":[[[-1.573302,12.390075],[-1.572403,12.389988],[-1.57154,12.389732],[-1.570744,12.389317],[-1.570046,12.388757],[-1.569474,12.388076],[-1.569048,12.387299],[-1.568786,12.386455],[-1.568698,12.385578],[-1.568786,12.384701],[-1.569048,12.383857],[-1.569474,12.38308],[-1.570046,12.382398],[-1.570744,12.381839],[-1.57154,12.381424],[-1.572403,12.381168],[-1.573302,12.381081],[-1.5742,12.381168],[-1.575063,12.381424],[-1.575859,12.381839],[-1.576557,12.382398],[-1.577129,12.38308],[-1.577555,12.383857],[-1.577817,12.384701],[-1.577905,12.385578],[-1.577817,12.386455],[-1.577555,12.387299],[-1.57713,12.388076],[-1.576557,12.388757],[-1.575859,12.389317],[-1.575063,12.389732],[-1.5742,12.389988],[-1.573302,12.390075]]]},"properties":{"name":"","type":"Drinking water point","osm_tag":"drinking_water","operator":"","radius_m":500,"label":"Drinking water point \u2014 500 m","note":"OpenStreetMap, within 5 miles of central Ouagadougou. Community-mapped; coverage uneven."}},{"type":"Feature","geometry":{"type":"Polygon","coordinates":[[[-1.576259,12.393432],[-1.575361,12.393345],[-1.574497,12.393089],[-1.573701,12.392674],[-1.573003,12.392115],[-1.572431,12.391433],[-1.572006,12.390656],[-1.571744,12.389812],[-1.571655,12.388935],[-1.571744,12.388058],[-1.572006,12.387214],[-1.572431,12.386437],[-1.573004,12.385755],[-1.573701,12.385196],[-1.574497,12.384781],[-1.575361,12.384525],[-1.576259,12.384438],[-1.577157,12.384525],[-1.578021,12.384781],[-1.578817,12.385196],[-1.579514,12.385755],[-1.580087,12.386437],[-1.580512,12.387214],[-1.580774,12.388058],[-1.580863,12.388935],[-1.580774,12.389812],[-1.580512,12.390656],[-1.580087,12.391433],[-1.579514,12.392115],[-1.578817,12.392674],[-1.578021,12.393089],[-1.577157,12.393345],[-1.576259,12.393432]]]},"properties":{"name":"","type":"Drinking water point","osm_tag":"drinking_water","operator":"ONEA","radius_m":500,"label":"Drinking water point \u2014 500 m","note":"OpenStreetMap, within 5 miles of central Ouagadougou. Community-mapped; coverage uneven."}},{"type":"Feature","geometry":{"type":"Polygon","coordinates":[[[-1.575092,12.391804],[-1.574194,12.391717],[-1.57333,12.391461],[-1.572534,12.391046],[-1.571837,12.390487],[-1.571264,12.389805],[-1.570839,12.389028],[-1.570577,12.388184],[-1.570488,12.387307],[-1.570577,12.38643],[-1.570839,12.385586],[-1.571264,12.384809],[-1.571837,12.384127],[-1.572535,12.383568],[-1.57333,12.383153],[-1.574194,12.382897],[-1.575092,12.38281],[-1.57599,12.382897],[-1.576854,12.383153],[-1.57765,12.383568],[-1.578348,12.384127],[-1.57892,12.384809],[-1.579346,12.385586],[-1.579608,12.38643],[-1.579696,12.387307],[-1.579608,12.388184],[-1.579346,12.389028],[-1.57892,12.389805],[-1.578348,12.390487],[-1.57765,12.391046],[-1.576854,12.391461],[-1.57599,12.391717],[-1.575092,12.391804]]]},"properties":{"name":"","type":"Spring","osm_tag":"spring","operator":"","radius_m":500,"label":"Spring \u2014 500 m","note":"OpenStreetMap, within 5 miles of central Ouagadougou. Community-mapped; coverage uneven."}},{"type":"Feature","geometry":{"type":"Polygon","coordinates":[[[-1.509478,12.383656],[-1.508579,12.38357],[-1.507716,12.383314],[-1.50692,12.382898],[-1.506222,12.382339],[-1.50565,12.381658],[-1.505224,12.38088],[-1.504962,12.380037],[-1.504874,12.37916],[-1.504962,12.378282],[-1.505224,12.377439],[-1.50565,12.376661],[-1.506222,12.37598],[-1.50692,12.375421],[-1.507716,12.375005],[-1.508579,12.374749],[-1.509478,12.374663],[-1.510376,12.374749],[-1.511239,12.375005],[-1.512035,12.375421],[-1.512733,12.37598],[-1.513305,12.376661],[-1.513731,12.377439],[-1.513993,12.378282],[-1.514081,12.37916],[-1.513993,12.380037],[-1.513731,12.38088],[-1.513305,12.381658],[-1.512733,12.382339],[-1.512035,12.382898],[-1.511239,12.383314],[-1.510376,12.38357],[-1.509478,12.383656]]]},"properties":{"name":"Aquaterra","type":"Drinking water point","osm_tag":"drinking_water","operator":"Aquaterra","radius_m":500,"label":"Aquaterra \u2014 500 m","note":"OpenStreetMap, within 5 miles of central Ouagadougou. Community-mapped; coverage uneven."}},{"type":"Feature","geometry":{"type":"Polygon","coordinates":[[[-1.52029,12.328976],[-1.519392,12.328889],[-1.518529,12.328634],[-1.517733,12.328218],[-1.517035,12.327659],[-1.516463,12.326977],[-1.516038,12.3262],[-1.515776,12.325356],[-1.515687,12.324479],[-1.515776,12.323602],[-1.516038,12.322758],[-1.516463,12.321981],[-1.517035,12.3213],[-1.517733,12.32074],[-1.518529,12.320325],[-1.519392,12.320069],[-1.52029,12.319983],[-1.521188,12.320069],[-1.522051,12.320325],[-1.522847,12.32074],[-1.523545,12.3213],[-1.524117,12.321981],[-1.524542,12.322758],[-1.524804,12.323602],[-1.524893,12.324479],[-1.524804,12.325356],[-1.524542,12.3262],[-1.524117,12.326977],[-1.523545,12.327659],[-1.522847,12.328218],[-1.522051,12.328634],[-1.521188,12.328889],[-1.52029,12.328976]]]},"properties":{"name":"","type":"Drinking water point","osm_tag":"drinking_water","operator":"","radius_m":500,"label":"Drinking water point \u2014 500 m","note":"OpenStreetMap, within 5 miles of central Ouagadougou. Community-mapped; coverage uneven."}},{"type":"Feature","geometry":{"type":"Polygon","coordinates":[[[-1.522186,12.328728],[-1.521288,12.328641],[-1.520425,12.328385],[-1.519629,12.32797],[-1.518932,12.327411],[-1.518359,12.326729],[-1.517934,12.325952],[-1.517672,12.325108],[-1.517584,12.324231],[-1.517672,12.323354],[-1.517934,12.32251],[-1.518359,12.321733],[-1.518932,12.321051],[-1.519629,12.320492],[-1.520425,12.320077],[-1.521288,12.319821],[-1.522186,12.319734],[-1.523084,12.319821],[-1.523948,12.320077],[-1.524743,12.320492],[-1.525441,12.321051],[-1.526013,12.321733],[-1.526439,12.32251],[-1.526701,12.323354],[-1.526789,12.324231],[-1.526701,12.325108],[-1.526439,12.325952],[-1.526013,12.326729],[-1.525441,12.327411],[-1.524744,12.32797],[-1.523948,12.328385],[-1.523084,12.328641],[-1.522186,12.328728]]]},"properties":{"name":"","type":"Drinking water point","osm_tag":"drinking_water","operator":"","radius_m":500,"label":"Drinking water point \u2014 500 m","note":"OpenStreetMap, within 5 miles of central Ouagadougou. Community-mapped; coverage uneven."}},{"type":"Feature","geometry":{"type":"Polygon","coordinates":[[[-1.590201,12.355989],[-1.589303,12.355902],[-1.58844,12.355646],[-1.587644,12.355231],[-1.586946,12.354671],[-1.586374,12.35399],[-1.585948,12.353213],[-1.585686,12.352369],[-1.585598,12.351492],[-1.585686,12.350615],[-1.585948,12.349771],[-1.586374,12.348994],[-1.586946,12.348312],[-1.587644,12.347753],[-1.58844,12.347338],[-1.589303,12.347082],[-1.590201,12.346995],[-1.591099,12.347082],[-1.591963,12.347338],[-1.592758,12.347753],[-1.593456,12.348312],[-1.594028,12.348994],[-1.594454,12.349771],[-1.594716,12.350615],[-1.594804,12.351492],[-1.594716,12.352369],[-1.594454,12.353213],[-1.594029,12.35399],[-1.593456,12.354671],[-1.592759,12.355231],[-1.591963,12.355646],[-1.591099,12.355902],[-1.590201,12.355989]]]},"properties":{"name":"","type":"Drinking water point","osm_tag":"drinking_water","operator":"ONEA","radius_m":500,"label":"Drinking water point \u2014 500 m","note":"OpenStreetMap, within 5 miles of central Ouagadougou. Community-mapped; coverage uneven."}},{"type":"Feature","geometry":{"type":"Polygon","coordinates":[[[-1.58885,12.360508],[-1.587952,12.360422],[-1.587089,12.360166],[-1.586293,12.35975],[-1.585595,12.359191],[-1.585023,12.35851],[-1.584598,12.357732],[-1.584336,12.356889],[-1.584247,12.356011],[-1.584336,12.355134],[-1.584598,12.354291],[-1.585023,12.353513],[-1.585596,12.352832],[-1.586293,12.352273],[-1.587089,12.351857],[-1.587952,12.351601],[-1.58885,12.351515],[-1.589749,12.351601],[-1.590612,12.351857],[-1.591408,12.352273],[-1.592105,12.352832],[-1.592678,12.353513],[-1.593103,12.354291],[-1.593365,12.355134],[-1.593454,12.356011],[-1.593365,12.356889],[-1.593103,12.357732],[-1.592678,12.35851],[-1.592106,12.359191],[-1.591408,12.35975],[-1.590612,12.360166],[-1.589749,12.360422],[-1.58885,12.360508]]]},"properties":{"name":"","type":"Drinking water point","osm_tag":"drinking_water","operator":"","radius_m":500,"label":"Drinking water point \u2014 500 m","note":"OpenStreetMap, within 5 miles of central Ouagadougou. Community-mapped; coverage uneven."}},{"type":"Feature","geometry":{"type":"Polygon","coordinates":[[[-1.587081,12.364067],[-1.586183,12.363981],[-1.585319,12.363725],[-1.584524,12.363309],[-1.583826,12.36275],[-1.583254,12.362068],[-1.582828,12.361291],[-1.582566,12.360448],[-1.582478,12.35957],[-1.582566,12.358693],[-1.582828,12.357849],[-1.583254,12.357072],[-1.583826,12.356391],[-1.584524,12.355831],[-1.58532,12.355416],[-1.586183,12.35516],[-1.587081,12.355074],[-1.587979,12.35516],[-1.588843,12.355416],[-1.589639,12.355831],[-1.590336,12.356391],[-1.590909,12.357072],[-1.591334,12.357849],[-1.591596,12.358693],[-1.591684,12.35957],[-1.591596,12.360448],[-1.591334,12.361291],[-1.590909,12.362068],[-1.590336,12.36275],[-1.589639,12.363309],[-1.588843,12.363725],[-1.587979,12.363981],[-1.587081,12.364067]]]},"properties":{"name":"","type":"Well / borehole","osm_tag":"water_well","operator":"","radius_m":500,"label":"Well / borehole \u2014 500 m","note":"OpenStreetMap, within 5 miles of central Ouagadougou. Community-mapped; coverage uneven."}},{"type":"Feature","geometry":{"type":"Polygon","coordinates":[[[-1.590404,12.364941],[-1.589506,12.364855],[-1.588642,12.364599],[-1.587846,12.364183],[-1.587149,12.363624],[-1.586576,12.362942],[-1.586151,12.362165],[-1.585889,12.361322],[-1.5858,12.360444],[-1.585889,12.359567],[-1.586151,12.358723],[-1.586576,12.357946],[-1.587149,12.357265],[-1.587846,12.356705],[-1.588642,12.35629],[-1.589506,12.356034],[-1.590404,12.355948],[-1.591302,12.356034],[-1.592165,12.35629],[-1.592961,12.356705],[-1.593659,12.357265],[-1.594231,12.357946],[-1.594656,12.358723],[-1.594918,12.359567],[-1.595007,12.360444],[-1.594918,12.361322],[-1.594657,12.362165],[-1.594231,12.362942],[-1.593659,12.363624],[-1.592961,12.364183],[-1.592165,12.364599],[-1.591302,12.364855],[-1.590404,12.364941]]]},"properties":{"name":"","type":"Well / borehole","osm_tag":"water_well","operator":"","radius_m":500,"label":"Well / borehole \u2014 500 m","note":"OpenStreetMap, within 5 miles of central Ouagadougou. Community-mapped; coverage uneven."}},{"type":"Feature","geometry":{"type":"Polygon","coordinates":[[[-1.588837,12.365495],[-1.587939,12.365409],[-1.587075,12.365153],[-1.586279,12.364737],[-1.585582,12.364178],[-1.585009,12.363497],[-1.584584,12.362719],[-1.584322,12.361876],[-1.584233,12.360998],[-1.584322,12.360121],[-1.584584,12.359278],[-1.585009,12.3585],[-1.585582,12.357819],[-1.586279,12.35726],[-1.587075,12.356844],[-1.587939,12.356588],[-1.588837,12.356502],[-1.589735,12.356588],[-1.590598,12.356844],[-1.591394,12.35726],[-1.592092,12.357819],[-1.592664,12.3585],[-1.59309,12.359278],[-1.593352,12.360121],[-1.59344,12.360998],[-1.593352,12.361876],[-1.59309,12.362719],[-1.592664,12.363497],[-1.592092,12.364178],[-1.591394,12.364737],[-1.590598,12.365153],[-1.589735,12.365409],[-1.588837,12.365495]]]},"properties":{"name":"","type":"Well / borehole","osm_tag":"water_well","operator":"","radius_m":500,"label":"Well / borehole \u2014 500 m","note":"OpenStreetMap, within 5 miles of central Ouagadougou. Community-mapped; coverage uneven."}},{"type":"Feature","geometry":{"type":"Polygon","coordinates":[[[-1.549355,12.352745],[-1.548457,12.352658],[-1.547593,12.352402],[-1.546798,12.351987],[-1.5461,12.351428],[-1.545528,12.350746],[-1.545102,12.349969],[-1.54484,12.349125],[-1.544752,12.348248],[-1.54484,12.347371],[-1.545102,12.346527],[-1.545528,12.34575],[-1.5461,12.345068],[-1.546798,12.344509],[-1.547593,12.344094],[-1.548457,12.343838],[-1.549355,12.343751],[-1.550253,12.343838],[-1.551117,12.344094],[-1.551912,12.344509],[-1.55261,12.345068],[-1.553182,12.34575],[-1.553608,12.346527],[-1.55387,12.347371],[-1.553958,12.348248],[-1.55387,12.349125],[-1.553608,12.349969],[-1.553182,12.350746],[-1.55261,12.351428],[-1.551912,12.351987],[-1.551117,12.352402],[-1.550253,12.352658],[-1.549355,12.352745]]]},"properties":{"name":"","type":"Drinking water point","osm_tag":"drinking_water","operator":"ONEA","radius_m":500,"label":"Drinking water point \u2014 500 m","note":"OpenStreetMap, within 5 miles of central Ouagadougou. Community-mapped; coverage uneven."}},{"type":"Feature","geometry":{"type":"Polygon","coordinates":[[[-1.548027,12.350988],[-1.547129,12.350902],[-1.546265,12.350646],[-1.54547,12.35023],[-1.544772,12.349671],[-1.5442,12.34899],[-1.543774,12.348212],[-1.543512,12.347369],[-1.543424,12.346491],[-1.543512,12.345614],[-1.543774,12.344771],[-1.5442,12.343993],[-1.544772,12.343312],[-1.54547,12.342753],[-1.546265,12.342337],[-1.547129,12.342081],[-1.548027,12.341995],[-1.548925,12.342081],[-1.549788,12.342337],[-1.550584,12.342753],[-1.551282,12.343312],[-1.551854,12.343993],[-1.55228,12.344771],[-1.552542,12.345614],[-1.55263,12.346491],[-1.552542,12.347369],[-1.55228,12.348212],[-1.551854,12.34899],[-1.551282,12.349671],[-1.550584,12.35023],[-1.549788,12.350646],[-1.548925,12.350902],[-1.548027,12.350988]]]},"properties":{"name":"","type":"Drinking water point","osm_tag":"drinking_water","operator":"ONEA","radius_m":500,"label":"Drinking water point \u2014 500 m","note":"OpenStreetMap, within 5 miles of central Ouagadougou. Community-mapped; coverage uneven."}},{"type":"Feature","geometry":{"type":"Polygon","coordinates":[[[-1.545897,12.368372],[-1.544999,12.368286],[-1.544136,12.36803],[-1.54334,12.367614],[-1.542642,12.367055],[-1.54207,12.366373],[-1.541644,12.365596],[-1.541382,12.364753],[-1.541294,12.363875],[-1.541382,12.362998],[-1.541644,12.362154],[-1.54207,12.361377],[-1.542642,12.360696],[-1.54334,12.360136],[-1.544136,12.359721],[-1.544999,12.359465],[-1.545897,12.359379],[-1.546795,12.359465],[-1.547659,12.359721],[-1.548455,12.360136],[-1.549152,12.360696],[-1.549725,12.361377],[-1.55015,12.362154],[-1.550412,12.362998],[-1.550501,12.363875],[-1.550412,12.364753],[-1.55015,12.365596],[-1.549725,12.366373],[-1.549152,12.367055],[-1.548455,12.367614],[-1.547659,12.36803],[-1.546795,12.368286],[-1.545897,12.368372]]]},"properties":{"name":"","type":"Drinking water point","osm_tag":"drinking_water","operator":"","radius_m":500,"label":"Drinking water point \u2014 500 m","note":"OpenStreetMap, within 5 miles of central Ouagadougou. Community-mapped; coverage uneven."}},{"type":"Feature","geometry":{"type":"Polygon","coordinates":[[[-1.546072,12.369718],[-1.545174,12.369632],[-1.54431,12.369376],[-1.543514,12.36896],[-1.542817,12.368401],[-1.542244,12.367719],[-1.541819,12.366942],[-1.541557,12.366099],[-1.541469,12.365221],[-1.541557,12.364344],[-1.541819,12.3635],[-1.542244,12.362723],[-1.542817,12.362042],[-1.543514,12.361482],[-1.54431,12.361067],[-1.545174,12.360811],[-1.546072,12.360725],[-1.54697,12.360811],[-1.547834,12.361067],[-1.548629,12.361482],[-1.549327,12.362042],[-1.549899,12.362723],[-1.550325,12.3635],[-1.550587,12.364344],[-1.550675,12.365221],[-1.550587,12.366099],[-1.550325,12.366942],[-1.5499,12.367719],[-1.549327,12.368401],[-1.548629,12.36896],[-1.547834,12.369376],[-1.54697,12.369632],[-1.546072,12.369718]]]},"properties":{"name":"","type":"Drinking water point","osm_tag":"drinking_water","operator":"","radius_m":500,"label":"Drinking water point \u2014 500 m","note":"OpenStreetMap, within 5 miles of central Ouagadougou. Community-mapped; coverage uneven."}},{"type":"Feature","geometry":{"type":"Polygon","coordinates":[[[-1.549916,12.359248],[-1.549018,12.359162],[-1.548154,12.358906],[-1.547359,12.35849],[-1.546661,12.357931],[-1.546089,12.357249],[-1.545663,12.356472],[-1.545401,12.355629],[-1.545313,12.354751],[-1.545401,12.353874],[-1.545663,12.35303],[-1.546089,12.352253],[-1.546661,12.351572],[-1.547359,12.351012],[-1.548154,12.350597],[-1.549018,12.350341],[-1.549916,12.350255],[-1.550814,12.350341],[-1.551678,12.350597],[-1.552473,12.351012],[-1.553171,12.351572],[-1.553743,12.352253],[-1.554169,12.35303],[-1.554431,12.353874],[-1.554519,12.354751],[-1.554431,12.355629],[-1.554169,12.356472],[-1.553743,12.357249],[-1.553171,12.357931],[-1.552473,12.35849],[-1.551678,12.358906],[-1.550814,12.359162],[-1.549916,12.359248]]]},"properties":{"name":"ONEA","type":"Water tower","osm_tag":"water_tower","operator":"","radius_m":500,"label":"ONEA \u2014 500 m","note":"OpenStreetMap, within 5 miles of central Ouagadougou. Community-mapped; coverage uneven."}},{"type":"Feature","geometry":{"type":"Polygon","coordinates":[[[-1.556916,12.329328],[-1.556018,12.329242],[-1.555155,12.328986],[-1.554359,12.32857],[-1.553662,12.328011],[-1.553089,12.32733],[-1.552664,12.326552],[-1.552402,12.325709],[-1.552314,12.324832],[-1.552402,12.323954],[-1.552664,12.323111],[-1.553089,12.322333],[-1.553662,12.321652],[-1.554359,12.321093],[-1.555155,12.320677],[-1.556018,12.320421],[-1.556916,12.320335],[-1.557814,12.320421],[-1.558678,12.320677],[-1.559473,12.321093],[-1.560171,12.321652],[-1.560743,12.322333],[-1.561169,12.323111],[-1.561431,12.323954],[-1.561519,12.324832],[-1.561431,12.325709],[-1.561169,12.326552],[-1.560743,12.32733],[-1.560171,12.328011],[-1.559474,12.32857],[-1.558678,12.328986],[-1.557814,12.329242],[-1.556916,12.329328]]]},"properties":{"name":"","type":"Water tower","osm_tag":"water_tower","operator":"","radius_m":500,"label":"Water tower \u2014 500 m","note":"OpenStreetMap, within 5 miles of central Ouagadougou. Community-mapped; coverage uneven."}},{"type":"Feature","geometry":{"type":"Polygon","coordinates":[[[-1.502716,12.381992],[-1.501818,12.381905],[-1.500954,12.381649],[-1.500158,12.381234],[-1.499461,12.380675],[-1.498888,12.379993],[-1.498463,12.379216],[-1.498201,12.378372],[-1.498112,12.377495],[-1.498201,12.376618],[-1.498463,12.375774],[-1.498888,12.374997],[-1.499461,12.374315],[-1.500159,12.373756],[-1.500954,12.373341],[-1.501818,12.373085],[-1.502716,12.372998],[-1.503614,12.373085],[-1.504478,12.373341],[-1.505274,12.373756],[-1.505971,12.374315],[-1.506544,12.374997],[-1.506969,12.375774],[-1.507231,12.376618],[-1.50732,12.377495],[-1.507231,12.378372],[-1.506969,12.379216],[-1.506544,12.379993],[-1.505971,12.380675],[-1.505274,12.381234],[-1.504478,12.381649],[-1.503614,12.381905],[-1.502716,12.381992]]]},"properties":{"name":"","type":"Drinking water point","osm_tag":"drinking_water","operator":"","radius_m":500,"label":"Drinking water point \u2014 500 m","note":"OpenStreetMap, within 5 miles of central Ouagadougou. Community-mapped; coverage uneven."}},{"type":"Feature","geometry":{"type":"Polygon","coordinates":[[[-1.504099,12.381639],[-1.5032,12.381553],[-1.502337,12.381297],[-1.501541,12.380882],[-1.500843,12.380322],[-1.500271,12.379641],[-1.499845,12.378864],[-1.499583,12.37802],[-1.499495,12.377143],[-1.499583,12.376266],[-1.499845,12.375422],[-1.500271,12.374645],[-1.500843,12.373963],[-1.501541,12.373404],[-1.502337,12.372988],[-1.5032,12.372733],[-1.504099,12.372646],[-1.504997,12.372733],[-1.50586,12.372988],[-1.506656,12.373404],[-1.507354,12.373963],[-1.507926,12.374645],[-1.508352,12.375422],[-1.508614,12.376266],[-1.508702,12.377143],[-1.508614,12.37802],[-1.508352,12.378864],[-1.507926,12.379641],[-1.507354,12.380322],[-1.506656,12.380882],[-1.50586,12.381297],[-1.504997,12.381553],[-1.504099,12.381639]]]},"properties":{"name":"","type":"Drinking water point","osm_tag":"drinking_water","operator":"","radius_m":500,"label":"Drinking water point \u2014 500 m","note":"OpenStreetMap, within 5 miles of central Ouagadougou. Community-mapped; coverage uneven."}},{"type":"Feature","geometry":{"type":"Polygon","coordinates":[[[-1.512552,12.418676],[-1.511654,12.418589],[-1.51079,12.418334],[-1.509994,12.417918],[-1.509297,12.417359],[-1.508724,12.416677],[-1.508298,12.4159],[-1.508036,12.415056],[-1.507948,12.414179],[-1.508037,12.413302],[-1.508299,12.412458],[-1.508724,12.411681],[-1.509297,12.411],[-1.509994,12.41044],[-1.51079,12.410025],[-1.511654,12.409769],[-1.512552,12.409683],[-1.513451,12.409769],[-1.514314,12.410025],[-1.51511,12.41044],[-1.515808,12.411],[-1.516381,12.411681],[-1.516806,12.412458],[-1.517068,12.413302],[-1.517157,12.414179],[-1.517068,12.415056],[-1.516806,12.4159],[-1.516381,12.416677],[-1.515808,12.417359],[-1.51511,12.417918],[-1.514314,12.418334],[-1.513451,12.418589],[-1.512552,12.418676]]]},"properties":{"name":"ONEA","type":"Drinking water point","osm_tag":"drinking_water","operator":"","radius_m":500,"label":"ONEA \u2014 500 m","note":"OpenStreetMap, within 5 miles of central Ouagadougou. Community-mapped; coverage uneven."}},{"type":"Feature","geometry":{"type":"Polygon","coordinates":[[[-1.470298,12.330603],[-1.4694,12.330517],[-1.468537,12.330261],[-1.467741,12.329845],[-1.467044,12.329286],[-1.466471,12.328605],[-1.466046,12.327827],[-1.465784,12.326984],[-1.465696,12.326107],[-1.465784,12.325229],[-1.466046,12.324386],[-1.466471,12.323608],[-1.467044,12.322927],[-1.467741,12.322368],[-1.468537,12.321952],[-1.4694,12.321696],[-1.470298,12.32161],[-1.471196,12.321696],[-1.47206,12.321952],[-1.472855,12.322368],[-1.473553,12.322927],[-1.474125,12.323608],[-1.474551,12.324386],[-1.474813,12.325229],[-1.474901,12.326107],[-1.474813,12.326984],[-1.474551,12.327827],[-1.474125,12.328605],[-1.473553,12.329286],[-1.472855,12.329845],[-1.47206,12.330261],[-1.471196,12.330517],[-1.470298,12.330603]]]},"properties":{"name":"","type":"Drinking water point","osm_tag":"drinking_water","operator":"","radius_m":500,"label":"Drinking water point \u2014 500 m","note":"OpenStreetMap, within 5 miles of central Ouagadougou. Community-mapped; coverage uneven."}},{"type":"Feature","geometry":{"type":"Polygon","coordinates":[[[-1.556607,12.329051],[-1.555709,12.328965],[-1.554846,12.328709],[-1.55405,12.328293],[-1.553353,12.327734],[-1.55278,12.327053],[-1.552355,12.326275],[-1.552093,12.325432],[-1.552005,12.324554],[-1.552093,12.323677],[-1.552355,12.322834],[-1.55278,12.322056],[-1.553353,12.321375],[-1.55405,12.320816],[-1.554846,12.3204],[-1.555709,12.320144],[-1.556607,12.320058],[-1.557505,12.320144],[-1.558369,12.3204],[-1.559164,12.320816],[-1.559862,12.321375],[-1.560434,12.322056],[-1.56086,12.322834],[-1.561122,12.323677],[-1.56121,12.324554],[-1.561122,12.325432],[-1.56086,12.326275],[-1.560434,12.327053],[-1.559862,12.327734],[-1.559165,12.328293],[-1.558369,12.328709],[-1.557505,12.328965],[-1.556607,12.329051]]]},"properties":{"name":"","type":"Water tower","osm_tag":"water_tower","operator":"","radius_m":500,"label":"Water tower \u2014 500 m","note":"OpenStreetMap, within 5 miles of central Ouagadougou. Community-mapped; coverage uneven."}},{"type":"Feature","geometry":{"type":"Polygon","coordinates":[[[-1.556985,12.329299],[-1.556087,12.329213],[-1.555224,12.328957],[-1.554428,12.328541],[-1.553731,12.327982],[-1.553158,12.327301],[-1.552733,12.326523],[-1.552471,12.32568],[-1.552383,12.324803],[-1.552471,12.323925],[-1.552733,12.323082],[-1.553158,12.322304],[-1.553731,12.321623],[-1.554428,12.321064],[-1.555224,12.320648],[-1.556087,12.320392],[-1.556985,12.320306],[-1.557883,12.320392],[-1.558747,12.320648],[-1.559542,12.321064],[-1.56024,12.321623],[-1.560812,12.322304],[-1.561237,12.323082],[-1.561499,12.323925],[-1.561588,12.324803],[-1.561499,12.32568],[-1.561238,12.326523],[-1.560812,12.327301],[-1.56024,12.327982],[-1.559542,12.328541],[-1.558747,12.328957],[-1.557883,12.329213],[-1.556985,12.329299]]]},"properties":{"name":"","type":"Water tower","osm_tag":"water_tower","operator":"","radius_m":500,"label":"Water tower \u2014 500 m","note":"OpenStreetMap, within 5 miles of central Ouagadougou. Community-mapped; coverage uneven."}},{"type":"Feature","geometry":{"type":"Polygon","coordinates":[[[-1.556579,12.329045],[-1.555681,12.328958],[-1.554817,12.328702],[-1.554021,12.328287],[-1.553324,12.327728],[-1.552752,12.327046],[-1.552326,12.326269],[-1.552064,12.325425],[-1.551976,12.324548],[-1.552064,12.323671],[-1.552326,12.322827],[-1.552752,12.32205],[-1.553324,12.321368],[-1.554022,12.320809],[-1.554817,12.320394],[-1.555681,12.320138],[-1.556579,12.320051],[-1.557477,12.320138],[-1.55834,12.320394],[-1.559136,12.320809],[-1.559833,12.321368],[-1.560406,12.32205],[-1.560831,12.322827],[-1.561093,12.323671],[-1.561181,12.324548],[-1.561093,12.325425],[-1.560831,12.326269],[-1.560406,12.327046],[-1.559833,12.327728],[-1.559136,12.328287],[-1.55834,12.328702],[-1.557477,12.328958],[-1.556579,12.329045]]]},"properties":{"name":"","type":"Water tower","osm_tag":"water_tower","operator":"","radius_m":500,"label":"Water tower \u2014 500 m","note":"OpenStreetMap, within 5 miles of central Ouagadougou. Community-mapped; coverage uneven."}},{"type":"Feature","geometry":{"type":"Polygon","coordinates":[[[-1.556677,12.329108],[-1.555779,12.329021],[-1.554916,12.328765],[-1.55412,12.32835],[-1.553423,12.327791],[-1.55285,12.327109],[-1.552425,12.326332],[-1.552163,12.325488],[-1.552075,12.324611],[-1.552163,12.323734],[-1.552425,12.32289],[-1.55285,12.322113],[-1.553423,12.321431],[-1.55412,12.320872],[-1.554916,12.320457],[-1.555779,12.320201],[-1.556677,12.320114],[-1.557575,12.320201],[-1.558439,12.320457],[-1.559234,12.320872],[-1.559932,12.321431],[-1.560504,12.322113],[-1.560929,12.32289],[-1.561191,12.323734],[-1.56128,12.324611],[-1.561191,12.325488],[-1.56093,12.326332],[-1.560504,12.327109],[-1.559932,12.327791],[-1.559234,12.32835],[-1.558439,12.328765],[-1.557575,12.329021],[-1.556677,12.329108]]]},"properties":{"name":"","type":"Water tower","osm_tag":"water_tower","operator":"","radius_m":500,"label":"Water tower \u2014 500 m","note":"OpenStreetMap, within 5 miles of central Ouagadougou. Community-mapped; coverage uneven."}},{"type":"Feature","geometry":{"type":"Polygon","coordinates":[[[-1.556854,12.32921],[-1.555956,12.329123],[-1.555092,12.328867],[-1.554297,12.328452],[-1.553599,12.327892],[-1.553027,12.327211],[-1.552601,12.326434],[-1.55234,12.32559],[-1.552251,12.324713],[-1.55234,12.323836],[-1.552602,12.322992],[-1.553027,12.322215],[-1.553599,12.321533],[-1.554297,12.320974],[-1.555092,12.320559],[-1.555956,12.320303],[-1.556854,12.320216],[-1.557752,12.320303],[-1.558615,12.320559],[-1.559411,12.320974],[-1.560108,12.321533],[-1.560681,12.322215],[-1.561106,12.322992],[-1.561368,12.323836],[-1.561456,12.324713],[-1.561368,12.32559],[-1.561106,12.326434],[-1.560681,12.327211],[-1.560108,12.327892],[-1.559411,12.328452],[-1.558615,12.328867],[-1.557752,12.329123],[-1.556854,12.32921]]]},"properties":{"name":"","type":"Water tower","osm_tag":"water_tower","operator":"","radius_m":500,"label":"Water tower \u2014 500 m","note":"OpenStreetMap, within 5 miles of central Ouagadougou. Community-mapped; coverage uneven."}},{"type":"Feature","geometry":{"type":"Polygon","coordinates":[[[-1.485196,12.323208],[-1.484298,12.323121],[-1.483435,12.322865],[-1.482639,12.32245],[-1.481941,12.32189],[-1.481369,12.321209],[-1.480944,12.320432],[-1.480682,12.319588],[-1.480593,12.318711],[-1.480682,12.317834],[-1.480944,12.31699],[-1.481369,12.316213],[-1.481942,12.315531],[-1.482639,12.314972],[-1.483435,12.314557],[-1.484298,12.314301],[-1.485196,12.314214],[-1.486094,12.314301],[-1.486957,12.314557],[-1.487753,12.314972],[-1.48845,12.315531],[-1.489023,12.316213],[-1.489448,12.31699],[-1.48971,12.317834],[-1.489799,12.318711],[-1.48971,12.319588],[-1.489448,12.320432],[-1.489023,12.321209],[-1.488451,12.32189],[-1.487753,12.32245],[-1.486957,12.322865],[-1.486094,12.323121],[-1.485196,12.323208]]]},"properties":{"name":"Guiro","type":"Spring","osm_tag":"spring","operator":"","radius_m":500,"label":"Guiro \u2014 500 m","note":"OpenStreetMap, within 5 miles of central Ouagadougou. Community-mapped; coverage uneven."}},{"type":"Feature","geometry":{"type":"Polygon","coordinates":[[[-1.527231,12.319857],[-1.526333,12.31977],[-1.52547,12.319514],[-1.524674,12.319099],[-1.523977,12.31854],[-1.523404,12.317858],[-1.522979,12.317081],[-1.522717,12.316237],[-1.522629,12.31536],[-1.522717,12.314483],[-1.522979,12.313639],[-1.523404,12.312862],[-1.523977,12.31218],[-1.524674,12.311621],[-1.52547,12.311206],[-1.526333,12.31095],[-1.527231,12.310863],[-1.528129,12.31095],[-1.528993,12.311206],[-1.529788,12.311621],[-1.530486,12.31218],[-1.531058,12.312862],[-1.531483,12.313639],[-1.531745,12.314483],[-1.531834,12.31536],[-1.531745,12.316237],[-1.531484,12.317081],[-1.531058,12.317858],[-1.530486,12.31854],[-1.529788,12.319099],[-1.528993,12.319514],[-1.528129,12.31977],[-1.527231,12.319857]]]},"properties":{"name":"Kometgold","type":"Spring","osm_tag":"spring","operator":"","radius_m":500,"label":"Kometgold \u2014 500 m","note":"OpenStreetMap, within 5 miles of central Ouagadougou. Community-mapped; coverage uneven."}},{"type":"Feature","geometry":{"type":"Polygon","coordinates":[[[-1.536451,12.42659],[-1.535553,12.426503],[-1.534689,12.426247],[-1.533893,12.425832],[-1.533195,12.425272],[-1.532623,12.424591],[-1.532197,12.423814],[-1.531935,12.42297],[-1.531847,12.422093],[-1.531935,12.421216],[-1.532197,12.420372],[-1.532623,12.419595],[-1.533195,12.418913],[-1.533893,12.418354],[-1.534689,12.417939],[-1.535553,12.417683],[-1.536451,12.417596],[-1.537349,12.417683],[-1.538213,12.417939],[-1.539009,12.418354],[-1.539707,12.418913],[-1.540279,12.419595],[-1.540705,12.420372],[-1.540967,12.421216],[-1.541055,12.422093],[-1.540967,12.42297],[-1.540705,12.423814],[-1.54028,12.424591],[-1.539707,12.425272],[-1.539009,12.425832],[-1.538213,12.426247],[-1.537349,12.426503],[-1.536451,12.42659]]]},"properties":{"name":"","type":"Drinking water point","osm_tag":"drinking_water","operator":"","radius_m":500,"label":"Drinking water point \u2014 500 m","note":"OpenStreetMap, within 5 miles of central Ouagadougou. Community-mapped; coverage uneven."}},{"type":"Feature","geometry":{"type":"Polygon","coordinates":[[[-1.548042,12.317321],[-1.547144,12.317235],[-1.54628,12.316979],[-1.545484,12.316564],[-1.544787,12.316004],[-1.544215,12.315323],[-1.543789,12.314546],[-1.543527,12.313702],[-1.543439,12.312825],[-1.543527,12.311948],[-1.543789,12.311104],[-1.544215,12.310327],[-1.544787,12.309645],[-1.545485,12.309086],[-1.54628,12.30867],[-1.547144,12.308415],[-1.548042,12.308328],[-1.548939,12.308415],[-1.549803,12.30867],[-1.550598,12.309086],[-1.551296,12.309645],[-1.551868,12.310327],[-1.552294,12.311104],[-1.552556,12.311948],[-1.552644,12.312825],[-1.552556,12.313702],[-1.552294,12.314546],[-1.551868,12.315323],[-1.551296,12.316004],[-1.550599,12.316564],[-1.549803,12.316979],[-1.548939,12.317235],[-1.548042,12.317321]]]},"properties":{"name":"Tradit pra fatim","type":"Spring","osm_tag":"spring","operator":"","radius_m":500,"label":"Tradit pra fatim \u2014 500 m","note":"OpenStreetMap, within 5 miles of central Ouagadougou. Community-mapped; coverage uneven."}},{"type":"Feature","geometry":{"type":"Polygon","coordinates":[[[-1.570906,12.330753],[-1.570008,12.330666],[-1.569144,12.33041],[-1.568348,12.329995],[-1.567651,12.329436],[-1.567078,12.328754],[-1.566653,12.327977],[-1.566391,12.327133],[-1.566303,12.326256],[-1.566391,12.325379],[-1.566653,12.324535],[-1.567079,12.323758],[-1.567651,12.323076],[-1.568348,12.322517],[-1.569144,12.322102],[-1.570008,12.321846],[-1.570906,12.321759],[-1.571803,12.321846],[-1.572667,12.322102],[-1.573463,12.322517],[-1.57416,12.323076],[-1.574732,12.323758],[-1.575158,12.324535],[-1.57542,12.325379],[-1.575508,12.326256],[-1.57542,12.327133],[-1.575158,12.327977],[-1.574733,12.328754],[-1.57416,12.329436],[-1.573463,12.329995],[-1.572667,12.33041],[-1.571803,12.330666],[-1.570906,12.330753]]]},"properties":{"name":"Famille Zalle","type":"Spring","osm_tag":"spring","operator":"","radius_m":500,"label":"Famille Zalle \u2014 500 m","note":"OpenStreetMap, within 5 miles of central Ouagadougou. Community-mapped; coverage uneven."}},{"type":"Feature","geometry":{"type":"Polygon","coordinates":[[[-1.517709,12.318611],[-1.516811,12.318524],[-1.515948,12.318269],[-1.515152,12.317853],[-1.514454,12.317294],[-1.513882,12.316612],[-1.513457,12.315835],[-1.513195,12.314991],[-1.513106,12.314114],[-1.513195,12.313237],[-1.513457,12.312393],[-1.513882,12.311616],[-1.514454,12.310935],[-1.515152,12.310375],[-1.515948,12.30996],[-1.516811,12.309704],[-1.517709,12.309618],[-1.518607,12.309704],[-1.51947,12.30996],[-1.520266,12.310375],[-1.520963,12.310935],[-1.521536,12.311616],[-1.521961,12.312393],[-1.522223,12.313237],[-1.522311,12.314114],[-1.522223,12.314991],[-1.521961,12.315835],[-1.521536,12.316612],[-1.520963,12.317294],[-1.520266,12.317853],[-1.51947,12.318269],[-1.518607,12.318524],[-1.517709,12.318611]]]},"properties":{"name":"","type":"Water tower","osm_tag":"water_tower","operator":"","radius_m":500,"label":"Water tower \u2014 500 m","note":"OpenStreetMap, within 5 miles of central Ouagadougou. Community-mapped; coverage uneven."}},{"type":"Feature","geometry":{"type":"Polygon","coordinates":[[[-1.587646,12.397671],[-1.586748,12.397585],[-1.585884,12.397329],[-1.585088,12.396913],[-1.584391,12.396354],[-1.583818,12.395673],[-1.583393,12.394895],[-1.583131,12.394052],[-1.583042,12.393174],[-1.583131,12.392297],[-1.583393,12.391454],[-1.583818,12.390676],[-1.584391,12.389995],[-1.585088,12.389436],[-1.585884,12.38902],[-1.586748,12.388764],[-1.587646,12.388678],[-1.588544,12.388764],[-1.589408,12.38902],[-1.590204,12.389436],[-1.590902,12.389995],[-1.591474,12.390676],[-1.5919,12.391454],[-1.592162,12.392297],[-1.59225,12.393174],[-1.592162,12.394052],[-1.5919,12.394895],[-1.591474,12.395673],[-1.590902,12.396354],[-1.590204,12.396913],[-1.589408,12.397329],[-1.588544,12.397585],[-1.587646,12.397671]]]},"properties":{"name":"Jacob","type":"Spring","osm_tag":"spring","operator":"","radius_m":500,"label":"Jacob \u2014 500 m","note":"OpenStreetMap, within 5 miles of central Ouagadougou. Community-mapped; coverage uneven."}},{"type":"Feature","geometry":{"type":"Polygon","coordinates":[[[-1.498983,12.413059],[-1.498084,12.412973],[-1.497221,12.412717],[-1.496425,12.412302],[-1.495727,12.411742],[-1.495154,12.411061],[-1.494729,12.410284],[-1.494467,12.40944],[-1.494379,12.408563],[-1.494467,12.407686],[-1.494729,12.406842],[-1.495155,12.406065],[-1.495727,12.405383],[-1.496425,12.404824],[-1.497221,12.404408],[-1.498084,12.404153],[-1.498983,12.404066],[-1.499881,12.404153],[-1.500745,12.404408],[-1.501541,12.404824],[-1.502238,12.405383],[-1.502811,12.406065],[-1.503236,12.406842],[-1.503498,12.407686],[-1.503587,12.408563],[-1.503498,12.40944],[-1.503236,12.410284],[-1.502811,12.411061],[-1.502238,12.411742],[-1.501541,12.412302],[-1.500745,12.412717],[-1.499881,12.412973],[-1.498983,12.413059]]]},"properties":{"name":"","type":"Spring","osm_tag":"spring","operator":"","radius_m":500,"label":"Spring \u2014 500 m","note":"OpenStreetMap, within 5 miles of central Ouagadougou. Community-mapped; coverage uneven."}}]}