{
 "type": "FeatureCollection",
 "name": "gbf_oasis_catchment_5km",
 "features": [
  {
   "type": "Feature",
   "geometry": {
    "type": "Polygon",
    "coordinates": [
     [
      [
       -1.74012,
       12.279256
      ],
      [
       -1.734113,
       12.278871
      ],
      [
       -1.72821,
       12.277724
      ],
      [
       -1.72251,
       12.275833
      ],
      [
       -1.717111,
       12.273231
      ],
      [
       -1.712106,
       12.269963
      ],
      [
       -1.707581,
       12.266084
      ],
      [
       -1.703613,
       12.261661
      ],
      [
       -1.70027,
       12.25677
      ],
      [
       -1.697609,
       12.251495
      ],
      [
       -1.695675,
       12.245925
      ],
      [
       -1.694502,
       12.240155
      ],
      [
       -1.694109,
       12.234286
      ],
      [
       -1.694504,
       12.228417
      ],
      [
       -1.695679,
       12.222648
      ],
      [
       -1.697614,
       12.217079
      ],
      [
       -1.700277,
       12.211804
      ],
      [
       -1.703621,
       12.206914
      ],
      [
       -1.707589,
       12.202492
      ],
      [
       -1.712114,
       12.198615
      ],
      [
       -1.717118,
       12.195347
      ],
      [
       -1.722515,
       12.192746
      ],
      [
       -1.728213,
       12.190856
      ],
      [
       -1.734115,
       12.189709
      ],
      [
       -1.74012,
       12.189324
      ],
      [
       -1.746125,
       12.189709
      ],
      [
       -1.752027,
       12.190856
      ],
      [
       -1.757725,
       12.192746
      ],
      [
       -1.763122,
       12.195347
      ],
      [
       -1.768126,
       12.198615
      ],
      [
       -1.772651,
       12.202492
      ],
      [
       -1.776619,
       12.206914
      ],
      [
       -1.779963,
       12.211804
      ],
      [
       -1.782626,
       12.217079
      ],
      [
       -1.784561,
       12.222648
      ],
      [
       -1.785736,
       12.228417
      ],
      [
       -1.786131,
       12.234286
      ],
      [
       -1.785738,
       12.240155
      ],
      [
       -1.784565,
       12.245925
      ],
      [
       -1.782631,
       12.251495
      ],
      [
       -1.77997,
       12.25677
      ],
      [
       -1.776627,
       12.261661
      ],
      [
       -1.772659,
       12.266084
      ],
      [
       -1.768134,
       12.269963
      ],
      [
       -1.763129,
       12.273231
      ],
      [
       -1.75773,
       12.275833
      ],
      [
       -1.75203,
       12.277724
      ],
      [
       -1.746127,
       12.278871
      ],
      [
       -1.74012,
       12.279256
      ]
     ]
    ]
   },
   "properties": {
    "name": "Goghin 1",
    "label": "Goghin 1 \u2014 5 km catchment",
    "commune": "Tanghin-Dassouri",
    "region": "Kadiogo",
    "type": "Community-based Oasis",
    "source": "Association Georgie Badiel, August 2026",
    "coordinate_confidence": "Confirmed \u2014 supplied by GBF",
    "catchment_km": 5,
    "note": "Straight-line distance. Actual walking distance is longer."
   }
  },
  {
   "type": "Feature",
   "geometry": {
    "type": "Polygon",
    "coordinates": [
     [
      [
       -1.70794,
       12.345436
      ],
      [
       -1.701932,
       12.345051
      ],
      [
       -1.696027,
       12.343904
      ],
      [
       -1.690325,
       12.342013
      ],
      [
       -1.684925,
       12.339411
      ],
      [
       -1.679919,
       12.336143
      ],
      [
       -1.675393,
       12.332264
      ],
      [
       -1.671424,
       12.327841
      ],
      [
       -1.66808,
       12.32295
      ],
      [
       -1.665418,
       12.317674
      ],
      [
       -1.663484,
       12.312104
      ],
      [
       -1.66231,
       12.306335
      ],
      [
       -1.661917,
       12.300466
      ],
      [
       -1.662312,
       12.294597
      ],
      [
       -1.663488,
       12.288828
      ],
      [
       -1.665423,
       12.283259
      ],
      [
       -1.668087,
       12.277984
      ],
      [
       -1.671432,
       12.273094
      ],
      [
       -1.675401,
       12.268672
      ],
      [
       -1.679927,
       12.264795
      ],
      [
       -1.684932,
       12.261527
      ],
      [
       -1.690331,
       12.258926
      ],
      [
       -1.69603,
       12.257036
      ],
      [
       -1.701934,
       12.255889
      ],
      [
       -1.70794,
       12.255504
      ],
      [
       -1.713946,
       12.255889
      ],
      [
       -1.71985,
       12.257036
      ],
      [
       -1.725549,
       12.258926
      ],
      [
       -1.730948,
       12.261527
      ],
      [
       -1.735953,
       12.264795
      ],
      [
       -1.740479,
       12.268672
      ],
      [
       -1.744448,
       12.273094
      ],
      [
       -1.747793,
       12.277984
      ],
      [
       -1.750457,
       12.283259
      ],
      [
       -1.752392,
       12.288828
      ],
      [
       -1.753568,
       12.294597
      ],
      [
       -1.753963,
       12.300466
      ],
      [
       -1.75357,
       12.306335
      ],
      [
       -1.752396,
       12.312104
      ],
      [
       -1.750462,
       12.317674
      ],
      [
       -1.7478,
       12.32295
      ],
      [
       -1.744456,
       12.327841
      ],
      [
       -1.740487,
       12.332264
      ],
      [
       -1.735961,
       12.336143
      ],
      [
       -1.730955,
       12.339411
      ],
      [
       -1.725555,
       12.342013
      ],
      [
       -1.719853,
       12.343904
      ],
      [
       -1.713948,
       12.345051
      ],
      [
       -1.70794,
       12.345436
      ]
     ]
    ]
   },
   "properties": {
    "name": "Songpels\u00e9",
    "label": "Songpels\u00e9 \u2014 5 km catchment",
    "commune": "Tanghin-Dassouri",
    "region": "Kadiogo",
    "type": "Community-based Oasis",
    "source": "Association Georgie Badiel, August 2026",
    "coordinate_confidence": "Confirmed \u2014 supplied by GBF",
    "catchment_km": 5,
    "note": "Straight-line distance. Actual walking distance is longer."
   }
  },
  {
   "type": "Feature",
   "geometry": {
    "type": "Polygon",
    "coordinates": [
     [
      [
       -1.69396,
       12.238266
      ],
      [
       -1.687954,
       12.237881
      ],
      [
       -1.682051,
       12.236734
      ],
      [
       -1.676352,
       12.234843
      ],
      [
       -1.670955,
       12.232241
      ],
      [
       -1.665951,
       12.228973
      ],
      [
       -1.661426,
       12.225094
      ],
      [
       -1.657459,
       12.220671
      ],
      [
       -1.654116,
       12.21578
      ],
      [
       -1.651455,
       12.210505
      ],
      [
       -1.649522,
       12.204935
      ],
      [
       -1.648349,
       12.199166
      ],
      [
       -1.647956,
       12.193296
      ],
      [
       -1.648351,
       12.187427
      ],
      [
       -1.649526,
       12.181658
      ],
      [
       -1.651461,
       12.176089
      ],
      [
       -1.654123,
       12.170814
      ],
      [
       -1.657466,
       12.165924
      ],
      [
       -1.661434,
       12.161502
      ],
      [
       -1.665958,
       12.157625
      ],
      [
       -1.670961,
       12.154357
      ],
      [
       -1.676358,
       12.151756
      ],
      [
       -1.682055,
       12.149866
      ],
      [
       -1.687956,
       12.148719
      ],
      [
       -1.69396,
       12.148334
      ],
      [
       -1.699964,
       12.148719
      ],
      [
       -1.705865,
       12.149866
      ],
      [
       -1.711562,
       12.151756
      ],
      [
       -1.716959,
       12.154357
      ],
      [
       -1.721962,
       12.157625
      ],
      [
       -1.726486,
       12.161502
      ],
      [
       -1.730454,
       12.165924
      ],
      [
       -1.733797,
       12.170814
      ],
      [
       -1.736459,
       12.176089
      ],
      [
       -1.738394,
       12.181658
      ],
      [
       -1.739569,
       12.187427
      ],
      [
       -1.739964,
       12.193296
      ],
      [
       -1.739571,
       12.199166
      ],
      [
       -1.738398,
       12.204935
      ],
      [
       -1.736465,
       12.210505
      ],
      [
       -1.733804,
       12.21578
      ],
      [
       -1.730461,
       12.220671
      ],
      [
       -1.726494,
       12.225094
      ],
      [
       -1.721969,
       12.228973
      ],
      [
       -1.716965,
       12.232241
      ],
      [
       -1.711568,
       12.234843
      ],
      [
       -1.705869,
       12.236734
      ],
      [
       -1.699966,
       12.237881
      ],
      [
       -1.69396,
       12.238266
      ]
     ]
    ]
   },
   "properties": {
    "name": "Po\u00e9dgo",
    "label": "Po\u00e9dgo \u2014 5 km catchment",
    "commune": "Tanghin-Dassouri",
    "region": "Kadiogo",
    "type": "Community-based Oasis",
    "source": "Association Georgie Badiel, August 2026",
    "coordinate_confidence": "Confirmed \u2014 supplied by GBF",
    "catchment_km": 5,
    "note": "Straight-line distance. Actual walking distance is longer."
   }
  },
  {
   "type": "Feature",
   "geometry": {
    "type": "Polygon",
    "coordinates": [
     [
      [
       -1.757835,
       12.406221
      ],
      [
       -1.751825,
       12.405836
      ],
      [
       -1.745919,
       12.404689
      ],
      [
       -1.740216,
       12.402798
      ],
      [
       -1.734815,
       12.400196
      ],
      [
       -1.729808,
       12.396928
      ],
      [
       -1.725281,
       12.393049
      ],
      [
       -1.721311,
       12.388626
      ],
      [
       -1.717966,
       12.383735
      ],
      [
       -1.715303,
       12.378459
      ],
      [
       -1.713368,
       12.372889
      ],
      [
       -1.712195,
       12.36712
      ],
      [
       -1.711802,
       12.361251
      ],
      [
       -1.712197,
       12.355382
      ],
      [
       -1.713372,
       12.349613
      ],
      [
       -1.715309,
       12.344044
      ],
      [
       -1.717972,
       12.338769
      ],
      [
       -1.721318,
       12.333879
      ],
      [
       -1.725289,
       12.329457
      ],
      [
       -1.729816,
       12.32558
      ],
      [
       -1.734822,
       12.322312
      ],
      [
       -1.740222,
       12.319711
      ],
      [
       -1.745923,
       12.317821
      ],
      [
       -1.751827,
       12.316674
      ],
      [
       -1.757835,
       12.316289
      ],
      [
       -1.763843,
       12.316674
      ],
      [
       -1.769747,
       12.317821
      ],
      [
       -1.775448,
       12.319711
      ],
      [
       -1.780848,
       12.322312
      ],
      [
       -1.785854,
       12.32558
      ],
      [
       -1.790381,
       12.329457
      ],
      [
       -1.794352,
       12.333879
      ],
      [
       -1.797698,
       12.338769
      ],
      [
       -1.800361,
       12.344044
      ],
      [
       -1.802298,
       12.349613
      ],
      [
       -1.803473,
       12.355382
      ],
      [
       -1.803868,
       12.361251
      ],
      [
       -1.803475,
       12.36712
      ],
      [
       -1.802302,
       12.372889
      ],
      [
       -1.800367,
       12.378459
      ],
      [
       -1.797704,
       12.383735
      ],
      [
       -1.794359,
       12.388626
      ],
      [
       -1.790389,
       12.393049
      ],
      [
       -1.785862,
       12.396928
      ],
      [
       -1.780855,
       12.400196
      ],
      [
       -1.775454,
       12.402798
      ],
      [
       -1.769751,
       12.404689
      ],
      [
       -1.763845,
       12.405836
      ],
      [
       -1.757835,
       12.406221
      ]
     ]
    ]
   },
   "properties": {
    "name": "Ciss\u00e9",
    "label": "Ciss\u00e9 \u2014 5 km catchment",
    "commune": "Tanghin-Dassouri",
    "region": "Kadiogo",
    "type": "Community-based Oasis",
    "source": "Association Georgie Badiel, August 2026",
    "coordinate_confidence": "Confirmed \u2014 supplied by GBF",
    "catchment_km": 5,
    "note": "Straight-line distance. Actual walking distance is longer."
   }
  },
  {
   "type": "Feature",
   "geometry": {
    "type": "Polygon",
    "coordinates": [
     [
      [
       -1.8128,
       12.218216
      ],
      [
       -1.806795,
       12.217831
      ],
      [
       -1.800892,
       12.216684
      ],
      [
       -1.795194,
       12.214793
      ],
      [
       -1.789796,
       12.212191
      ],
      [
       -1.784793,
       12.208923
      ],
      [
       -1.780269,
       12.205044
      ],
      [
       -1.776302,
       12.200621
      ],
      [
       -1.772959,
       12.19573
      ],
      [
       -1.770298,
       12.190455
      ],
      [
       -1.768365,
       12.184885
      ],
      [
       -1.767192,
       12.179116
      ],
      [
       -1.7668,
       12.173246
      ],
      [
       -1.767194,
       12.167377
      ],
      [
       -1.768369,
       12.161608
      ],
      [
       -1.770304,
       12.156039
      ],
      [
       -1.772966,
       12.150764
      ],
      [
       -1.776309,
       12.145874
      ],
      [
       -1.780277,
       12.141452
      ],
      [
       -1.7848,
       12.137575
      ],
      [
       -1.789803,
       12.134307
      ],
      [
       -1.795199,
       12.131706
      ],
      [
       -1.800896,
       12.129816
      ],
      [
       -1.806797,
       12.128669
      ],
      [
       -1.8128,
       12.128284
      ],
      [
       -1.818803,
       12.128669
      ],
      [
       -1.824704,
       12.129816
      ],
      [
       -1.830401,
       12.131706
      ],
      [
       -1.835797,
       12.134307
      ],
      [
       -1.8408,
       12.137575
      ],
      [
       -1.845323,
       12.141452
      ],
      [
       -1.849291,
       12.145874
      ],
      [
       -1.852634,
       12.150764
      ],
      [
       -1.855296,
       12.156039
      ],
      [
       -1.857231,
       12.161608
      ],
      [
       -1.858406,
       12.167377
      ],
      [
       -1.8588,
       12.173246
      ],
      [
       -1.858408,
       12.179116
      ],
      [
       -1.857235,
       12.184885
      ],
      [
       -1.855302,
       12.190455
      ],
      [
       -1.852641,
       12.19573
      ],
      [
       -1.849298,
       12.200621
      ],
      [
       -1.845331,
       12.205044
      ],
      [
       -1.840807,
       12.208923
      ],
      [
       -1.835804,
       12.212191
      ],
      [
       -1.830406,
       12.214793
      ],
      [
       -1.824708,
       12.216684
      ],
      [
       -1.818805,
       12.217831
      ],
      [
       -1.8128,
       12.218216
      ]
     ]
    ]
   },
   "properties": {
    "name": "Komki",
    "label": "Komki \u2014 5 km catchment",
    "commune": "Komki-Ipala",
    "region": "Kadiogo",
    "type": "Community-based Oasis",
    "source": "Association Georgie Badiel, August 2026",
    "coordinate_confidence": "Confirmed \u2014 supplied by GBF",
    "catchment_km": 5,
    "note": "Straight-line distance. Actual walking distance is longer."
   }
  },
  {
   "type": "Feature",
   "geometry": {
    "type": "Polygon",
    "coordinates": [
     [
      [
       -1.78322,
       12.163766
      ],
      [
       -1.777216,
       12.163381
      ],
      [
       -1.771315,
       12.162234
      ],
      [
       -1.765617,
       12.160343
      ],
      [
       -1.760221,
       12.157741
      ],
      [
       -1.755219,
       12.154473
      ],
      [
       -1.750696,
       12.150594
      ],
      [
       -1.746729,
       12.146171
      ],
      [
       -1.743387,
       12.14128
      ],
      [
       -1.740727,
       12.136005
      ],
      [
       -1.738794,
       12.130435
      ],
      [
       -1.737621,
       12.124666
      ],
      [
       -1.737229,
       12.118796
      ],
      [
       -1.737623,
       12.112927
      ],
      [
       -1.738798,
       12.107158
      ],
      [
       -1.740733,
       12.101589
      ],
      [
       -1.743394,
       12.096314
      ],
      [
       -1.746737,
       12.091424
      ],
      [
       -1.750703,
       12.087002
      ],
      [
       -1.755226,
       12.083125
      ],
      [
       -1.760228,
       12.079857
      ],
      [
       -1.765623,
       12.077256
      ],
      [
       -1.771319,
       12.075366
      ],
      [
       -1.777218,
       12.074219
      ],
      [
       -1.78322,
       12.073834
      ],
      [
       -1.789222,
       12.074219
      ],
      [
       -1.795121,
       12.075366
      ],
      [
       -1.800817,
       12.077256
      ],
      [
       -1.806212,
       12.079857
      ],
      [
       -1.811214,
       12.083125
      ],
      [
       -1.815737,
       12.087002
      ],
      [
       -1.819703,
       12.091424
      ],
      [
       -1.823046,
       12.096314
      ],
      [
       -1.825707,
       12.101589
      ],
      [
       -1.827642,
       12.107158
      ],
      [
       -1.828817,
       12.112927
      ],
      [
       -1.829211,
       12.118796
      ],
      [
       -1.828819,
       12.124666
      ],
      [
       -1.827646,
       12.130435
      ],
      [
       -1.825713,
       12.136005
      ],
      [
       -1.823053,
       12.14128
      ],
      [
       -1.819711,
       12.146171
      ],
      [
       -1.815744,
       12.150594
      ],
      [
       -1.811221,
       12.154473
      ],
      [
       -1.806219,
       12.157741
      ],
      [
       -1.800823,
       12.160343
      ],
      [
       -1.795125,
       12.162234
      ],
      [
       -1.789224,
       12.163381
      ],
      [
       -1.78322,
       12.163766
      ]
     ]
    ]
   },
   "properties": {
    "name": "Nabelin",
    "label": "Nabelin \u2014 5 km catchment",
    "commune": "Komki-Ipala",
    "region": "Kadiogo",
    "type": "Community-based Oasis",
    "source": "Association Georgie Badiel, August 2026",
    "coordinate_confidence": "Confirmed \u2014 supplied by GBF",
    "catchment_km": 5,
    "note": "Straight-line distance. Actual walking distance is longer."
   }
  },
  {
   "type": "Feature",
   "geometry": {
    "type": "Polygon",
    "coordinates": [
     [
      [
       -1.713832,
       12.263256
      ],
      [
       -1.707826,
       12.262871
      ],
      [
       -1.701922,
       12.261724
      ],
      [
       -1.696223,
       12.259833
      ],
      [
       -1.690824,
       12.257231
      ],
      [
       -1.68582,
       12.253963
      ],
      [
       -1.681295,
       12.250084
      ],
      [
       -1.677327,
       12.245661
      ],
      [
       -1.673984,
       12.24077
      ],
      [
       -1.671323,
       12.235495
      ],
      [
       -1.669389,
       12.229925
      ],
      [
       -1.668216,
       12.224155
      ],
      [
       -1.667824,
       12.218286
      ],
      [
       -1.668218,
       12.212417
      ],
      [
       -1.669393,
       12.206648
      ],
      [
       -1.671329,
       12.201079
      ],
      [
       -1.673991,
       12.195804
      ],
      [
       -1.677335,
       12.190914
      ],
      [
       -1.681303,
       12.186492
      ],
      [
       -1.685828,
       12.182615
      ],
      [
       -1.690831,
       12.179347
      ],
      [
       -1.696228,
       12.176746
      ],
      [
       -1.701926,
       12.174856
      ],
      [
       -1.707828,
       12.173709
      ],
      [
       -1.713832,
       12.173324
      ],
      [
       -1.719836,
       12.173709
      ],
      [
       -1.725738,
       12.174856
      ],
      [
       -1.731436,
       12.176746
      ],
      [
       -1.736833,
       12.179347
      ],
      [
       -1.741836,
       12.182615
      ],
      [
       -1.746361,
       12.186492
      ],
      [
       -1.750329,
       12.190914
      ],
      [
       -1.753673,
       12.195804
      ],
      [
       -1.756335,
       12.201079
      ],
      [
       -1.758271,
       12.206648
      ],
      [
       -1.759446,
       12.212417
      ],
      [
       -1.75984,
       12.218286
      ],
      [
       -1.759448,
       12.224155
      ],
      [
       -1.758275,
       12.229925
      ],
      [
       -1.756341,
       12.235495
      ],
      [
       -1.75368,
       12.24077
      ],
      [
       -1.750337,
       12.245661
      ],
      [
       -1.746369,
       12.250084
      ],
      [
       -1.741844,
       12.253963
      ],
      [
       -1.73684,
       12.257231
      ],
      [
       -1.731441,
       12.259833
      ],
      [
       -1.725742,
       12.261724
      ],
      [
       -1.719838,
       12.262871
      ],
      [
       -1.713832,
       12.263256
      ]
     ]
    ]
   },
   "properties": {
    "name": "Lao",
    "label": "Lao \u2014 5 km catchment",
    "commune": "Komki-Ipala",
    "region": "Kadiogo",
    "type": "Community-based Oasis",
    "source": "Association Georgie Badiel, August 2026",
    "coordinate_confidence": "Confirmed \u2014 supplied by GBF",
    "catchment_km": 5,
    "note": "Straight-line distance. Actual walking distance is longer."
   }
  },
  {
   "type": "Feature",
   "geometry": {
    "type": "Polygon",
    "coordinates": [
     [
      [
       -1.680613,
       12.235101
      ],
      [
       -1.674607,
       12.234716
      ],
      [
       -1.668705,
       12.233569
      ],
      [
       -1.663006,
       12.231678
      ],
      [
       -1.657608,
       12.229076
      ],
      [
       -1.652604,
       12.225808
      ],
      [
       -1.64808,
       12.221929
      ],
      [
       -1.644112,
       12.217506
      ],
      [
       -1.64077,
       12.212615
      ],
      [
       -1.638109,
       12.20734
      ],
      [
       -1.636175,
       12.20177
      ],
      [
       -1.635002,
       12.196001
      ],
      [
       -1.63461,
       12.190131
      ],
      [
       -1.635004,
       12.184262
      ],
      [
       -1.636179,
       12.178493
      ],
      [
       -1.638114,
       12.172924
      ],
      [
       -1.640776,
       12.167649
      ],
      [
       -1.64412,
       12.162759
      ],
      [
       -1.648088,
       12.158337
      ],
      [
       -1.652612,
       12.15446
      ],
      [
       -1.657615,
       12.151192
      ],
      [
       -1.663011,
       12.148591
      ],
      [
       -1.668708,
       12.146701
      ],
      [
       -1.674609,
       12.145554
      ],
      [
       -1.680613,
       12.145169
      ],
      [
       -1.686617,
       12.145554
      ],
      [
       -1.692518,
       12.146701
      ],
      [
       -1.698215,
       12.148591
      ],
      [
       -1.703611,
       12.151192
      ],
      [
       -1.708614,
       12.15446
      ],
      [
       -1.713138,
       12.158337
      ],
      [
       -1.717106,
       12.162759
      ],
      [
       -1.72045,
       12.167649
      ],
      [
       -1.723112,
       12.172924
      ],
      [
       -1.725047,
       12.178493
      ],
      [
       -1.726222,
       12.184262
      ],
      [
       -1.726616,
       12.190131
      ],
      [
       -1.726224,
       12.196001
      ],
      [
       -1.725051,
       12.20177
      ],
      [
       -1.723117,
       12.20734
      ],
      [
       -1.720456,
       12.212615
      ],
      [
       -1.717114,
       12.217506
      ],
      [
       -1.713146,
       12.221929
      ],
      [
       -1.708622,
       12.225808
      ],
      [
       -1.703618,
       12.229076
      ],
      [
       -1.69822,
       12.231678
      ],
      [
       -1.692521,
       12.233569
      ],
      [
       -1.686619,
       12.234716
      ],
      [
       -1.680613,
       12.235101
      ]
     ]
    ]
   },
   "properties": {
    "name": "Tampousmdi",
    "label": "Tampousmdi \u2014 5 km catchment",
    "commune": "Komki-Ipala",
    "region": "Kadiogo",
    "type": "Community-based Oasis",
    "source": "Association Georgie Badiel, August 2026",
    "coordinate_confidence": "Confirmed \u2014 supplied by GBF",
    "catchment_km": 5,
    "note": "Straight-line distance. Actual walking distance is longer."
   }
  },
  {
   "type": "Feature",
   "geometry": {
    "type": "Polygon",
    "coordinates": [
     [
      [
       -1.6085,
       12.211836
      ],
      [
       -1.602495,
       12.211451
      ],
      [
       -1.596593,
       12.210304
      ],
      [
       -1.590894,
       12.208413
      ],
      [
       -1.585497,
       12.205811
      ],
      [
       -1.580494,
       12.202543
      ],
      [
       -1.57597,
       12.198664
      ],
      [
       -1.572003,
       12.194241
      ],
      [
       -1.56866,
       12.18935
      ],
      [
       -1.565999,
       12.184075
      ],
      [
       -1.564066,
       12.178505
      ],
      [
       -1.562893,
       12.172736
      ],
      [
       -1.562501,
       12.166866
      ],
      [
       -1.562895,
       12.160997
      ],
      [
       -1.56407,
       12.155228
      ],
      [
       -1.566005,
       12.149659
      ],
      [
       -1.568667,
       12.144384
      ],
      [
       -1.57201,
       12.139494
      ],
      [
       -1.575977,
       12.135072
      ],
      [
       -1.580501,
       12.131195
      ],
      [
       -1.585504,
       12.127927
      ],
      [
       -1.5909,
       12.125326
      ],
      [
       -1.596596,
       12.123436
      ],
      [
       -1.602497,
       12.122289
      ],
      [
       -1.6085,
       12.121904
      ],
      [
       -1.614503,
       12.122289
      ],
      [
       -1.620404,
       12.123436
      ],
      [
       -1.6261,
       12.125326
      ],
      [
       -1.631496,
       12.127927
      ],
      [
       -1.636499,
       12.131195
      ],
      [
       -1.641023,
       12.135072
      ],
      [
       -1.64499,
       12.139494
      ],
      [
       -1.648333,
       12.144384
      ],
      [
       -1.650995,
       12.149659
      ],
      [
       -1.65293,
       12.155228
      ],
      [
       -1.654105,
       12.160997
      ],
      [
       -1.654499,
       12.166866
      ],
      [
       -1.654107,
       12.172736
      ],
      [
       -1.652934,
       12.178505
      ],
      [
       -1.651001,
       12.184075
      ],
      [
       -1.64834,
       12.18935
      ],
      [
       -1.644997,
       12.194241
      ],
      [
       -1.64103,
       12.198664
      ],
      [
       -1.636506,
       12.202543
      ],
      [
       -1.631503,
       12.205811
      ],
      [
       -1.626106,
       12.208413
      ],
      [
       -1.620407,
       12.210304
      ],
      [
       -1.614505,
       12.211451
      ],
      [
       -1.6085,
       12.211836
      ]
     ]
    ]
   },
   "properties": {
    "name": "Dawn\u00e9gomd\u00e9 2",
    "label": "Dawn\u00e9gomd\u00e9 2 \u2014 5 km catchment",
    "commune": "Komsilga",
    "region": "Kadiogo",
    "type": "Community-based Oasis",
    "source": "Association Georgie Badiel, August 2026",
    "coordinate_confidence": "Confirmed \u2014 supplied by GBF",
    "catchment_km": 5,
    "note": "Straight-line distance. Actual walking distance is longer."
   }
  },
  {
   "type": "Feature",
   "geometry": {
    "type": "Polygon",
    "coordinates": [
     [
      [
       -1.63828,
       12.227886
      ],
      [
       -1.632275,
       12.227501
      ],
      [
       -1.626372,
       12.226354
      ],
      [
       -1.620673,
       12.224463
      ],
      [
       -1.615276,
       12.221861
      ],
      [
       -1.610272,
       12.218593
      ],
      [
       -1.605748,
       12.214714
      ],
      [
       -1.60178,
       12.210291
      ],
      [
       -1.598438,
       12.2054
      ],
      [
       -1.595777,
       12.200125
      ],
      [
       -1.593843,
       12.194555
      ],
      [
       -1.59267,
       12.188786
      ],
      [
       -1.592278,
       12.182916
      ],
      [
       -1.592672,
       12.177047
      ],
      [
       -1.593847,
       12.171278
      ],
      [
       -1.595782,
       12.165709
      ],
      [
       -1.598444,
       12.160434
      ],
      [
       -1.601788,
       12.155544
      ],
      [
       -1.605755,
       12.151122
      ],
      [
       -1.610279,
       12.147245
      ],
      [
       -1.615282,
       12.143977
      ],
      [
       -1.620679,
       12.141376
      ],
      [
       -1.626376,
       12.139486
      ],
      [
       -1.632277,
       12.138339
      ],
      [
       -1.63828,
       12.137954
      ],
      [
       -1.644283,
       12.138339
      ],
      [
       -1.650184,
       12.139486
      ],
      [
       -1.655881,
       12.141376
      ],
      [
       -1.661278,
       12.143977
      ],
      [
       -1.666281,
       12.147245
      ],
      [
       -1.670805,
       12.151122
      ],
      [
       -1.674772,
       12.155544
      ],
      [
       -1.678116,
       12.160434
      ],
      [
       -1.680778,
       12.165709
      ],
      [
       -1.682713,
       12.171278
      ],
      [
       -1.683888,
       12.177047
      ],
      [
       -1.684282,
       12.182916
      ],
      [
       -1.68389,
       12.188786
      ],
      [
       -1.682717,
       12.194555
      ],
      [
       -1.680783,
       12.200125
      ],
      [
       -1.678122,
       12.2054
      ],
      [
       -1.67478,
       12.210291
      ],
      [
       -1.670812,
       12.214714
      ],
      [
       -1.666288,
       12.218593
      ],
      [
       -1.661284,
       12.221861
      ],
      [
       -1.655887,
       12.224463
      ],
      [
       -1.650188,
       12.226354
      ],
      [
       -1.644285,
       12.227501
      ],
      [
       -1.63828,
       12.227886
      ]
     ]
    ]
   },
   "properties": {
    "name": "CEG Komsilga",
    "label": "CEG Komsilga \u2014 5 km catchment",
    "commune": "Komsilga",
    "region": "Kadiogo",
    "type": "School-based Oasis",
    "source": "Association Georgie Badiel, August 2026",
    "coordinate_confidence": "Confirmed \u2014 supplied by GBF",
    "catchment_km": 5,
    "note": "Straight-line distance. Actual walking distance is longer."
   }
  },
  {
   "type": "Feature",
   "geometry": {
    "type": "Polygon",
    "coordinates": [
     [
      [
       -1.629025,
       12.226691
      ],
      [
       -1.62302,
       12.226306
      ],
      [
       -1.617117,
       12.225159
      ],
      [
       -1.611418,
       12.223268
      ],
      [
       -1.606021,
       12.220666
      ],
      [
       -1.601017,
       12.217398
      ],
      [
       -1.596493,
       12.213519
      ],
      [
       -1.592525,
       12.209096
      ],
      [
       -1.589183,
       12.204205
      ],
      [
       -1.586522,
       12.19893
      ],
      [
       -1.584589,
       12.19336
      ],
      [
       -1.583416,
       12.187591
      ],
      [
       -1.583023,
       12.181721
      ],
      [
       -1.583418,
       12.175852
      ],
      [
       -1.584593,
       12.170083
      ],
      [
       -1.586528,
       12.164514
      ],
      [
       -1.58919,
       12.159239
      ],
      [
       -1.592533,
       12.154349
      ],
      [
       -1.596501,
       12.149927
      ],
      [
       -1.601025,
       12.14605
      ],
      [
       -1.606027,
       12.142782
      ],
      [
       -1.611424,
       12.140181
      ],
      [
       -1.617121,
       12.138291
      ],
      [
       -1.623022,
       12.137144
      ],
      [
       -1.629025,
       12.136759
      ],
      [
       -1.635028,
       12.137144
      ],
      [
       -1.640929,
       12.138291
      ],
      [
       -1.646626,
       12.140181
      ],
      [
       -1.652023,
       12.142782
      ],
      [
       -1.657025,
       12.14605
      ],
      [
       -1.661549,
       12.149927
      ],
      [
       -1.665517,
       12.154349
      ],
      [
       -1.66886,
       12.159239
      ],
      [
       -1.671522,
       12.164514
      ],
      [
       -1.673457,
       12.170083
      ],
      [
       -1.674632,
       12.175852
      ],
      [
       -1.675027,
       12.181721
      ],
      [
       -1.674634,
       12.187591
      ],
      [
       -1.673461,
       12.19336
      ],
      [
       -1.671528,
       12.19893
      ],
      [
       -1.668867,
       12.204205
      ],
      [
       -1.665525,
       12.209096
      ],
      [
       -1.661557,
       12.213519
      ],
      [
       -1.657033,
       12.217398
      ],
      [
       -1.652029,
       12.220666
      ],
      [
       -1.646632,
       12.223268
      ],
      [
       -1.640933,
       12.225159
      ],
      [
       -1.63503,
       12.226306
      ],
      [
       -1.629025,
       12.226691
      ]
     ]
    ]
   },
   "properties": {
    "name": "Lyc\u00e9e d\u00e9partemental Komsilga",
    "label": "Lyc\u00e9e d\u00e9partemental Komsilga \u2014 5 km catchment",
    "commune": "Komsilga",
    "region": "Kadiogo",
    "type": "School-based Oasis",
    "source": "Association Georgie Badiel, August 2026",
    "coordinate_confidence": "Confirmed \u2014 supplied by GBF",
    "catchment_km": 5,
    "note": "Straight-line distance. Actual walking distance is longer."
   }
  },
  {
   "type": "Feature",
   "geometry": {
    "type": "Polygon",
    "coordinates": [
     [
      [
       -1.6099,
       12.619316
      ],
      [
       -1.603885,
       12.618931
      ],
      [
       -1.597974,
       12.617784
      ],
      [
       -1.592266,
       12.615893
      ],
      [
       -1.586861,
       12.613291
      ],
      [
       -1.58185,
       12.610023
      ],
      [
       -1.577319,
       12.606144
      ],
      [
       -1.573345,
       12.601721
      ],
      [
       -1.569998,
       12.59683
      ],
      [
       -1.567333,
       12.591554
      ],
      [
       -1.565397,
       12.585984
      ],
      [
       -1.564222,
       12.580215
      ],
      [
       -1.563829,
       12.574346
      ],
      [
       -1.564224,
       12.568477
      ],
      [
       -1.565401,
       12.562708
      ],
      [
       -1.567339,
       12.557139
      ],
      [
       -1.570005,
       12.551864
      ],
      [
       -1.573353,
       12.546974
      ],
      [
       -1.577327,
       12.542552
      ],
      [
       -1.581858,
       12.538675
      ],
      [
       -1.586868,
       12.535407
      ],
      [
       -1.592272,
       12.532806
      ],
      [
       -1.597978,
       12.530916
      ],
      [
       -1.603888,
       12.529769
      ],
      [
       -1.6099,
       12.529384
      ],
      [
       -1.615912,
       12.529769
      ],
      [
       -1.621822,
       12.530916
      ],
      [
       -1.627528,
       12.532806
      ],
      [
       -1.632932,
       12.535407
      ],
      [
       -1.637942,
       12.538675
      ],
      [
       -1.642473,
       12.542552
      ],
      [
       -1.646447,
       12.546974
      ],
      [
       -1.649795,
       12.551864
      ],
      [
       -1.652461,
       12.557139
      ],
      [
       -1.654399,
       12.562708
      ],
      [
       -1.655576,
       12.568477
      ],
      [
       -1.655971,
       12.574346
      ],
      [
       -1.655578,
       12.580215
      ],
      [
       -1.654403,
       12.585984
      ],
      [
       -1.652467,
       12.591554
      ],
      [
       -1.649802,
       12.59683
      ],
      [
       -1.646455,
       12.601721
      ],
      [
       -1.642481,
       12.606144
      ],
      [
       -1.63795,
       12.610023
      ],
      [
       -1.632939,
       12.613291
      ],
      [
       -1.627534,
       12.615893
      ],
      [
       -1.621826,
       12.617784
      ],
      [
       -1.615915,
       12.618931
      ],
      [
       -1.6099,
       12.619316
      ]
     ]
    ]
   },
   "properties": {
    "name": "Vaagogho",
    "label": "Vaagogho \u2014 5 km catchment",
    "commune": "Komsilga",
    "region": "Kadiogo",
    "type": "Community-based Oasis",
    "source": "Association Georgie Badiel, August 2026",
    "coordinate_confidence": "Confirmed \u2014 supplied by GBF",
    "data_note": "Coordinate is 10 m from Wavougu\u00e9 but recorded in a different commune \u2014 verify",
    "catchment_km": 5,
    "note": "Straight-line distance. Actual walking distance is longer."
   }
  },
  {
   "type": "Feature",
   "geometry": {
    "type": "Polygon",
    "coordinates": [
     [
      [
       -1.60988,
       12.619226
      ],
      [
       -1.603865,
       12.618841
      ],
      [
       -1.597954,
       12.617694
      ],
      [
       -1.592246,
       12.615803
      ],
      [
       -1.586841,
       12.613201
      ],
      [
       -1.58183,
       12.609933
      ],
      [
       -1.577299,
       12.606054
      ],
      [
       -1.573325,
       12.601631
      ],
      [
       -1.569978,
       12.59674
      ],
      [
       -1.567313,
       12.591464
      ],
      [
       -1.565377,
       12.585894
      ],
      [
       -1.564202,
       12.580125
      ],
      [
       -1.563809,
       12.574256
      ],
      [
       -1.564204,
       12.568387
      ],
      [
       -1.565381,
       12.562618
      ],
      [
       -1.567319,
       12.557049
      ],
      [
       -1.569985,
       12.551774
      ],
      [
       -1.573333,
       12.546884
      ],
      [
       -1.577307,
       12.542462
      ],
      [
       -1.581838,
       12.538585
      ],
      [
       -1.586848,
       12.535317
      ],
      [
       -1.592252,
       12.532716
      ],
      [
       -1.597958,
       12.530826
      ],
      [
       -1.603868,
       12.529679
      ],
      [
       -1.60988,
       12.529294
      ],
      [
       -1.615892,
       12.529679
      ],
      [
       -1.621802,
       12.530826
      ],
      [
       -1.627508,
       12.532716
      ],
      [
       -1.632912,
       12.535317
      ],
      [
       -1.637922,
       12.538585
      ],
      [
       -1.642453,
       12.542462
      ],
      [
       -1.646427,
       12.546884
      ],
      [
       -1.649775,
       12.551774
      ],
      [
       -1.652441,
       12.557049
      ],
      [
       -1.654379,
       12.562618
      ],
      [
       -1.655556,
       12.568387
      ],
      [
       -1.655951,
       12.574256
      ],
      [
       -1.655558,
       12.580125
      ],
      [
       -1.654383,
       12.585894
      ],
      [
       -1.652447,
       12.591464
      ],
      [
       -1.649782,
       12.59674
      ],
      [
       -1.646435,
       12.601631
      ],
      [
       -1.642461,
       12.606054
      ],
      [
       -1.63793,
       12.609933
      ],
      [
       -1.632919,
       12.613201
      ],
      [
       -1.627514,
       12.615803
      ],
      [
       -1.621806,
       12.617694
      ],
      [
       -1.615895,
       12.618841
      ],
      [
       -1.60988,
       12.619226
      ]
     ]
    ]
   },
   "properties": {
    "name": "Wavougu\u00e9",
    "label": "Wavougu\u00e9 \u2014 5 km catchment",
    "commune": "Pabr\u00e9",
    "region": "Kadiogo",
    "type": "Community-based Oasis",
    "source": "Association Georgie Badiel, August 2026",
    "coordinate_confidence": "Confirmed \u2014 supplied by GBF",
    "data_note": "Listed as 'Pabr\u00e9' in the Oasis table \u2014 same commune. Confirm.",
    "catchment_km": 5,
    "note": "Straight-line distance. Actual walking distance is longer."
   }
  },
  {
   "type": "Feature",
   "geometry": {
    "type": "Polygon",
    "coordinates": [
     [
      [
       -2.03412,
       12.211844
      ],
      [
       -2.028115,
       12.211459
      ],
      [
       -2.022213,
       12.210312
      ],
      [
       -2.016514,
       12.208421
      ],
      [
       -2.011117,
       12.205819
      ],
      [
       -2.006114,
       12.202551
      ],
      [
       -2.00159,
       12.198672
      ],
      [
       -1.997623,
       12.194249
      ],
      [
       -1.99428,
       12.189358
      ],
      [
       -1.991619,
       12.184083
      ],
      [
       -1.989686,
       12.178513
      ],
      [
       -1.988513,
       12.172744
      ],
      [
       -1.988121,
       12.166874
      ],
      [
       -1.988515,
       12.161005
      ],
      [
       -1.98969,
       12.155236
      ],
      [
       -1.991625,
       12.149667
      ],
      [
       -1.994287,
       12.144392
      ],
      [
       -1.99763,
       12.139502
      ],
      [
       -2.001597,
       12.13508
      ],
      [
       -2.006121,
       12.131203
      ],
      [
       -2.011124,
       12.127935
      ],
      [
       -2.01652,
       12.125334
      ],
      [
       -2.022216,
       12.123444
      ],
      [
       -2.028117,
       12.122297
      ],
      [
       -2.03412,
       12.121912
      ],
      [
       -2.040123,
       12.122297
      ],
      [
       -2.046024,
       12.123444
      ],
      [
       -2.05172,
       12.125334
      ],
      [
       -2.057116,
       12.127935
      ],
      [
       -2.062119,
       12.131203
      ],
      [
       -2.066643,
       12.13508
      ],
      [
       -2.07061,
       12.139502
      ],
      [
       -2.073953,
       12.144392
      ],
      [
       -2.076615,
       12.149667
      ],
      [
       -2.07855,
       12.155236
      ],
      [
       -2.079725,
       12.161005
      ],
      [
       -2.080119,
       12.166874
      ],
      [
       -2.079727,
       12.172744
      ],
      [
       -2.078554,
       12.178513
      ],
      [
       -2.076621,
       12.184083
      ],
      [
       -2.07396,
       12.189358
      ],
      [
       -2.070617,
       12.194249
      ],
      [
       -2.06665,
       12.198672
      ],
      [
       -2.062126,
       12.202551
      ],
      [
       -2.057123,
       12.205819
      ],
      [
       -2.051726,
       12.208421
      ],
      [
       -2.046027,
       12.210312
      ],
      [
       -2.040125,
       12.211459
      ],
      [
       -2.03412,
       12.211844
      ]
     ]
    ]
   },
   "properties": {
    "name": "Tanghin Wobdo 1",
    "label": "Tanghin Wobdo 1 \u2014 5 km catchment",
    "commune": "Sabou",
    "region": "Nando",
    "type": "Community-based Oasis",
    "source": "Association Georgie Badiel, August 2026",
    "coordinate_confidence": "Confirmed \u2014 supplied by GBF",
    "catchment_km": 5,
    "note": "Straight-line distance. Actual walking distance is longer."
   }
  },
  {
   "type": "Feature",
   "geometry": {
    "type": "Polygon",
    "coordinates": [
     [
      [
       -2.03753,
       12.209026
      ],
      [
       -2.031525,
       12.208641
      ],
      [
       -2.025623,
       12.207494
      ],
      [
       -2.019924,
       12.205603
      ],
      [
       -2.014527,
       12.203001
      ],
      [
       -2.009524,
       12.199733
      ],
      [
       -2.005,
       12.195854
      ],
      [
       -2.001033,
       12.191431
      ],
      [
       -1.99769,
       12.18654
      ],
      [
       -1.99503,
       12.181265
      ],
      [
       -1.993097,
       12.175695
      ],
      [
       -1.991924,
       12.169926
      ],
      [
       -1.991531,
       12.164056
      ],
      [
       -1.991926,
       12.158187
      ],
      [
       -1.9931,
       12.152418
      ],
      [
       -1.995035,
       12.146849
      ],
      [
       -1.997697,
       12.141574
      ],
      [
       -2.00104,
       12.136684
      ],
      [
       -2.005008,
       12.132262
      ],
      [
       -2.009531,
       12.128385
      ],
      [
       -2.014534,
       12.125117
      ],
      [
       -2.01993,
       12.122516
      ],
      [
       -2.025627,
       12.120626
      ],
      [
       -2.031527,
       12.119479
      ],
      [
       -2.03753,
       12.119094
      ],
      [
       -2.043533,
       12.119479
      ],
      [
       -2.049433,
       12.120626
      ],
      [
       -2.05513,
       12.122516
      ],
      [
       -2.060526,
       12.125117
      ],
      [
       -2.065529,
       12.128385
      ],
      [
       -2.070052,
       12.132262
      ],
      [
       -2.07402,
       12.136684
      ],
      [
       -2.077363,
       12.141574
      ],
      [
       -2.080025,
       12.146849
      ],
      [
       -2.08196,
       12.152418
      ],
      [
       -2.083134,
       12.158187
      ],
      [
       -2.083529,
       12.164056
      ],
      [
       -2.083136,
       12.169926
      ],
      [
       -2.081963,
       12.175695
      ],
      [
       -2.08003,
       12.181265
      ],
      [
       -2.07737,
       12.18654
      ],
      [
       -2.074027,
       12.191431
      ],
      [
       -2.07006,
       12.195854
      ],
      [
       -2.065536,
       12.199733
      ],
      [
       -2.060533,
       12.203001
      ],
      [
       -2.055136,
       12.205603
      ],
      [
       -2.049437,
       12.207494
      ],
      [
       -2.043535,
       12.208641
      ],
      [
       -2.03753,
       12.209026
      ]
     ]
    ]
   },
   "properties": {
    "name": "Tanghin Wobdo 2",
    "label": "Tanghin Wobdo 2 \u2014 5 km catchment",
    "commune": "Sabou",
    "region": "Nando",
    "type": "Community-based Oasis",
    "source": "Association Georgie Badiel, August 2026",
    "coordinate_confidence": "Confirmed \u2014 supplied by GBF",
    "catchment_km": 5,
    "note": "Straight-line distance. Actual walking distance is longer."
   }
  },
  {
   "type": "Feature",
   "geometry": {
    "type": "Polygon",
    "coordinates": [
     [
      [
       -2.231533,
       12.101988
      ],
      [
       -2.22553,
       12.101603
      ],
      [
       -2.21963,
       12.100456
      ],
      [
       -2.213934,
       12.098565
      ],
      [
       -2.208539,
       12.095963
      ],
      [
       -2.203538,
       12.092695
      ],
      [
       -2.199016,
       12.088816
      ],
      [
       -2.195051,
       12.084393
      ],
      [
       -2.191709,
       12.079502
      ],
      [
       -2.18905,
       12.074227
      ],
      [
       -2.187117,
       12.068657
      ],
      [
       -2.185945,
       12.062888
      ],
      [
       -2.185553,
       12.057018
      ],
      [
       -2.185947,
       12.051149
      ],
      [
       -2.187121,
       12.04538
      ],
      [
       -2.189055,
       12.039811
      ],
      [
       -2.191716,
       12.034536
      ],
      [
       -2.195058,
       12.029646
      ],
      [
       -2.199024,
       12.025224
      ],
      [
       -2.203546,
       12.021347
      ],
      [
       -2.208546,
       12.018079
      ],
      [
       -2.21394,
       12.015478
      ],
      [
       -2.219634,
       12.013588
      ],
      [
       -2.225532,
       12.012441
      ],
      [
       -2.231533,
       12.012056
      ],
      [
       -2.237534,
       12.012441
      ],
      [
       -2.243432,
       12.013588
      ],
      [
       -2.249126,
       12.015478
      ],
      [
       -2.25452,
       12.018079
      ],
      [
       -2.25952,
       12.021347
      ],
      [
       -2.264042,
       12.025224
      ],
      [
       -2.268008,
       12.029646
      ],
      [
       -2.27135,
       12.034536
      ],
      [
       -2.274011,
       12.039811
      ],
      [
       -2.275945,
       12.04538
      ],
      [
       -2.277119,
       12.051149
      ],
      [
       -2.277513,
       12.057018
      ],
      [
       -2.277121,
       12.062888
      ],
      [
       -2.275949,
       12.068657
      ],
      [
       -2.274016,
       12.074227
      ],
      [
       -2.271357,
       12.079502
      ],
      [
       -2.268015,
       12.084393
      ],
      [
       -2.26405,
       12.088816
      ],
      [
       -2.259528,
       12.092695
      ],
      [
       -2.254527,
       12.095963
      ],
      [
       -2.249132,
       12.098565
      ],
      [
       -2.243436,
       12.100456
      ],
      [
       -2.237536,
       12.101603
      ],
      [
       -2.231533,
       12.101988
      ]
     ]
    ]
   },
   "properties": {
    "name": "\u00c9cole Wend-Kouni",
    "label": "\u00c9cole Wend-Kouni \u2014 5 km catchment",
    "commune": "Sabou",
    "region": "Nando",
    "type": "School-based Oasis",
    "source": "Association Georgie Badiel, August 2026",
    "coordinate_confidence": "Confirmed \u2014 supplied by GBF",
    "catchment_km": 5,
    "note": "Straight-line distance. Actual walking distance is longer."
   }
  },
  {
   "type": "Feature",
   "geometry": {
    "type": "Polygon",
    "coordinates": [
     [
      [
       -2.71661,
       11.772986
      ],
      [
       -2.710615,
       11.772601
      ],
      [
       -2.704722,
       11.771454
      ],
      [
       -2.699033,
       11.769563
      ],
      [
       -2.693644,
       11.766961
      ],
      [
       -2.688649,
       11.763693
      ],
      [
       -2.684132,
       11.759814
      ],
      [
       -2.680172,
       11.755391
      ],
      [
       -2.676835,
       11.7505
      ],
      [
       -2.674178,
       11.745225
      ],
      [
       -2.672248,
       11.739655
      ],
      [
       -2.671077,
       11.733886
      ],
      [
       -2.670685,
       11.728016
      ],
      [
       -2.671079,
       11.722147
      ],
      [
       -2.672252,
       11.716379
      ],
      [
       -2.674184,
       11.710809
      ],
      [
       -2.676841,
       11.705534
      ],
      [
       -2.680179,
       11.700644
      ],
      [
       -2.68414,
       11.696222
      ],
      [
       -2.688656,
       11.692345
      ],
      [
       -2.693651,
       11.689077
      ],
      [
       -2.699038,
       11.686476
      ],
      [
       -2.704726,
       11.684586
      ],
      [
       -2.710617,
       11.683439
      ],
      [
       -2.71661,
       11.683054
      ],
      [
       -2.722603,
       11.683439
      ],
      [
       -2.728494,
       11.684586
      ],
      [
       -2.734182,
       11.686476
      ],
      [
       -2.739569,
       11.689077
      ],
      [
       -2.744564,
       11.692345
      ],
      [
       -2.74908,
       11.696222
      ],
      [
       -2.753041,
       11.700644
      ],
      [
       -2.756379,
       11.705534
      ],
      [
       -2.759036,
       11.710809
      ],
      [
       -2.760968,
       11.716379
      ],
      [
       -2.762141,
       11.722147
      ],
      [
       -2.762535,
       11.728016
      ],
      [
       -2.762143,
       11.733886
      ],
      [
       -2.760972,
       11.739655
      ],
      [
       -2.759042,
       11.745225
      ],
      [
       -2.756385,
       11.7505
      ],
      [
       -2.753048,
       11.755391
      ],
      [
       -2.749088,
       11.759814
      ],
      [
       -2.744571,
       11.763693
      ],
      [
       -2.739576,
       11.766961
      ],
      [
       -2.734187,
       11.769563
      ],
      [
       -2.728498,
       11.771454
      ],
      [
       -2.722605,
       11.772601
      ],
      [
       -2.71661,
       11.772986
      ]
     ]
    ]
   },
   "properties": {
    "name": "Simri / Manga",
    "label": "Simri / Manga \u2014 5 km catchment",
    "commune": "Bind\u00e9 / Manga",
    "region": "Nazinon",
    "type": "Community-based Oasis",
    "source": "Association Georgie Badiel, August 2026",
    "coordinate_confidence": "Confirmed \u2014 supplied by GBF",
    "catchment_km": 5,
    "note": "Straight-line distance. Actual walking distance is longer."
   }
  }
 ]
}