{
 "type": "FeatureCollection",
 "name": "gbf_oasis_centers",
 "features": [
  {
   "type": "Feature",
   "geometry": {
    "type": "Point",
    "coordinates": [
     -1.74012,
     12.23429
    ]
   },
   "properties": {
    "name": "Goghin 1",
    "label": "Goghin 1",
    "commune": "Tanghin-Dassouri",
    "region": "Kadiogo",
    "site_type": "Community-based Oasis",
    "status": "Established or supported by GBF",
    "coordinate_confidence": "Confirmed \u2014 supplied by GBF, August 2026",
    "source": "Association Georgie Badiel / Georgie Badiel Foundation"
   }
  },
  {
   "type": "Feature",
   "geometry": {
    "type": "Point",
    "coordinates": [
     -1.70794,
     12.30047
    ]
   },
   "properties": {
    "name": "Songpels\u00e9",
    "label": "Songpels\u00e9",
    "commune": "Tanghin-Dassouri",
    "region": "Kadiogo",
    "site_type": "Community-based Oasis",
    "status": "Established or supported by GBF",
    "coordinate_confidence": "Confirmed \u2014 supplied by GBF, August 2026",
    "source": "Association Georgie Badiel / Georgie Badiel Foundation"
   }
  },
  {
   "type": "Feature",
   "geometry": {
    "type": "Point",
    "coordinates": [
     -1.69396,
     12.1933
    ]
   },
   "properties": {
    "name": "Po\u00e9dgo",
    "label": "Po\u00e9dgo",
    "commune": "Tanghin-Dassouri",
    "region": "Kadiogo",
    "site_type": "Community-based Oasis",
    "status": "Established or supported by GBF",
    "coordinate_confidence": "Confirmed \u2014 supplied by GBF, August 2026",
    "source": "Association Georgie Badiel / Georgie Badiel Foundation"
   }
  },
  {
   "type": "Feature",
   "geometry": {
    "type": "Point",
    "coordinates": [
     -1.757835,
     12.361255
    ]
   },
   "properties": {
    "name": "Ciss\u00e9",
    "label": "Ciss\u00e9",
    "commune": "Tanghin-Dassouri",
    "region": "Kadiogo",
    "site_type": "Community-based Oasis",
    "status": "Established or supported by GBF",
    "coordinate_confidence": "Confirmed \u2014 supplied by GBF, August 2026",
    "source": "Association Georgie Badiel / Georgie Badiel Foundation"
   }
  },
  {
   "type": "Feature",
   "geometry": {
    "type": "Point",
    "coordinates": [
     -1.8128,
     12.17325
    ]
   },
   "properties": {
    "name": "Komki",
    "label": "Komki",
    "commune": "Komki-Ipala",
    "region": "Kadiogo",
    "site_type": "Community-based Oasis",
    "status": "Established or supported by GBF",
    "coordinate_confidence": "Confirmed \u2014 supplied by GBF, August 2026",
    "source": "Association Georgie Badiel / Georgie Badiel Foundation"
   }
  },
  {
   "type": "Feature",
   "geometry": {
    "type": "Point",
    "coordinates": [
     -1.78322,
     12.1188
    ]
   },
   "properties": {
    "name": "Nabelin",
    "label": "Nabelin",
    "commune": "Komki-Ipala",
    "region": "Kadiogo",
    "site_type": "Community-based Oasis",
    "status": "Established or supported by GBF",
    "coordinate_confidence": "Confirmed \u2014 supplied by GBF, August 2026",
    "source": "Association Georgie Badiel / Georgie Badiel Foundation"
   }
  },
  {
   "type": "Feature",
   "geometry": {
    "type": "Point",
    "coordinates": [
     -1.713832,
     12.21829
    ]
   },
   "properties": {
    "name": "Lao",
    "label": "Lao",
    "commune": "Komki-Ipala",
    "region": "Kadiogo",
    "site_type": "Community-based Oasis",
    "status": "Established or supported by GBF",
    "coordinate_confidence": "Confirmed \u2014 supplied by GBF, August 2026",
    "source": "Association Georgie Badiel / Georgie Badiel Foundation"
   }
  },
  {
   "type": "Feature",
   "geometry": {
    "type": "Point",
    "coordinates": [
     -1.680613,
     12.190135
    ]
   },
   "properties": {
    "name": "Tampousmdi",
    "label": "Tampousmdi",
    "commune": "Komki-Ipala",
    "region": "Kadiogo",
    "site_type": "Community-based Oasis",
    "status": "Established or supported by GBF",
    "coordinate_confidence": "Confirmed \u2014 supplied by GBF, August 2026",
    "source": "Association Georgie Badiel / Georgie Badiel Foundation"
   }
  },
  {
   "type": "Feature",
   "geometry": {
    "type": "Point",
    "coordinates": [
     -1.80514,
     12.19507
    ]
   },
   "properties": {
    "name": "\u00c9cole maternelle Komki-Ipala",
    "label": "\u00c9cole maternelle Komki-Ipala",
    "commune": "Komki-Ipala",
    "region": "Kadiogo",
    "site_type": "School-based Oasis",
    "status": "Established or supported by GBF",
    "coordinate_confidence": "Confirmed \u2014 supplied by GBF, August 2026",
    "source": "Association Georgie Badiel / Georgie Badiel Foundation"
   }
  },
  {
   "type": "Feature",
   "geometry": {
    "type": "Point",
    "coordinates": [
     -1.81849,
     12.242127
    ]
   },
   "properties": {
    "name": "\u00c9cole de Tintilou",
    "label": "\u00c9cole de Tintilou",
    "commune": "Komki-Ipala",
    "region": "Kadiogo",
    "site_type": "School-based Oasis",
    "status": "Established or supported by GBF",
    "coordinate_confidence": "Confirmed \u2014 supplied by GBF, August 2026",
    "source": "Association Georgie Badiel / Georgie Badiel Foundation",
    "data_note": "Shares an exact latitude with Zinguedess\u00e9 \u2014 verify"
   }
  },
  {
   "type": "Feature",
   "geometry": {
    "type": "Point",
    "coordinates": [
     -1.6085,
     12.16687
    ]
   },
   "properties": {
    "name": "Dawn\u00e9gomd\u00e9 2",
    "label": "Dawn\u00e9gomd\u00e9 2",
    "commune": "Komsilga",
    "region": "Kadiogo",
    "site_type": "Community-based Oasis",
    "status": "Established or supported by GBF",
    "coordinate_confidence": "Confirmed \u2014 supplied by GBF, August 2026",
    "source": "Association Georgie Badiel / Georgie Badiel Foundation"
   }
  },
  {
   "type": "Feature",
   "geometry": {
    "type": "Point",
    "coordinates": [
     -1.64714,
     12.17922
    ]
   },
   "properties": {
    "name": "Namassa",
    "label": "Namassa",
    "commune": "Komsilga",
    "region": "Kadiogo",
    "site_type": "Community-based Oasis",
    "status": "Established or supported by GBF",
    "coordinate_confidence": "Confirmed \u2014 supplied by GBF, August 2026",
    "source": "Association Georgie Badiel / Georgie Badiel Foundation"
   }
  },
  {
   "type": "Feature",
   "geometry": {
    "type": "Point",
    "coordinates": [
     -1.584248,
     12.242127
    ]
   },
   "properties": {
    "name": "Zinguedess\u00e9",
    "label": "Zinguedess\u00e9",
    "commune": "Komsilga",
    "region": "Kadiogo",
    "site_type": "Community-based Oasis",
    "status": "Established or supported by GBF",
    "coordinate_confidence": "Confirmed \u2014 supplied by GBF, August 2026",
    "source": "Association Georgie Badiel / Georgie Badiel Foundation",
    "data_note": "Shares an exact latitude with \u00c9cole de Tintilou \u2014 verify"
   }
  },
  {
   "type": "Feature",
   "geometry": {
    "type": "Point",
    "coordinates": [
     -1.70357,
     12.07936
    ]
   },
   "properties": {
    "name": "Toeghin Peulhs",
    "label": "Toeghin Peulhs",
    "commune": "Komsilga",
    "region": "Kadiogo",
    "site_type": "Community-based Oasis",
    "status": "Established or supported by GBF",
    "coordinate_confidence": "Confirmed \u2014 supplied by GBF, August 2026",
    "source": "Association Georgie Badiel / Georgie Badiel Foundation"
   }
  },
  {
   "type": "Feature",
   "geometry": {
    "type": "Point",
    "coordinates": [
     -1.63828,
     12.18292
    ]
   },
   "properties": {
    "name": "CEG Komsilga",
    "label": "CEG Komsilga",
    "commune": "Komsilga",
    "region": "Kadiogo",
    "site_type": "School-based Oasis",
    "status": "Established or supported by GBF",
    "coordinate_confidence": "Confirmed \u2014 supplied by GBF, August 2026",
    "source": "Association Georgie Badiel / Georgie Badiel Foundation"
   }
  },
  {
   "type": "Feature",
   "geometry": {
    "type": "Point",
    "coordinates": [
     -1.629025,
     12.181725
    ]
   },
   "properties": {
    "name": "Lyc\u00e9e d\u00e9partemental Komsilga",
    "label": "Lyc\u00e9e d\u00e9partemental Komsilga",
    "commune": "Komsilga",
    "region": "Kadiogo",
    "site_type": "School-based Oasis",
    "status": "Established or supported by GBF",
    "coordinate_confidence": "Confirmed \u2014 supplied by GBF, August 2026",
    "source": "Association Georgie Badiel / Georgie Badiel Foundation"
   }
  },
  {
   "type": "Feature",
   "geometry": {
    "type": "Point",
    "coordinates": [
     -1.6099,
     12.57435
    ]
   },
   "properties": {
    "name": "Vaagogho",
    "label": "Vaagogho",
    "commune": "Komsilga",
    "region": "Kadiogo",
    "site_type": "Community-based Oasis",
    "status": "Established or supported by GBF",
    "coordinate_confidence": "Confirmed \u2014 supplied by GBF, August 2026",
    "source": "Association Georgie Badiel / Georgie Badiel Foundation",
    "data_note": "Coordinate is 10 m from Wavougu\u00e9 but the site is recorded in a different commune \u2014 verify"
   }
  },
  {
   "type": "Feature",
   "geometry": {
    "type": "Point",
    "coordinates": [
     -1.60988,
     12.57426
    ]
   },
   "properties": {
    "name": "Wavougu\u00e9",
    "label": "Wavougu\u00e9",
    "commune": "Pabr\u00e9",
    "region": "Kadiogo",
    "site_type": "Community-based Oasis",
    "status": "Established or supported by GBF",
    "coordinate_confidence": "Confirmed \u2014 supplied by GBF, August 2026",
    "source": "Association Georgie Badiel / Georgie Badiel Foundation"
   }
  },
  {
   "type": "Feature",
   "geometry": {
    "type": "Point",
    "coordinates": [
     -2.03412,
     12.166878
    ]
   },
   "properties": {
    "name": "Tanghin Wobdo 1",
    "label": "Tanghin Wobdo 1",
    "commune": "Sabou",
    "region": "Nando",
    "site_type": "Community-based Oasis",
    "status": "Established or supported by GBF",
    "coordinate_confidence": "Confirmed \u2014 supplied by GBF, August 2026",
    "source": "Association Georgie Badiel / Georgie Badiel Foundation"
   }
  },
  {
   "type": "Feature",
   "geometry": {
    "type": "Point",
    "coordinates": [
     -2.03753,
     12.16406
    ]
   },
   "properties": {
    "name": "Tanghin Wobdo 2",
    "label": "Tanghin Wobdo 2",
    "commune": "Sabou",
    "region": "Nando",
    "site_type": "Community-based Oasis",
    "status": "Established or supported by GBF",
    "coordinate_confidence": "Confirmed \u2014 supplied by GBF, August 2026",
    "source": "Association Georgie Badiel / Georgie Badiel Foundation"
   }
  },
  {
   "type": "Feature",
   "geometry": {
    "type": "Point",
    "coordinates": [
     -2.231533,
     12.057022
    ]
   },
   "properties": {
    "name": "\u00c9cole Wend-Kouni",
    "label": "\u00c9cole Wend-Kouni",
    "commune": "Sabou",
    "region": "Nando",
    "site_type": "School-based Oasis",
    "status": "Established or supported by GBF",
    "coordinate_confidence": "Confirmed \u2014 supplied by GBF, August 2026",
    "source": "Association Georgie Badiel / Georgie Badiel Foundation"
   }
  },
  {
   "type": "Feature",
   "geometry": {
    "type": "Point",
    "coordinates": [
     -2.32906,
     12.273033
    ]
   },
   "properties": {
    "name": "Guy",
    "label": "Guy",
    "commune": "Koudougou",
    "region": "Nando",
    "site_type": "Community-based Oasis",
    "status": "Established or supported by GBF",
    "coordinate_confidence": "Confirmed \u2014 supplied by GBF, August 2026",
    "source": "Association Georgie Badiel / Georgie Badiel Foundation"
   }
  },
  {
   "type": "Feature",
   "geometry": {
    "type": "Point",
    "coordinates": [
     -2.71661,
     11.72802
    ]
   },
   "properties": {
    "name": "Simri / Manga",
    "label": "Simri / Manga",
    "commune": "Bind\u00e9 / Manga",
    "region": "Nazinon",
    "site_type": "Community-based Oasis",
    "status": "Established or supported by GBF",
    "coordinate_confidence": "Confirmed \u2014 supplied by GBF, August 2026",
    "source": "Association Georgie Badiel / Georgie Badiel Foundation"
   }
  }
 ]
}