{
 "type": "FeatureCollection",
 "name": "gbf_oasis_catchment_5km",
 "features": [
  {
   "type": "Feature",
   "geometry": {
    "type": "Polygon",
    "coordinates": [
     [
      [
       -1.6841,
       12.296166
      ],
      [
       -1.679589,
       12.29595
      ],
      [
       -1.675122,
       12.295302
      ],
      [
       -1.670741,
       12.29423
      ],
      [
       -1.666488,
       12.292743
      ],
      [
       -1.662406,
       12.290856
      ],
      [
       -1.658532,
       12.288587
      ],
      [
       -1.654905,
       12.285958
      ],
      [
       -1.651559,
       12.282994
      ],
      [
       -1.648527,
       12.279724
      ],
      [
       -1.645837,
       12.276179
      ],
      [
       -1.643516,
       12.272394
      ],
      [
       -1.641586,
       12.268405
      ],
      [
       -1.640065,
       12.264249
      ],
      [
       -1.638969,
       12.259969
      ],
      [
       -1.638307,
       12.255604
      ],
      [
       -1.638086,
       12.251196
      ],
      [
       -1.638308,
       12.246789
      ],
      [
       -1.638972,
       12.242424
      ],
      [
       -1.64007,
       12.238144
      ],
      [
       -1.641591,
       12.233989
      ],
      [
       -1.643523,
       12.23
      ],
      [
       -1.645844,
       12.226216
      ],
      [
       -1.648535,
       12.222672
      ],
      [
       -1.651567,
       12.219402
      ],
      [
       -1.654913,
       12.216439
      ],
      [
       -1.65854,
       12.213811
      ],
      [
       -1.662412,
       12.211543
      ],
      [
       -1.666494,
       12.209656
      ],
      [
       -1.670745,
       12.20817
      ],
      [
       -1.675125,
       12.207098
      ],
      [
       -1.679591,
       12.20645
      ],
      [
       -1.6841,
       12.206234
      ],
      [
       -1.688609,
       12.20645
      ],
      [
       -1.693075,
       12.207098
      ],
      [
       -1.697455,
       12.20817
      ],
      [
       -1.701706,
       12.209656
      ],
      [
       -1.705788,
       12.211543
      ],
      [
       -1.70966,
       12.213811
      ],
      [
       -1.713287,
       12.216439
      ],
      [
       -1.716633,
       12.219402
      ],
      [
       -1.719665,
       12.222672
      ],
      [
       -1.722356,
       12.226216
      ],
      [
       -1.724677,
       12.23
      ],
      [
       -1.726609,
       12.233989
      ],
      [
       -1.72813,
       12.238144
      ],
      [
       -1.729228,
       12.242424
      ],
      [
       -1.729892,
       12.246789
      ],
      [
       -1.730114,
       12.251196
      ],
      [
       -1.729893,
       12.255604
      ],
      [
       -1.729231,
       12.259969
      ],
      [
       -1.728135,
       12.264249
      ],
      [
       -1.726614,
       12.268405
      ],
      [
       -1.724684,
       12.272394
      ],
      [
       -1.722363,
       12.276179
      ],
      [
       -1.719673,
       12.279724
      ],
      [
       -1.716641,
       12.282994
      ],
      [
       -1.713295,
       12.285958
      ],
      [
       -1.709668,
       12.288587
      ],
      [
       -1.705794,
       12.290856
      ],
      [
       -1.701712,
       12.292743
      ],
      [
       -1.697459,
       12.29423
      ],
      [
       -1.693078,
       12.295302
      ],
      [
       -1.688611,
       12.29595
      ],
      [
       -1.6841,
       12.296166
      ]
     ]
    ]
   },
   "properties": {
    "oasis_id": "OAS-001",
    "name": "Oasis Tanghin-Dassouri",
    "commune": "Tanghin-Dassouri",
    "region": "Centre",
    "status": "ACTIVE_UNCONFIRMED",
    "storage_litres": "5000",
    "rated_output_litres_per_hour": "5000",
    "telemetry_available": "UNKNOWN",
    "serves_as_data_backhaul": "yes",
    "households_served_month6_illustrative": "180",
    "charge_controller": "[PENDING \u2014 see open item]",
    "coordinate_confidence": "ILLUSTRATIVE",
    "provenance": "ILLUSTRATIVE_STRUCTURE_ONLY",
    "catchment_km": 5,
    "catchment_label": "5 km radius \u2014 approximate walking catchment",
    "label": "Oasis Tanghin-Dassouri \u2014 5 km catchment",
    "note": "Straight-line distance. Actual walking distance is longer, following tracks and terrain."
   }
  },
  {
   "type": "Feature",
   "geometry": {
    "type": "Polygon",
    "coordinates": [
     [
      [
       -1.6009,
       12.246366
      ],
      [
       -1.59639,
       12.24615
      ],
      [
       -1.591923,
       12.245502
      ],
      [
       -1.587543,
       12.24443
      ],
      [
       -1.583292,
       12.242943
      ],
      [
       -1.57921,
       12.241056
      ],
      [
       -1.575337,
       12.238787
      ],
      [
       -1.571711,
       12.236158
      ],
      [
       -1.568365,
       12.233194
      ],
      [
       -1.565334,
       12.229924
      ],
      [
       -1.562644,
       12.226379
      ],
      [
       -1.560324,
       12.222594
      ],
      [
       -1.558394,
       12.218605
      ],
      [
       -1.556873,
       12.214449
      ],
      [
       -1.555777,
       12.210169
      ],
      [
       -1.555115,
       12.205804
      ],
      [
       -1.554895,
       12.201396
      ],
      [
       -1.555117,
       12.196989
      ],
      [
       -1.55578,
       12.192624
      ],
      [
       -1.556878,
       12.188344
      ],
      [
       -1.558399,
       12.184189
      ],
      [
       -1.56033,
       12.1802
      ],
      [
       -1.562652,
       12.176416
      ],
      [
       -1.565341,
       12.172872
      ],
      [
       -1.568373,
       12.169602
      ],
      [
       -1.571718,
       12.166639
      ],
      [
       -1.575344,
       12.164011
      ],
      [
       -1.579216,
       12.161743
      ],
      [
       -1.583297,
       12.159856
      ],
      [
       -1.587548,
       12.15837
      ],
      [
       -1.591926,
       12.157298
      ],
      [
       -1.596391,
       12.15665
      ],
      [
       -1.6009,
       12.156434
      ],
      [
       -1.605409,
       12.15665
      ],
      [
       -1.609874,
       12.157298
      ],
      [
       -1.614252,
       12.15837
      ],
      [
       -1.618503,
       12.159856
      ],
      [
       -1.622584,
       12.161743
      ],
      [
       -1.626456,
       12.164011
      ],
      [
       -1.630082,
       12.166639
      ],
      [
       -1.633427,
       12.169602
      ],
      [
       -1.636459,
       12.172872
      ],
      [
       -1.639148,
       12.176416
      ],
      [
       -1.64147,
       12.1802
      ],
      [
       -1.643401,
       12.184189
      ],
      [
       -1.644922,
       12.188344
      ],
      [
       -1.64602,
       12.192624
      ],
      [
       -1.646683,
       12.196989
      ],
      [
       -1.646905,
       12.201396
      ],
      [
       -1.646685,
       12.205804
      ],
      [
       -1.646023,
       12.210169
      ],
      [
       -1.644927,
       12.214449
      ],
      [
       -1.643406,
       12.218605
      ],
      [
       -1.641476,
       12.222594
      ],
      [
       -1.639156,
       12.226379
      ],
      [
       -1.636466,
       12.229924
      ],
      [
       -1.633435,
       12.233194
      ],
      [
       -1.630089,
       12.236158
      ],
      [
       -1.626463,
       12.238787
      ],
      [
       -1.62259,
       12.241056
      ],
      [
       -1.618508,
       12.242943
      ],
      [
       -1.614257,
       12.24443
      ],
      [
       -1.609877,
       12.245502
      ],
      [
       -1.60541,
       12.24615
      ],
      [
       -1.6009,
       12.246366
      ]
     ]
    ]
   },
   "properties": {
    "oasis_id": "OAS-002",
    "name": "Oasis Komsilga",
    "commune": "Komsilga",
    "region": "Centre",
    "status": "ACTIVE_UNCONFIRMED",
    "storage_litres": "5000",
    "rated_output_litres_per_hour": "5000",
    "telemetry_available": "UNKNOWN",
    "serves_as_data_backhaul": "yes",
    "households_served_month6_illustrative": "164",
    "charge_controller": "[PENDING \u2014 see open item]",
    "coordinate_confidence": "ILLUSTRATIVE",
    "provenance": "ILLUSTRATIVE_STRUCTURE_ONLY",
    "catchment_km": 5,
    "catchment_label": "5 km radius \u2014 approximate walking catchment",
    "label": "Oasis Komsilga \u2014 5 km catchment",
    "note": "Straight-line distance. Actual walking distance is longer, following tracks and terrain."
   }
  }
 ]
}