{
 "type": "FeatureCollection",
 "name": "gbf_oasis_polygons",
 "features": [
  {
   "type": "Feature",
   "geometry": {
    "type": "Polygon",
    "coordinates": [
     [
      [
       -1.6841,
       12.305159
      ],
      [
       -1.676891,
       12.304698
      ],
      [
       -1.669806,
       12.30332
      ],
      [
       -1.662965,
       12.301051
      ],
      [
       -1.656487,
       12.297929
      ],
      [
       -1.650481,
       12.294007
      ],
      [
       -1.64505,
       12.289352
      ],
      [
       -1.640288,
       12.284045
      ],
      [
       -1.636276,
       12.278176
      ],
      [
       -1.633082,
       12.271845
      ],
      [
       -1.630762,
       12.265161
      ],
      [
       -1.629354,
       12.258238
      ],
      [
       -1.628883,
       12.251194
      ],
      [
       -1.629357,
       12.244151
      ],
      [
       -1.630768,
       12.237229
      ],
      [
       -1.63309,
       12.230546
      ],
      [
       -1.636286,
       12.224216
      ],
      [
       -1.640299,
       12.218348
      ],
      [
       -1.645061,
       12.213042
      ],
      [
       -1.650492,
       12.208389
      ],
      [
       -1.656496,
       12.204469
      ],
      [
       -1.662973,
       12.201347
      ],
      [
       -1.669812,
       12.199079
      ],
      [
       -1.676894,
       12.197702
      ],
      [
       -1.6841,
       12.197241
      ],
      [
       -1.691306,
       12.197702
      ],
      [
       -1.698388,
       12.199079
      ],
      [
       -1.705227,
       12.201347
      ],
      [
       -1.711704,
       12.204469
      ],
      [
       -1.717708,
       12.208389
      ],
      [
       -1.723139,
       12.213042
      ],
      [
       -1.727901,
       12.218348
      ],
      [
       -1.731914,
       12.224216
      ],
      [
       -1.73511,
       12.230546
      ],
      [
       -1.737432,
       12.237229
      ],
      [
       -1.738843,
       12.244151
      ],
      [
       -1.739317,
       12.251194
      ],
      [
       -1.738846,
       12.258238
      ],
      [
       -1.737438,
       12.265161
      ],
      [
       -1.735118,
       12.271845
      ],
      [
       -1.731924,
       12.278176
      ],
      [
       -1.727912,
       12.284045
      ],
      [
       -1.72315,
       12.289352
      ],
      [
       -1.717719,
       12.294007
      ],
      [
       -1.711713,
       12.297929
      ],
      [
       -1.705235,
       12.301051
      ],
      [
       -1.698394,
       12.30332
      ],
      [
       -1.691309,
       12.304698
      ],
      [
       -1.6841,
       12.305159
      ]
     ]
    ]
   },
   "properties": {
    "oasis_id": "OAS-001",
    "name": "Oasis Tanghin-Dassouri",
    "commune": "Tanghin-Dassouri",
    "region": "Centre",
    "status": "ACTIVE_UNCONFIRMED",
    "storage_litres": "5000",
    "rated_output_litres_per_hour": "5000",
    "telemetry_available": "UNKNOWN",
    "serves_as_data_backhaul": "yes",
    "households_served_month6_illustrative": "180",
    "charge_controller": "[PENDING \u2014 see open item]",
    "coordinate_confidence": "ILLUSTRATIVE",
    "provenance": "ILLUSTRATIVE_STRUCTURE_ONLY",
    "marker-color": "#10B981",
    "marker-size": "large",
    "fill": "#10B981",
    "fill-opacity": 0.9,
    "stroke": "#FFFFFF",
    "stroke-width": 3,
    "stroke-opacity": 1,
    "label": "Oasis Tanghin-Dassouri"
   }
  },
  {
   "type": "Feature",
   "geometry": {
    "type": "Polygon",
    "coordinates": [
     [
      [
       -1.6009,
       12.255359
      ],
      [
       -1.593693,
       12.254898
      ],
      [
       -1.586609,
       12.25352
      ],
      [
       -1.579769,
       12.251251
      ],
      [
       -1.573292,
       12.248129
      ],
      [
       -1.567287,
       12.244207
      ],
      [
       -1.561858,
       12.239552
      ],
      [
       -1.557096,
       12.234245
      ],
      [
       -1.553085,
       12.228376
      ],
      [
       -1.549892,
       12.222045
      ],
      [
       -1.547572,
       12.215361
      ],
      [
       -1.546164,
       12.208438
      ],
      [
       -1.545694,
       12.201395
      ],
      [
       -1.546167,
       12.194351
      ],
      [
       -1.547578,
       12.187429
      ],
      [
       -1.5499,
       12.180746
      ],
      [
       -1.553095,
       12.174416
      ],
      [
       -1.557107,
       12.168548
      ],
      [
       -1.561869,
       12.163242
      ],
      [
       -1.567298,
       12.158589
      ],
      [
       -1.573302,
       12.154669
      ],
      [
       -1.579777,
       12.151547
      ],
      [
       -1.586614,
       12.149279
      ],
      [
       -1.593696,
       12.147902
      ],
      [
       -1.6009,
       12.147441
      ],
      [
       -1.608104,
       12.147902
      ],
      [
       -1.615186,
       12.149279
      ],
      [
       -1.622023,
       12.151547
      ],
      [
       -1.628498,
       12.154669
      ],
      [
       -1.634502,
       12.158589
      ],
      [
       -1.639931,
       12.163242
      ],
      [
       -1.644693,
       12.168548
      ],
      [
       -1.648705,
       12.174416
      ],
      [
       -1.6519,
       12.180746
      ],
      [
       -1.654222,
       12.187429
      ],
      [
       -1.655633,
       12.194351
      ],
      [
       -1.656106,
       12.201395
      ],
      [
       -1.655636,
       12.208438
      ],
      [
       -1.654228,
       12.215361
      ],
      [
       -1.651908,
       12.222045
      ],
      [
       -1.648715,
       12.228376
      ],
      [
       -1.644704,
       12.234245
      ],
      [
       -1.639942,
       12.239552
      ],
      [
       -1.634513,
       12.244207
      ],
      [
       -1.628508,
       12.248129
      ],
      [
       -1.622031,
       12.251251
      ],
      [
       -1.615191,
       12.25352
      ],
      [
       -1.608107,
       12.254898
      ],
      [
       -1.6009,
       12.255359
      ]
     ]
    ]
   },
   "properties": {
    "oasis_id": "OAS-002",
    "name": "Oasis Komsilga",
    "commune": "Komsilga",
    "region": "Centre",
    "status": "ACTIVE_UNCONFIRMED",
    "storage_litres": "5000",
    "rated_output_litres_per_hour": "5000",
    "telemetry_available": "UNKNOWN",
    "serves_as_data_backhaul": "yes",
    "households_served_month6_illustrative": "164",
    "charge_controller": "[PENDING \u2014 see open item]",
    "coordinate_confidence": "ILLUSTRATIVE",
    "provenance": "ILLUSTRATIVE_STRUCTURE_ONLY",
    "marker-color": "#10B981",
    "marker-size": "large",
    "fill": "#10B981",
    "fill-opacity": 0.9,
    "stroke": "#FFFFFF",
    "stroke-width": 3,
    "stroke-opacity": 1,
    "label": "Oasis Komsilga"
   }
  }
 ]
}